"name","city","state","country","address","Longitude","Latitude","Municipalities","Website",""
"Cemit�rio de Santo Tirso","Santo Tirso"," Porto District"," Portugal","1 Rua Pinheirinho Santo Tirso, Santo Tirso Municipality, Porto District Portugal","-8.46555599999999","41.351547"," Santo Tirso Municipality","",""
"Cemit�rio de Salvador do Monte","Salvador do Monte"," Porto District"," Portugal","58 Rua da Igreja Salvador do Monte, Amarante Municipality, Porto District, 4600-720 Portugal","-8.09554800000001","41.239842"," Amarante Municipality","",""
"Cemit�rio de Rio Mau","Rio Mau"," Porto District"," Portugal","59 Rua S�o Jo�o Rio Mau, Penafiel, Porto District Portugal","-8.37294499999996","41.052349"," Penafiel","",""
"Cemit�rio de Santiago de Bougado","Trofa Municipality"," Porto District"," Portugal","82 Rua Nicolau Nazoni Trofa Municipality, Trofa, Porto District Portugal","-8.575062","41.33918"," Trofa","",""
"Cemit�rio de Recarei","Paredes Municipality"," Porto District"," Portugal","35 Rua de Santa Apol�nia Paredes Municipality, Porto District Portugal","-8.41047900000001","41.155125","","",""
"Cemit�rio de Rans","Penafiel"," Porto District"," Portugal","34 Rua da Fonte Nova Penafiel, Porto District Portugal","-8.30157299999996","41.169422","","",""
"Cemit�rio de Pinheiro","Pinheiro"," Porto District"," Portugal","10 N207-3 Pinheiro, Felgueiras Municipality, Porto District Portugal","-8.15476799999999","41.367605"," Felgueiras Municipality","",""
"Cemit�rio de Santana","Amarante Municipality"," Porto District"," Portugal","182 Rua Santa Ana Amarante Municipality, Porto District Portugal","-8.10702100000003","41.331878","","",""
"Cemit�rio de Rio de Galinhas","Rio de Galinhas"," Porto District"," Portugal","523 Rua Igreja Rio de Galinhas, Marco de Canaveses Municipality, Porto District, 4630-248 Portugal","-8.13794800000005","41.177468"," Marco de Canaveses Municipality","",""
"Cemit�rio de Vale Flores","Feij�"," Set�bal"," Portugal","Autoestrada Do Sul Feij�, Set�bal, 2810-399 Portugal","-9.17102499999999","38.654168","","",""
"Cemit�rio de Refojos","Santo Tirso Municipality"," Porto District"," Portugal","773 Avenida Igreja Santo Tirso Municipality, Porto District Portugal","-8.44949399999996","41.289946","","",""
"Cemit�rio de Sesimbra","Sesimbra"," Set�bal"," Portugal","3 Rua Jos� Pinto Br�s Sesimbra, Sesimbra, Set�bal, 2970-744 Portugal","-9.10354099999995","38.445245"," Sesimbra","",""
"Cemit�rio de Torr�o","Torr�o"," Set�bal"," Portugal","127 N2 Torr�o, Alc�cer do Sal, Set�bal Portugal","-8.22265200000004","38.290223"," Alc�cer do Sal","",""
"Cemit�rio de Sarilhos Grandes","Sarilhos Grandes"," Set�bal"," Portugal","151 Rua Do Cemit�rio Sarilhos Grandes, Set�bal, 2870-515 Portugal","-8.96606700000007","38.678826","","",""
"Cemit�rio de S�o Martinho do Outeiro","Outeiro Maior"," Porto District"," Portugal","440 Avenida Principal Outeiro Maior, Vila do Conde, Porto District, 4480-330 Portugal","-8.64908100000002","41.371902"," Vila do Conde","",""
"Cemit�rio de S�o Domingos","Santiago do Cac�m Municipality"," Set�bal"," Portugal","Rua de Ac�cio Guerreiro de Melo Santiago do Cac�m Municipality, Set�bal Portugal","-8.54111799999998","37.926023","","",""
"Cemit�rio de S�o Bartolomeu da Serra","Santiago do Cac�m Municipality"," Set�bal"," Portugal","9 Rua da Quinta Nova Santiago do Cac�m Municipality, Set�bal Portugal","-8.61560299999996","38.014773","","",""
"Cemit�rio de Santo Isidro","Santo Isidro de Peg�es"," Set�bal"," Portugal","152 Rua Her�is Do Ultramar Santo Isidro de Peg�es, Set�bal, 2985-120 Portugal","-8.67982800000004","38.685635","","",""
"Cemit�rio de Raimonda","Pa�os de Ferreira"," Porto District"," Portugal","98 Avenida Padre Alexandrino Brochado Pa�os de Ferreira, Porto District, 4590-655 Portugal","-8.33404399999995","41.31855","","",""
"Cemit�rio de Vale de Guizo","Alc�cer do Sal"," Set�bal"," Portugal","16 Rua Catarina Euf�mia Alc�cer do Sal, Set�bal Portugal","-8.47481500000004","38.295337","","",""
"Cemit�rio de S�o Sebasti�o","Montijo"," Set�bal"," Portugal","156 Rua Ciprestes Montijo, Montijo Municipality, Set�bal, 2870-108 Portugal","-8.96835599999997","38.708136"," Montijo Municipality","",""
"Cemit�rio de Santo Andr�","Santiago do Cac�m"," Set�bal"," Portugal","Cavaleiros de Madina Santiago do Cac�m, Santiago do Cac�m Municipality, Set�bal Portugal","-8.75227399999994","38.052587"," Santiago do Cac�m Municipality","",""
"Cemit�rio de Santiago do Cac�m","Santiago do Cac�m"," Set�bal"," Portugal","62 Rua Padre Ant� Mac�do Santiago do Cac�m, Santiago do Cac�m, Set�bal Portugal","-8.6978324732665","38.014311626854"," Santiago do Cac�m","",""
"Cemit�rio de Palma","Alc�cer do Sal"," Set�bal"," Portugal","IC1 Alc�cer do Sal, Set�bal Portugal","-8.597216","38.48299","","",""
"Cemit�rio de Santa Cruz (Cac�m)","Santiago do Cac�m"," Set�bal"," Portugal","IC33 Santiago do Cac�m, Santiago do Cac�m Municipality, Set�bal Portugal","-8.70467699999995","38.049513"," Santiago do Cac�m Municipality","",""
"Cemit�rio de Santa Susana","Santa Susana (Aldeia de Santa Susana)"," Set�bal"," Portugal","26 Rua Primeiro de Maio Santa Susana (Aldeia de Santa Susana), Alc�cer do Sal, Set�bal Portugal","-8.38698799999997","38.447173"," Alc�cer do Sal","",""
"Cemit�rio de Santa Margarida do Sado","Ferreira do Alentejo Municipality"," Set�bal"," Portugal","N259 Ferreira do Alentejo Municipality, Set�bal Portugal","-8.35754999999995","38.109829","","",""
"Cemit�rio de Branzelo","Melres"," Porto"," Portugal","Largo De Santo Ant�nio Melres, Porto, 4515-498 Portugal","-8.42034999999999","41.077071","","",""
"Cemit�rio de Santa Margarida da Serra","Gr�ndola"," Set�bal"," Portugal","N120 Gr�ndola, Set�bal Portugal","-8.59936300000004","38.116631","","",""
"Cemit�rio de Beire","Beire"," Porto"," Portugal","15 R Central De Eiro Beire, Porto, 4580-282 Portugal","-8.32285899999999","41.248248","","",""
"Cemit�rio de Santa Catarina","Alc�cer do Sal"," Set�bal"," Portugal","8 Rua da Igreja Alc�cer do Sal, Set�bal Portugal","-8.43243099999995","38.392673","","",""
"Cemit�rio de Melides","Gr�ndola"," Set�bal"," Portugal","N261 Gr�ndola, Set�bal Portugal","-8.73590000000002","38.149096","","",""
"Cemit�rio de Casebres","S�o Martinho"," Set�bal"," Portugal","Em 539 S�o Martinho, Set�bal, 7580-551 Portugal","-8.49374599999999","38.521074","","",""
"Cemit�rio de Bai�o","Bai�o"," Porto"," Portugal","Er 108 Bai�o, Porto, 4640-445 Portugal","-8.08684800000003","41.117412","","",""
"Cemit�rio de Branzelo","Melres"," Porto"," Portugal","Largo De Santo Ant�nio Melres, Porto, 4515-498 Portugal","-8.42034999999999","41.077071","","",""
"Cemit�rio de Aveleda","Aveleda"," Porto"," Portugal","7 R Moimenta Aveleda, Porto, 4620-023 Portugal","-8.25114499999995","41.280113","","",""
"Cemit�rio de Barrosas Santo Estev�o","Santo Est�v�o de Barrosas"," Porto"," Portugal","74 Av Senhor Do Padrao Santo Est�v�o de Barrosas, Porto, 4620-615 Portugal","-8.28243699999996","41.331435","","",""
"Cemit�rio de Palhais","Palhais"," Set�bal"," Portugal","31 R 1 De Maio Palhais, Set�bal, 2830-566 Portugal","-9.04000700000006","38.622157","","",""
"Cemit�rio de Barrosas","Santo Est�v�o de Barrosas"," Porto"," Portugal","Em 562 Santo Est�v�o de Barrosas, Porto, 4620-615 Portugal","-8.27255500000001","41.326814","","",""
"Cemit�rio de Banho","Marco de Canaveses Municipality"," Porto"," Portugal","214 R Ant�nio Augusto Matos Marco de Canaveses Municipality, Porto, 4635-022 Portugal","-8.15455399999996","41.250365","","",""
"Cemit�rio de Avessadas","Marco de Canaveses Municipality"," Porto"," Portugal","182 R Foufa Marco de Canaveses Municipality, Porto, 4630-011 Portugal","-8.17974100000004","41.164932","","",""
"Cemit�rio de Areias","Areias"," Porto"," Portugal","632 Av Estadio Areias, Porto, 4780-002 Portugal","-8.47344299999998","41.364342","","",""
"Cemit�rio de Anqui�o","Gesta��"," Porto"," Portugal","En 321-2 Gesta��, Porto, 4640-231 Portugal","-7.89708500000006","41.162627","","",""
"Cemit�rio da V�rzea da Ovelha","Marco de Canaveses Municipality"," Porto"," Portugal","1648 R Santo Andre Marco de Canaveses Municipality, Porto, 4635-602 Portugal","-8.11175600000001","41.204529","","",""
"Cemit�rio de Anc�de","Ancede"," Porto"," Portugal","Avenida C�ndido Ferreira Ancede, Porto, 4640-036 Portugal","-8.06263000000001","41.103323","","",""
"Cemit�rio de Alvarenga","Alvarenga"," Porto"," Portugal","15 R Nsa Sra Da Natividade Alvarenga, Porto, 4620-010 Portugal","-8.26749500000005","41.295198","","",""
"Cemit�rio de Air�es","Air�es"," Porto"," Portugal","Cm 1191 Air�es, Porto, 4650-084 Portugal","-8.20019600000001","41.316888","","",""
"Cemit�rio da Par�quia do Grilo","Grilo"," Porto"," Portugal","307 R Cruzeiro Grilo, Porto, 4640-302 Portugal","-8.07252100000005","41.136549","","",""
"Cemit�rio de Abrag�o","Abrag�o"," Porto"," Portugal","67 Lg Dr Armando Melo Abrag�o, Porto, 4560-015 Portugal","-8.22138300000006","41.157078","","",""
"Cemit�rio de Aboadela","Aboadela"," Porto"," Portugal","32 Cc Igreja Aboadela, Porto, 4600-500 Portugal","-7.98764200000005","41.275937","","",""
"Cemit�rio da P�voa de Varzim","P�voa de Varzim"," Porto"," Portugal","345 R Almeida Brand�o P�voa de Varzim, Porto, 4490-462 Portugal","-8.75190299999997","41.38369","","",""
"Cemit�rio de Paranhos","Sobrado"," Porto District"," Portugal","127 Rua Doutor Manuel Pereira da Silva Sobrado, Porto District, Porto District Portugal","-8.60129499999994","41.174588"," Porto District","",""
"Cemit�rio de Palmeira","Santo Tirso Municipality"," Porto District"," Portugal","331 Rua Manuel Cruz Santo Tirso Municipality, Porto District Portugal","-8.49788100000001","41.364167","","",""
"Cemit�rio de Olival","Vila Nova de Gaia"," Porto District"," Portugal","100 Avenida Joaquim Ferreira dos Santos Vila Nova de Gaia, Porto District Portugal","-8.54317000000003","41.046583","","",""
"Cemit�rio da Portela","Portela"," Porto"," Portugal","477 Av Igreja Portela, Porto, 4575-404 Portugal","-8.30152999999996","41.11042","","",""
"Cemit�rio da Par�quia do Grilo","Grilo"," Porto"," Portugal","307 R Cruzeiro Grilo, Porto, 4640-302 Portugal","-8.07252100000005","41.136549","","",""
"Cemit�rio de Ordem","Lousada"," Porto District"," Portugal","42 Rua Ab�lio Nunes Lousada, Porto District Portugal","-8.302728","41.285099","","",""
"Cemit�rio de Oliveira","Amarante Municipality"," Porto District"," Portugal","Amarante Municipality, Porto District, 4605-048 Portugal","-8.20160599999997","41.257459","","",""
"Cemit�rio de Magrelos","Marco de Canaveses Municipality"," Porto District"," Portugal","76 Travessa Igreja Marco de Canaveses Municipality, Porto District Portugal","-8.21749599999998","41.098018","","",""
"Cemit�rio de Mafamude","Vila Nova de Gaia"," Porto District"," Portugal","1063 Rua 14 Outubro Vila Nova de Gaia, Portugal, Porto District, 4430-051 Portugal","-8.601541","41.125898"," Portugal","",""
"Cemit�rio de Nevogilde","Sobrado"," Porto District"," Portugal","61 Travessa Nevogilde Sobrado, Porto District, Porto District Portugal","-8.67658900000004","41.164301"," Porto District","",""
"Cemit�rio de Malta","Vila do Conde"," Porto District"," Portugal","171 Rua da Igreja Vila do Conde, Porto District Portugal","-8.66650500000003","41.30238","","",""
"Cemit�rio de Lordelo","Lordelo"," Porto District"," Portugal","515 Rua da Igreja Lordelo, Paredes Municipality, Porto District Portugal","-8.41044599999998","41.2328"," Paredes Municipality","",""
"Cemit�rio de Macieira","Macieira da Maia"," Porto District"," Portugal","81 Rua da Igreja Macieira da Maia, Vila do Conde, Porto District, 4485-377 Portugal","-8.66871800000001","41.342571"," Vila do Conde","",""
"Cemit�rio de Lordelo do Ouro","Sobrado"," Porto District"," Portugal","1106 Rua Ant�nio Bessa Leite Sobrado, Porto District, Porto District, 4150-001 Portugal","-8.64594599999998","41.156449"," Porto District","",""
"Cemit�rio de Lama","Lama"," Porto District"," Portugal","393 Rua Beato Nun'Alvares Lama, Santo Tirso Municipality, Porto District, 4780-292 Portugal","-8.46748500000001","41.358833"," Santo Tirso Municipality","",""
"Cemit�rio de Le�a da Palmeira","Sobrado"," Porto District"," Portugal","56 Rua Sol Poente Sobrado, Matosinhos, Porto District Portugal","-8.70252700000003","41.200178"," Matosinhos","",""
"Cemit�rio de Loivos do Monte","Bai�o Municipality"," Porto District"," Portugal","180 Avenida Igreja Bai�o Municipality, Porto District Portugal","-7.97184500000003","41.194228","","",""
"Cemit�rio de Guid�es","Trofa"," Porto District"," Portugal","20 Rua Jos� Duro Trofa, Porto District, 4745-266 Portugal","-8.61933199999999","41.31862","","",""
"Cemit�rio de Gi�o, Vila do Conde","Vila do Conde"," Porto District"," Portugal","Largo do Adro Vila do Conde, Porto, Porto District Portugal","-8.6715","41.31055"," Porto","",""
"Cemit�rio de Canha","Canha"," Set�bal"," Portugal","60A N251 Canha, Montijo, Set�bal Portugal","-8.62955399999998","38.765156"," Montijo","",""
"Cemit�rio de Azinheira dos Barros","Santiago do Cac�m Municipality"," Set�bal"," Portugal","IC1 Santiago do Cac�m Municipality, Set�bal Portugal","-8.41199699999993","38.06761","","",""
"Cemit�rio de Alvalade","Santiago do Cac�m Municipality"," Set�bal"," Portugal","35 Rua de S. Pedro Santiago do Cac�m Municipality, Set�bal Portugal","-8.39529500000003","37.938277","","",""
"Cemit�rio de Lomba","Lomba"," Porto District"," Portugal","367 CM1214 Lomba, Amarante Municipality, Porto District, 4600-661 Portugal","-8.064165","41.248913"," Amarante Municipality","",""
"Cemit�rio de Jugueiros","Penafiel"," Porto District"," Portugal","Rua da Granja Penafiel, Porto District Portugal","-8.28374099999996","41.101545","","",""
"Cemit�rio de Almada","Almada"," Set�bal"," Portugal","8 Praceta Jos� Maria de Oliveira Almada, Almada, Set�bal Portugal","-9.16204800000003","38.682175"," Almada","",""
"Cemit�rio de Algeruz","Palmela"," Set�bal"," Portugal","3225 R Principal Algeruz Palmela, Set�bal, 2950-077 Portugal","-8.8320251","38.5815173","","",""
"Cemit�rio de Louredo","Louredo"," Porto District"," Portugal","78 Avenida Padre Amadeu Louredo, Paredes Municipality, Porto District Portugal","-8.33921899999996","41.238774"," Paredes Municipality","",""
"Cemit�rio de Alcochete","Alcochete"," Set�bal"," Portugal","18 Rua Beneficiado Oliveira Alcochete, Alcochete Municipality, Set�bal, 2890-175 Portugal","-8.95796799999994","38.754339"," Alcochete Municipality","",""
"Cemit�rio da Quinta do Anjo","Quinta do Anjo"," Set�bal"," Portugal","5 Rua 25 De Abril Quinta do Anjo, Set�bal, 2950-748 Portugal","-8.94989299999997","38.562083","","",""
"Cemit�rio da Costa da Caparica","Costa da Caparica"," Set�bal"," Portugal","9A Rua Manuel Toucinho Costa da Caparica, Set�bal, 2825-471 Portugal","-9.23023699999999","38.648524","","",""
"Cemit�rio de Grij�","Sobrado"," Porto District"," Portugal","240 Rua Cardoso Pinto Sobrado, Vila Nova de Gaia, Porto District Portugal","-8.58188900000005","41.027775"," Vila Nova de Gaia","",""
"Cemit�rio de Alc�cer do Sal","Alc�cer do Sal"," Set�bal"," Portugal","20 R Beato Francisco Magalh�es Alc�cer do Sal, Set�bal, 7580-129 Portugal","-8.51220499999999","38.375659","","",""
"Cemit�rio de �guas de Moura","Marateca"," Set�bal"," Portugal","IC1 Marateca, Set�bal, 2965-589 Portugal","-8.67045899999994","38.578881","","",""
"Cemit�rio de Abela","Santiago do Cac�m Municipality"," Set�bal"," Portugal","16 Rua Doutor Ant�nio Almeida Fernandes Santiago do Cac�m Municipality, Set�bal Portugal","-8.55879700000003","37.999184","","",""
"Cemit�rio Castelo (Sesimbra)","Santiago"," Set�bal"," Portugal","67 Rua Dom Sancho I Santiago, Sesimbra, Set�bal, 2970-319 Portugal","-9.1030564100647","38.445116112527"," Sesimbra","",""
"Cemit�rio da Caparica","Caparica"," Set�bal"," Portugal","Rua Quinta Da Baboseira Caparica, Set�bal, 2825-108 Portugal","-9.20911699999999","38.659294","","",""
"Cemit�rio da Arrentela","Arrentela"," Set�bal"," Portugal","4 Cal�ada Boa Hora Arrentela, Seixal Municipality, Set�bal, 2840-156 Portugal","-9.10273299999994","38.625338"," Seixal Municipality","",""
"agramonte","Porto"," Porto"," Portugal","Porto, Porto, 4150-335 Portugal","-8.6332909985414","41.156482587569","","",""
"Cemit�rio da Junqueira","Junqueira"," Porto"," Portugal","567 Rua Central Junqueira, Porto, 4480-272 Portugal","-8.684932","41.377451","","",""
"Cemit�rio da Aliviada","Marco de Canaveses Municipality"," Porto"," Portugal","310 R Carmem Miranda Marco de Canaveses Municipality, Porto, 4635-548 Portugal","-8.12318900000003","41.20575","","",""
"Cemit�rio d'Arcos","Arcos"," Porto"," Portugal","136 Rua da Igreja Arcos, Vila do Conde, Porto, 4480-018 Portugal","-8.666145","41.396684"," Vila do Conde","",""
"Cemit�rio de Gens","Gondomar Municipality"," Porto District"," Portugal","55 Rua do Cemit�rio Gondomar Municipality, Porto District Portugal","-8.48956299999998","41.114367","","",""
"Cemit�rio de Fornos","Fornos"," Porto District"," Portugal","75 Rua Doutor �lvaro Augusto Gomes Vieira Fornos, Marco de Canaveses Municipality, Porto District, 4630-351 Portugal","-8.14094","41.192163"," Marco de Canaveses Municipality","",""
"Cemit�rio de Galegos","Galegos"," Porto District"," Portugal","106 Largo Padre Am�rico Galegos, Penafiel, Porto District Portugal","-8.31344200000001","41.161556"," Penafiel","",""
"Cemit�rio de Fraz�o","Pa�os de Ferreira"," Porto District"," Portugal","207 Avenida Central de Fraz�o Pa�os de Ferreira, Porto District Portugal","-8.41008399999998","41.264005","","",""
"Cemit�rio de Gandra","Paredes Municipality"," Porto District"," Portugal","487 Avenida Padre Luis Pinto Carneiro Paredes Municipality, Porto District, 4585-172 Portugal","-8.44010000000003","41.201611","","",""
"Cemit�rio de Freixo","Freixo"," Porto District"," Portugal","37 Rua Covas de Cima Freixo, Marco de Canaveses Municipality, Porto District Portugal","-8.14673600000003","41.159246"," Marco de Canaveses Municipality","",""
"Cemit�rio de Ferreir�","Ferreir�"," Porto District"," Portugal","601 Avenida da Trindade Ferreir�, Vila do Conde, Porto District, 4480-250 Portugal","-8.63453700000002","41.355046"," Vila do Conde","",""
"Cemit�rio de Eiriz","Eiriz"," Porto District"," Portugal","826 Rua de S�o Jo�o Evangelista Eiriz, Pa�os de Ferreira, Porto District, 4595-077 Portugal","-8.38459","41.303406"," Pa�os de Ferreira","",""
"Cemit�rio de Fajozes","Fajozes"," Porto District"," Portugal","1178 Avenida da Liberdade Fajozes, Vila do Conde, Porto District Portugal","-8.70502099999999","41.324361"," Vila do Conde","",""
"Cemit�rio de Covas","Lousada"," Porto District"," Portugal","A42 Lousada, Porto District Portugal","-8.31474700000001","41.29011","","",""
"Cemit�rio de Castel�es","Penafiel"," Porto District"," Portugal","345 Rua da Fonte Nova Penafiel, Porto District Portugal","-8.18879400000003","41.233892","","",""
"Cemit�rio de Campanh�","Campanh�"," Porto District"," Portugal","255 Rua da Igreja de Campanh� Campanh�, Porto District, Porto District Portugal","-8.57313199999999","41.155471"," Porto District","",""
"Cemit�rio de Cristelo","Cristelo"," Porto District"," Portugal","44 Rua Servulo Dias Castelo Cristelo, Paredes Municipality, Porto District, 4580-348 Portugal","-8.358926","41.229329"," Paredes Municipality","",""
"Cemit�rio de Croca","Croca"," Porto District"," Portugal","415 Rua da Fonte Nova Croca, Penafiel, Porto District Portugal","-8.24582399999997","41.223844"," Penafiel","",""
"Cemit�rio de Canidelo","Canidelo"," Porto District"," Portugal","65 Rua Nora Canidelo, Vila Nova de Gaia, Porto District, 4400-513 Portugal","-8.64955599999996","41.127492"," Vila Nova de Gaia","",""
"Cemit�rio da Madalena","Madalena"," Porto"," Portugal","26 Rua Igreja da Madalena Madalena, Vila Nova de Gaia, Porto, 4405 Portugal","-8.645186","41.101044"," Vila Nova de Gaia","",""
"Cemit�rio de Canidelo","Canidelo"," Porto District"," Portugal","216 Rua de Santa Luzia Canidelo, Vila do Conde, Porto District Portugal","-8.65069700000004","41.312384"," Vila do Conde","",""
"Cemit�rio de Besteiros","Paredes Municipality"," Porto District"," Portugal","344 Rua de Chelo Paredes Municipality, Porto District, 4580-761 Portugal","-8.34760600000004","41.223506","","",""
"Cemit�rio de Baltar","Paredes Municipality"," Porto District"," Portugal","47 Travessa da Igreja Paredes Municipality, Porto District, 4585-044 Portugal","-8.37668299999996","41.185478","","",""
"Cemit�rio de Amarante","Amarante"," Porto District"," Portugal","739 N210 Amarante, Amarante Municipality, Porto District, 4600-018 Portugal","-8.07874600000002","41.277279"," Amarante Municipality","",""
"Cemit�rio de Baguim do Monte","Baguim do Monte"," Porto District"," Portugal","368 Rua Cavadas Baguim do Monte, Gondomar Municipality, Porto District Portugal","-8.54686700000002","41.191604"," Gondomar Municipality","",""
"Cemit�rio de Aveleda","Aveleda"," Porto District"," Portugal","1009 Rua da Igreja Aveleda, Vila do Conde, Porto District, 4485-021 Portugal","-8.68937099999994","41.262812"," Vila do Conde","",""
"Cemit�rio de Agu�adouro","Agu�adoura"," Porto District"," Portugal","575 Rua dos Fieis de Deus Agu�adoura, P�voa de Varzim, Porto District, 4495-050 Portugal 
                         
                    ","-8.76937199999998","41.430518"," P�voa de Varzim","Bom dia! Gostaria Registro. de nomes ,data nascimento, local e data falecimento, e fotos,  de parentes ,que foram enterrados neste estabelecimento. Sobrenome s�o ; CONCEI�AO, TORRES, INACIO. E Ender�o .; elitorresgandra@hotmail.com ou wahtsapp 11 97571 39",""
"Cemit�rio de Ansi�es","Amarante Municipality"," Porto District"," Portugal","EM575 Amarante Municipality, Porto District Portugal","-7.95868999999993","41.24785","","",""
"Cemit�rio de Agrela","Agrela"," Porto District"," Portugal","11 Avenida Doutor Carneiro Pacheco Agrela, Santo Tirso Municipality, Porto District Portugal","-8.47112800000002","41.257325"," Santo Tirso Municipality","",""
"Cemit�rio da Lapa","Porto"," Porto District"," Portugal","65 Travessa S�o Br�s Porto, Porto District, Porto District, 4000-491 Portugal","-8.610901","41.158823"," Porto District","",""
"Cemit�rio da Freguesia de Aldoar","Porto"," Porto District"," Portugal","262 Rua Cidade da Beira Porto, Porto District, Porto District Portugal","-8.66358500000001","41.167172"," Porto District","",""
"Cemit�rio da Compostela","Gondomar Municipality"," Porto District"," Portugal","103 Rua da Capela Gondomar Municipality, Porto District, 4515-158 Portugal","-8.49959699999999","41.090733","","",""
"Cemit�rio Novo de Coimbr�","Cerdedo"," Vila Real"," Portugal","9 Qlha Da Chaves Cerdedo, Vila Real, 5460-350 Portugal","-7.88376800000003","41.700738","","",""
"Cemit�rio Novo de Chaves","Sanjurge"," Vila Real"," Portugal","35 Recta do Seara Sanjurge, Chaves, Vila Real Portugal","-7.4838161865082","41.76907095159"," Chaves","",""
"Cemit�rio de Bagunte","Bagunte"," Porto District"," Portugal","83 Rua da Rosa Bagunte, Vila do Conde, Porto District, 4480-209 Portugal","-8.66144199999997","41.371296"," Vila do Conde","",""
"Cemit�rio de Zebral","Sarraquinhos"," Vila Real"," Portugal","8 R Do Santo Sarraquinhos, Vila Real, 5470-466 Portugal","-7.68325900000002","41.790102","","",""
"Cemit�rio de Viveiro","S�o Salvador de Viveiro"," Vila Real"," Portugal","4 R De S Salvador S�o Salvador de Viveiro, Vila Real, 5460-495 Portugal","-7.76892099999998","41.675957","","",""
"Cemit�rio de Vilart�o","Bou�o�es"," Vila Real"," Portugal","3 R Da Bandeira Bou�o�es, Vila Real, 5430-047 Portugal","-7.21140300000002","41.763946","","",""
"Cemit�rio de Vilarinho Seco","Alturas do Barroso"," Vila Real"," Portugal","Cm 1035 Alturas do Barroso, Vila Real, 5460-020 Portugal","-7.81346899999994","41.684657","","",""
"Cemit�rio de Vilarinho de S�o Rom�o","Vilarinho de S�o Rom�o"," Vila Real"," Portugal","Em 323 Vilarinho de S�o Rom�o, Vila Real, 5060-619 Portugal","-7.57948999999996","41.240102","","",""
"Cemit�rio de Vilarinho","Chaves Municipality"," Vila Real"," Portugal","8 R Central Chaves Municipality, Vila Real, 5400-814 Portugal","-7.43319199999996","41.830481","","",""
"Cemit�rio do Pa�o","Ermelo"," Vila Real"," Portugal","EM1206 Ermelo, Vila Real, 4880-134 Portugal","-7.90818000000002","41.340689","","",""
"Cemit�rio de Agramonte","Porto"," Porto District"," Portugal","88 Bairro Bom Sucesso Porto, Porto District, Porto District, 4150-365 Portugal","-8.63324799999998","41.155647"," Porto District","",""
"Cemit�rio de Vilares","Vilares"," Vila Real"," Portugal","4 En 212 Vilares, Vila Real, 5090-232 Portugal","-7.51698299999998","41.430011","","",""
"Cemit�rio do Barreiro","Ermelo"," Vila Real"," Portugal","Em 1204 Ermelo, Vila Real, 4880-122 Portugal","-7.83403299999998","41.372398","","",""
"Cemit�rio de Vilela","Pa�os"," Vila Real"," Portugal","Em 587 Pa�os, Vila Real, 5060-241 Portugal","-7.60036700000001","41.222214","","",""
"Cemit�rio de Vilarinhos dos Arcos","Cervos"," Vila Real"," Portugal","38 R Central Cervos, Vila Real, 5470-056 Portugal","-7.68823999999995","41.754603","","",""
"Igreja Paroquial de Fontoura","Fontoura"," Viana do Castelo"," Portugal","EM512-2 Fontoura, Viana do Castelo, 4930-241 Portugal","-8.634322","41.956185","","",""
"Vilar do Monte","Vilar do Monte"," Viana do Castelo"," Portugal","Rua De Calheiros Vilar do Monte, Viana do Castelo, 4990-795 Portugal","-8.54892399999994","41.836131","","",""
"Junta de Freguesia de Sopo","Sopo"," Viana do Castelo"," Portugal","Avenida De S�o Tiago Sopo, Viana do Castelo, 4920-130 Portugal","-8.73982799999999","41.902362","","",""
"Junta de Freguesia de Cortes (Mon��o)","Cortes"," Viana do Castelo"," Portugal","Rua De S�o Nicolau Cortes, Viana do Castelo, 4950-850 Portugal","-8.51459499999999","42.068454","","",""
"Igreja de S�o Jorge","S�o Jorge"," Viana do Castelo"," Portugal","48 Sit Igreja S�o Jorge, Viana do Castelo, 4970-568 Portugal","-8.37688400000002","41.820283","","",""
"Cemit�rio Paroquial de Santa Eul�lia","S�"," Viana do Castelo"," Portugal","Rua Das Eiras S�, Viana do Castelo, 4950-740 Portugal","-8.35531000000003","42.072441","","",""
"Cemit�rio Paroquial de Ref�ios de Lima","Ref�ios do Lima"," Viana do Castelo"," Portugal","Rua Dom Mendo Afonso Ref�ios do Lima, Viana do Castelo, 4990-706 Portugal","-8.54337299999997","41.793052","","",""
"Cemit�rio do Senhor da Boa Morte","Cambeses"," Viana do Castelo"," Portugal","Rua Do Bonfim Cambeses, Viana do Castelo, 4950-104 Portugal","-8.47119900000007","42.049006","","",""
"Cemit�rio do Outeiro","Outeiro"," Viana do Castelo"," Portugal","En 302 Outeiro, Viana do Castelo, 4925-555 Portugal","-8.78581399999996","41.752322","","",""
"Cemit�rio de Vila Pouca de Aguiar","Vila Pouca de Aguiar"," Vila Real"," Portugal","8 Rua Imperador Teod�sio Vila Pouca de Aguiar, Vila Real, 5450-021 Portugal","-7.64786000000004","41.500384","","",""
"Cemit�rio de Vitorino das Donas","Vitorino das Donas"," Viana do Castelo"," Portugal","53 Lg Igreja Vitorino das Donas, Viana do Castelo, 4990-800 Portugal","-8.64595099999997","41.731696","","",""
"Cemit�rio de Vila Marim","Vila Marim"," Vila Real"," Portugal","Em 601 Vila Marim, Vila Real, 5040-462 Portugal","-7.861896","41.180721","","",""
"Cemit�rio de Vila Frade","Chaves Municipality"," Vila Real"," Portugal","10 Estr Principal Chaves Municipality, Vila Real, 5400-637 Portugal","-7.40155400000003","41.81673","","",""
"Cemit�rio de Vilar de Mouros","Vilar de Mouros"," Viana do Castelo"," Portugal","Estrada Da Igreja Vilar de Mouros, Viana do Castelo, 4910-585 Portugal","-8.79846900000007","41.889438","","",""
"Cemit�rio de Vila Praia de �ncora","Vila Praia de �ncora"," Viana do Castelo"," Portugal","540 Rua Padre Jos� Pereira Lima Vila Praia de �ncora, Caminha, Viana do Castelo Portugal","-8.8459459119873","41.813961595266"," Caminha","",""
"Cemit�rio de Vilar de Ma�ada","Vilar de Ma�ada"," Vila Real"," Portugal","Em 323-1 Vilar de Ma�ada, Vila Real, 5070-576 Portugal","-7.55874700000004","41.321724","","",""
"Cemit�rio de Vilar de Ferreiros","Vilar de Ferreiros"," Vila Real"," Portugal","27 Vilar Ferreiros Vilar de Ferreiros, Vila Real, 4880-305 Portugal","-7.90303300000005","41.408555","","",""
"Cemit�rio de Vila Nova","Chaves Municipality"," Vila Real"," Portugal","9 R Principal Chaves Municipality, Vila Real, 5400-659 Portugal","-7.35245599999996","41.731469","","",""
"Cemit�rio de Vila Ch�","Vilar de Ferreiros"," Vila Real"," Portugal","Em 1202 Vilar de Ferreiros, Vila Real, 4880-310 Portugal","-7.872118","41.393061","","",""
"Cemit�rio de Vila Ch�","Vila Ch�"," Vila Real"," Portugal","20 R Al�m Da Igreja Vila Ch�, Vila Real, 5070-532 Portugal","-7.48961899999995","41.330383","","",""
"Cemit�rio de Vale de �gua","Jou"," Vila Real"," Portugal","31 En 314 Jou, Vila Real, 5090-082 Portugal","-7.42406700000004","41.515504","","",""
"Cemit�rio Municipal de Viana do Castelo","Viana do Castelo"," Viana do Castelo"," Portugal","406 Rua Ernesto Roma Viana do Castelo, Viana do Castelo, 4900-461 Portugal","-8.827083","41.699481","","",""
"Cemit�rio de Viade de Baixo","Viade de Baixo"," Vila Real"," Portugal","1 R De Sto Ant�nio Viade de Baixo, Vila Real, 5470-529 Portugal","-7.86408200000005","41.758887","","",""
"Cemit�rio de Valongo de Milhais","Valongo de Milhais"," Vila Real"," Portugal","40a R Her�i Milh�es Valongo de Milhais, Vila Real, 5090-220 Portugal","-7.44030900000007","41.445062","","",""
"Cemit�rio de Tresmundes","Chaves Municipality"," Vila Real"," Portugal","18 Rua Principal Chaves Municipality, Vila Real, 5400-613 Portugal","-7.42199700000003","41.709116","","",""
"Cemit�rio de Travassos","Sezelhe"," Vila Real"," Portugal","42 R Da Costa Do Vale Sezelhe, Vila Real, 5470-472 Portugal","-7.88649399999997","41.807918","","",""
"Cemit�rio de Valizelos","Padrela e Tazem"," Vila Real"," Portugal","14 R Central Padrela e Tazem, Vila Real, 5445-045 Portugal","-7.47518000000002","41.557088","","",""
"Cemit�rio de Vale de Mir","Pegarinhos"," Vila Real"," Portugal","1 R Cemit�rio Pegarinhos, Vila Real, 5070-303 Portugal","-7.47181999999998","41.344205","","",""
"Cemit�rio de Tourencinho","Tel�es"," Vila Real"," Portugal","8 R Monsenhor Libano Borges Tel�es, Vila Real, 5450-287 Portugal","-7.67715199999998","41.427113","","",""
"Cemit�rio de Vale de Mendiz","Vale de Mendiz"," Vila Real"," Portugal","2 En 322-3 Vale de Mendiz, Vila Real, 5085-100 Portugal","-7.52927699999998","41.222023","","",""
"Cemit�rio de Torre do Pinh�o","Torre do Pinh�o"," Vila Real"," Portugal","1 Av Brasil Torre do Pinh�o, Vila Real, 5060-581 Portugal","-7.61170800000002","41.374946","","",""
"Cemit�rio de Vasc�es","Vasc�es"," Viana do Castelo"," Portugal","Rua Nunes De Azevedo Vasc�es, Viana do Castelo, 4940-711 Portugal","-8.510537","41.901019","","",""
"Cemit�rio de Vale Agodim","Vila Verde"," Vila Real"," Portugal","En 323 Vila Verde, Vila Real, 5070-557 Portugal","-7.58156499999996","41.342935","","",""
"Cemit�rio de Travancas","Chaves Municipality"," Vila Real"," Portugal","6 R De Buenos Aires Chaves Municipality, Vila Real, 5400-797 Portugal","-7.30934300000001","41.811789","","",""
"Cemit�rio de Tour�m","Tour�m"," Vila Real"," Portugal","Rua Da Igreja Tour�m, Vila Real, 5470-490 Portugal","-7.89797199999998","41.903936","","",""
"Cemit�rio de Vila Franca","Vila Franca"," Viana do Castelo"," Portugal","1320 Estrada Do Padre Quesado Vila Franca, Viana do Castelo, 4935-682 Portugal","-8.73740199999997","41.6814","","",""
"Cemit�rio de Vade S�o Tom�","Vade"," Viana do Castelo"," Portugal","Rua De Vila Me� Vade, Viana do Castelo, 4980-794 Portugal","-8.40647200000001","41.782504","","",""
"Cemit�rio de Vasc�es","Vasc�es"," Viana do Castelo"," Portugal","Rua Nunes De Azevedo Vasc�es, Viana do Castelo, 4940-711 Portugal","-8.510537","41.901019","","",""
"Cemit�rio de Touvedo S�o Louren�o","Touvedo"," Viana do Castelo"," Portugal","En 203 Touvedo, Viana do Castelo, 4980-755 Portugal","-8.37007700000004","41.808785","","",""
"Cemit�rio de Valen�a","Valen�a"," Viana do Castelo"," Portugal","4 Fiaes Valen�a, Viana do Castelo, 4930-597 Portugal","-8.63960599999996","42.030812","","",""
"Cemit�rio de Troporiz","Troporiz"," Viana do Castelo"," Portugal","Rua Da Aldeia Troporiz, Viana do Castelo, 4950-800 Portugal","-8.51651500000003","42.056576","","",""
"Cemit�rio de Teixugueira","Boiv�es"," Viana do Castelo"," Portugal","Em 533 Boiv�es, Viana do Castelo, 4980-061 Portugal","-8.46817099999998","41.749313","","",""
"Cemit�rio de Serreleis","Serreleis"," Viana do Castelo"," Portugal","229 Av Igreja Serreleis, Viana do Castelo, 4925-595 Portugal","-8.752161","41.708836","","",""
"Cemit�rio de Vila Ch� S�o Jo�o Baptista","Vila Ch�"," Viana do Castelo"," Portugal","Rua Do C�to Da Guarda Vila Ch�, Viana do Castelo, 4980-734 Portugal","-8.33784900000001","41.801066","","",""
"Cemit�rio de Senharei","Senharei"," Viana do Castelo"," Portugal","Em 518 Senharei, Viana do Castelo, 4970-640 Portugal","-8.47019699999998","41.89314","","",""
"Cemit�rio de Seixas","Seixas"," Viana do Castelo"," Portugal","En 13 Seixas, Viana do Castelo, 4910-344 Portugal","-8.82059900000002","41.893969","","",""
"Cemit�rio de Subportela","Subportela"," Viana do Castelo"," Portugal","67 R Fonte Carvalha Subportela, Viana do Castelo, 4905-628 Portugal","-8.71585700000003","41.684872","","",""
"Cemit�rio de Touvedo Salvador","Touvedo"," Viana do Castelo"," Portugal","Cm 1345 Touvedo, Viana do Castelo, 4980-681 Portugal","-8.36063799999999","41.805134","","",""
"Cemit�rio de Troviscoso","Troviscoso"," Viana do Castelo"," Portugal","En 202 Troviscoso, Viana do Castelo, 4950-814 Portugal","-8.46109899999999","42.069346","","",""
"Cemit�rio de Segude","Segude"," Viana do Castelo"," Portugal","EM503 Segude, Viana do Castelo, 4950-760 Portugal","-8.38082199999997","42.047996","","",""
"Cemit�rio de S�o Pedro de Vade","Vade"," Viana do Castelo"," Portugal","Cm 1335 Vade, Viana do Castelo, 4980-780 Portugal","-8.41615200000001","41.772761","","",""
"Cemit�rio de S�o Martinho de Coura","Coura"," Viana do Castelo"," Portugal","Rua Da Igreja Coura, Viana do Castelo, 4940-151 Portugal","-8.64954499999999","41.880871","","",""
"Cemit�rio de Seara","Seara"," Viana do Castelo"," Portugal","En 203 Seara, Viana do Castelo, 4990-755 Portugal","-8.61769900000002","41.736803","","",""
"Cemit�rio de S�o Pedro da Torre","S�o Pedro da Torre"," Viana do Castelo"," Portugal","60 Rua de Baixo S�o Pedro da Torre, Valen�a, Viana do Castelo Portugal","-8.66952","41.9928"," Valen�a","",""
"Cemit�rio de Tel�es","Tel�es"," Vila Real"," Portugal","2 R Da Encosta Tel�es, Vila Real, 5450-280 Portugal","-7.68779500000005","41.454432","","",""
"Cemit�rio de Telhado","Viade de Baixo"," Vila Real"," Portugal","6 R Da Casa Nova Viade de Baixo, Vila Real, 5470-527 Portugal","-7.85069299999998","41.709274","","",""
"Cemit�rio de Tinhela","Tinhela"," Vila Real"," Portugal","5 R Da Veiga Tinhela, Vila Real, 5430-293 Portugal","-7.30700100000001","41.725831","","",""
"Cemit�rio de Souto Velho","Chaves Municipality"," Vila Real"," Portugal","Autoestrada Do Interior Norte Chaves Municipality, Vila Real, 5425-013 Portugal","-7.58037899999999","41.663292","","",""
"Cemit�rio de Torgueda","Ch�"," Vila Real"," Portugal","49 R Direita Ch�, Vila Real, 5470-072 Portugal","-7.79422799999998","41.784369","","",""
"Cemit�rio de Torgueda","Ch�"," Vila Real"," Portugal","49 R Direita Ch�, Vila Real, 5470-072 Portugal","-7.79422799999998","41.784369","","",""
"Cemit�rio de Tej�o","Campanh�"," Vila Real"," Portugal","4 R Torrao Campanh�, Vila Real, 4880-110 Portugal","-7.94111199999998","41.346513","","",""
"Cemit�rio de Soutelo","Chaves Municipality"," Vila Real"," Portugal","4 Tv Rua Chaves Municipality, Vila Real, 5400-792 Portugal","-7.53407500000003","41.755423","","",""
"Cemit�rio de Souto de Escar�o","Vila Verde"," Vila Real"," Portugal","28 Av Areal Vila Verde, Vila Real, 5070-556 Portugal","-7.58622300000002","41.381099","","",""
"Cemit�rio de Soutelo de Aguiar","Soutelo de Aguiar"," Vila Real"," Portugal","2 R Do Povo Pequeno Soutelo de Aguiar, Vila Real, 5450-265 Portugal","-7.66744300000005","41.478178","","",""
"Cemit�rio de Sonhoane","Santa Marta de Penagui�o"," Vila Real"," Portugal","En 304-3 Santa Marta de Penagui�o, Vila Real, 5030-381 Portugal","-7.80374200000006","41.206981","","",""
"Cemit�rio de Solveira","Solveira"," Vila Real"," Portugal","3 R De Baixo Solveira, Vila Real, 5470-480 Portugal","-7.66672100000005","41.843382","","",""
"Cemit�rio de Sobrado","Vinh�s"," Vila Real"," Portugal","1467 R Avelais Vinh�s, Vila Real, 5050-405 Portugal","-7.84295700000007","41.208175","","",""
"Cemit�rio de Sobradelo","Pinho"," Vila Real"," Portugal","1 R Do Cemit�rio Pinho, Vila Real, 5460-471 Portugal","-7.62315599999999","41.642407","","",""
"Cemit�rio de Sidr�s","Ferral"," Vila Real"," Portugal","9 R Da Carreira Ferral, Vila Real, 5470-127 Portugal","-8.02001399999995","41.69875","","",""
"Cemit�rio de Sezelhe","Sezelhe"," Vila Real"," Portugal","12 R Dos Carvalhos Sezelhe, Vila Real, 5470-472 Portugal","-7.87617599999999","41.811366","","",""
"Cemit�rio de Sobreira","Candedo"," Vila Real"," Portugal","8 R Da Igreja Candedo, Vila Real, 5090-017 Portugal","-7.34207700000002","41.341426","","",""
"Cemit�rio de Santiago de Cristelo","Cristelo"," Viana do Castelo"," Portugal","79 Rua Paulino Carvalho Cristelo, Viana do Castelo, 4910-180 Portugal","-8.84736699999996","41.855691","","",""
"Cemit�rio de Sivorzelo","Outeiro"," Vila Real"," Portugal","4 R Da Barreira Outeiro, Vila Real, 5470-334 Portugal","-7.96621500000003","41.769832","","",""
"Cemit�rio de Serapicos","Serapicos"," Vila Real"," Portugal","23 Estrada Regional 314 Serapicos, Vila Real, 5445-095 Portugal","-7.43653399999994","41.612243","","",""
"Cemit�rio de Sever","Santa Marta de Penagui�o"," Vila Real"," Portugal","84 R Gundeiro Santa Marta de Penagui�o, Vila Real, 5030-570 Portugal","-7.78639399999997","41.22156","","",""
"Cemit�rio de Santiago","Castelo do Neiva"," Viana do Castelo"," Portugal","512 Rua De Santiago Castelo do Neiva, Viana do Castelo, 4935-573 Portugal","-8.78856799999994","41.626038","","",""
"Cemit�rio de Sago","Sago"," Viana do Castelo"," Portugal","70 Av Igreja Sago, Viana do Castelo, 4950-750 Portugal","-8.45895599999994","42.03656","","",""
"Cemit�rio de Sabadim","Sabadim"," Viana do Castelo"," Portugal","Cm 1300 Sabadim, Viana do Castelo, 4970-382 Portugal","-8.45981299999994","41.907131","","",""
"Cemit�rio de S�","S�"," Viana do Castelo"," Portugal","Em 524 S�, Viana do Castelo, 4990-730 Portugal","-8.62023399999998","41.774169","","",""
"Cemit�rio de Seixedo","Padrela e Tazem"," Vila Real"," Portugal","2 R Central Padrela e Tazem, Vila Real, 5445-041 Portugal","-7.48243000000002","41.588152","","",""
"Cemit�rio de Ribeira","Ribeira"," Viana do Castelo"," Portugal","En 203 Ribeira, Viana do Castelo, 4990-389 Portugal","-8.55399","41.772926","","",""
"Cemit�rio de Remo�es","Melga�o"," Viana do Castelo"," Portugal","En 202 Melga�o, Viana do Castelo, 4960-330 Portugal","-8.28245800000002","42.109556","","",""
"Cemit�rio de Romarig�es","Romarig�es"," Viana do Castelo"," Portugal","Estrada De S�o Tiago De Romarig�es Romarig�es, Viana do Castelo, 4940-659 Portugal","-8.62558100000001","41.866737","","",""
"Cemit�rio de S�","S�"," Viana do Castelo"," Portugal","Estrada De S� S�, Viana do Castelo, 4950-740 Portugal","-8.35188600000004","42.074841","","",""
"Cemit�rio de Ruivos","Ruivos"," Viana do Castelo"," Portugal","Rua Da Igreja Ruivos, Viana do Castelo, 4980-653 Portugal","-8.44220500000006","41.768622","","",""
"Cemit�rio de Resende","Resende"," Viana do Castelo"," Portugal","Estrada Da Redonda Resende, Viana do Castelo, 4940-631 Portugal","-8.55695100000003","41.903334","","",""
"Cemit�rio de Rebord�es","Rebord�es"," Viana do Castelo"," Portugal","En 306 Rebord�es, Viana do Castelo, 4990-750 Portugal","-8.57577600000002","41.721264","","",""
"Cemit�rio de Prado","Melga�o"," Viana do Castelo"," Portugal","En 202 Melga�o, Viana do Castelo, 4960-320 Portugal","-8.26616899999999","42.108701","","",""
"Cemit�rio de Portela Sus�","Portela Sus�"," Viana do Castelo"," Portugal","60 Lg Tilias Portela Sus�, Viana do Castelo, 4905-546 Portugal","-8.69994599999995","41.671635","","",""
"Cemit�rio de Pinheiros","Pinheiros"," Viana do Castelo"," Portugal","Estrada Do Calv�rio Pinheiros, Viana do Castelo, 4950-660 Portugal","-8.50163299999997","42.036894","","",""
"Cemit�rio de Penso","Melga�o"," Viana do Castelo"," Portugal","Antiga Estrada Nacional 202 Melga�o, Viana do Castelo, 4960-310 Portugal","-8.32542000000001","42.080359","","",""
"Cemit�rio de Seir�s","Canedo"," Vila Real"," Portugal","EM1125 Canedo, Vila Real, 4870-024 Portugal","-7.74531999999999","41.578216","","",""
"Cemit�rio de Pi�es","Vitorino dos Pi�es"," Viana do Castelo"," Portugal","Camino Portuguese Vitorino dos Pi�es, Viana do Castelo, 4990-810 Portugal","-8.61864400000002","41.681952","","",""
"Cemit�rio de Sedielos","Sedielos"," Vila Real"," Portugal","Em 600 Sedielos, Vila Real, 5040-531 Portugal","-7.86051199999997","41.199832","","",""
"Cemit�rio de Paradamonte","Britelo"," Viana do Castelo"," Portugal","Avenida 15 De Agosto Britelo, Viana do Castelo, 4980-203 Portugal","-8.28429700000004","41.853241","","",""
"Cemit�rio de Padroso","Padroso"," Viana do Castelo"," Portugal","101 Sit Lamosas Padroso, Viana do Castelo, 4970-255 Portugal","-8.49543700000004","41.936938","","",""
"Cemit�rio de Seara","Salto"," Vila Real"," Portugal","10 R Dos Talhos Salto, Vila Real, 5470-430 Portugal","-7.87435000000005","41.606353","","",""
"Cemit�rio de Sapi�os","Sapi�os"," Vila Real"," Portugal","5 En 103 Sapi�os, Vila Real, 5460-502 Portugal","-7.63268900000003","41.713744","","",""
"Cemit�rio de S�o Pedro de Agost�m","Chaves Municipality"," Vila Real"," Portugal","2 R Da Ribeira Chaves Municipality, Vila Real, 5400-756 Portugal","-7.49241000000006","41.687155","","",""
"Cemit�rio de S�o Vicente da Ch�","Ch�"," Vila Real"," Portugal","24 Tv De S Gon�alo Ch�, Vila Real, 5470-071 Portugal","-7.78386599999999","41.778583","","",""
"Cemit�rio de S�o Jo�o da Corveira","S�o Jo�o da Corveira"," Vila Real"," Portugal","15 Br Da Cabrita S�o Jo�o da Corveira, Vila Real, 5445-087 Portugal","-7.45309900000007","41.586465","","",""
"Cemit�rio de S�o Mamede de Ribatua","S�o Mamede de Ribatua"," Vila Real"," Portugal","6 R Atafona S�o Mamede de Ribatua, Vila Real, 5070-477 Portugal","-7.42892499999994","41.248373","","",""
"Cemit�rio de S�o Geraldo","Bornes De Aguiar"," Vila Real"," Portugal","23 Rua De S�o Martinho Bornes De Aguiar, Vila Real, 5450-168 Portugal","-7.59397100000001","41.536123","","",""
"Cemit�rio de Santo Aleixo de Al�m T�mega","Santo Aleixo de Al�m-T�mega"," Vila Real"," Portugal","Em 312 Santo Aleixo de Al�m-T�mega, Vila Real, 4870-253 Portugal","-7.80336","41.540884","","",""
"Cemit�rio de S�o Fins","Pondras"," Vila Real"," Portugal","25 R Principal Pondras, Vila Real, 5470-385 Portugal","-7.93319700000006","41.702433","","",""
"Cemit�rio de Santo Ant�nio de Monforte","Chaves Municipality"," Vila Real"," Portugal","Em 502 Chaves Municipality, Vila Real, 5400-745 Portugal","-7.39175699999998","41.798817","","",""
"Cemit�rio de Perre","Perre"," Viana do Castelo"," Portugal","140 Estrada do Pisco Perre, Viana do Castelo Portugal","-8.7766284834671","41.720506936003","","",""
"Cemit�rio de Santa Valha","Santa Valha"," Vila Real"," Portugal","43 R Da Veiga Santa Valha, Vila Real, 5430-231 Portugal","-7.27041800000006","41.707039","","",""
"Cemit�rio de Sanjurge","Sanjurge"," Vila Real"," Portugal","1 Rua Cemit�rio Sanjurge, Chaves, Vila Real, 5400-578 Portugal","-7.5022862883607","41.776452999486"," Chaves","",""
"Cemit�rio de Santa Ovaia","Chaves Municipality"," Vila Real"," Portugal","M553 Chaves Municipality, Vila Real, 5400-740 Portugal","-7.48966100000007","41.619346","","",""
"Cemit�rio de Sanfis","Chaves Municipality"," Vila Real"," Portugal","5 Bc D Luis Chaves Municipality, Vila Real, 5400-736 Portugal","-7.24274300000002","41.794304","","",""
"Cemit�rio de Samai�es","Chaves Municipality"," Vila Real"," Portugal","9 En 2 Chaves Municipality, Vila Real, 5400-575 Portugal","-7.47879499999999","41.71955","","",""
"Cemit�rio de Santa Marinha","Ferral"," Vila Real"," Portugal","6 R Principal Ferral, Vila Real, 5470-125 Portugal","-7.98985700000003","41.705498","","",""
"Cemit�rio de Paderne","Melga�o"," Viana do Castelo"," Portugal","EM1144-1 Melga�o, Viana do Castelo, 4960-263 Portugal","-8.27391599999999","42.089894","","",""
"Cemit�rio de Sanjurge","Chaves Municipality"," Vila Real"," Portugal","2 R Joaquim Gomes Chaves Municipality, Vila Real, 5400-578 Portugal","-7.50217900000007","41.776457","","",""
"Cemit�rio de Sabrosa","Sabrosa"," Vila Real"," Portugal","20 R Feira Velha Sabrosa, Vila Real, 5060-374 Portugal","-7.58558700000003","41.266855","","",""
"Cemit�rio de Padornelo","Padornelo"," Viana do Castelo"," Portugal","En 301 Padornelo, Viana do Castelo, 4940-402 Portugal","-8.54610700000001","41.922438","","",""
"Cemit�rio de Nogueira","Nogueira"," Viana do Castelo"," Portugal","644 Rua Da Igreja Nogueira, Viana do Castelo, 4925-525 Portugal","-8.73326799999995","41.739194","","",""
"Cemit�rio de Pa��","Pa��"," Viana do Castelo"," Portugal","54 Sit Assento Pa��, Viana do Castelo, 4970-234 Portugal","-8.40917999999999","41.833221","","",""
"Cemit�rio de Pa�os","Melga�o"," Viana do Castelo"," Portugal","En 202 Melga�o, Viana do Castelo, 4960-180 Portugal","-8.20942600000001","42.134215","","",""
"Cemit�rio de Orbac�m","Orbac�m"," Viana do Castelo"," Portugal","823 Caminho Da Igreja Orbac�m, Viana do Castelo, 4910-301 Portugal","-8.76869499999998","41.805289","","",""
"Cemit�rio de Neiva","Neiva"," Viana do Castelo"," Portugal","Avenida Do Mosteiro Neiva, Viana do Castelo, 4935-535 Portugal","-8.776251","41.639599","","",""
"Cemit�rio de Nossa Sra da Assun��o","Longos Vales"," Viana do Castelo"," Portugal","1 N304 Longos Vales, Mon��o, Viana do Castelo Portugal","-8.4481970687866","42.050591564219"," Mon��o","",""
"Cemit�rio de Mozelos","Mozelos"," Viana do Castelo"," Portugal","EM509 Mozelos, Viana do Castelo, 4940-384 Portugal","-8.55547200000001","41.925791","","",""
"Cemit�rio de Montaria","Santa Maria de Geraz Do Lima"," Viana do Castelo"," Portugal","109 Lg Igreja Santa Maria de Geraz Do Lima, Viana do Castelo, 4925-470 Portugal","-8.73003100000005","41.789591","","",""
"Cemit�rio de Oleiros","Oleiros"," Viana do Castelo"," Portugal","Em 533 Oleiros, Viana do Castelo, 4980-501 Portugal","-8.43067399999995","41.79396","","",""
"Cemit�rio de Muj�es","Muj�es"," Viana do Castelo"," Portugal","86 R Nsa Sra Da Expectacao Muj�es, Viana do Castelo, 4905-516 Portugal","-8.711815","41.658819","","",""
"Cemit�rio de Linhares","Linhares"," Viana do Castelo"," Portugal","Rua Senhor Do Bonfim Linhares, Viana do Castelo, 4940-375 Portugal","-8.61598200000003","41.924883","","",""
"Cemit�rio de Lindoso","Lindoso"," Viana do Castelo"," Portugal","N304-1 Lindoso, Viana do Castelo, 4980-451 Portugal","-8.19840599999998","41.868022","","",""
"Cemit�rio de Lanheses","Lanheses"," Viana do Castelo"," Portugal","602 Estr Igreja Lanheses, Viana do Castelo, 4925-416 Portugal","-8.67235000000005","41.739007","","",""
"Cemit�rio de Mosteiro","Britelo"," Viana do Castelo"," Portugal","Avenida 15 De Agosto Britelo, Viana do Castelo, 4980-203 Portugal","-8.260313","41.85401","","",""
"Cemit�rio de Melga�o","Melga�o"," Viana do Castelo"," Portugal","133 Avenida Salgueiro Maia Melga�o, Melga�o, Viana do Castelo Portugal","-8.2588186894798","42.108925452215"," Melga�o","",""
"Cemit�rio de Meixeido","Meixedo"," Viana do Castelo"," Portugal","170 Av Igreja Meixedo, Viana do Castelo, 4925-456 Portugal","-8.71137399999998","41.759972","","",""
"Cemit�rio de Lovelhe","Lovelhe"," Viana do Castelo"," Portugal","En 13 Lovelhe, Viana do Castelo, 4920-236 Portugal","-8.74217999999996","41.951618","","",""
"Cemit�rio de Quint�","Vreia de Jales"," Vila Real"," Portugal","16 R Da Picha Vreia de Jales, Vila Real, 5450-342 Portugal","-7.62082599999997","41.429661","","",""
"Cemit�rio de Lindoso","Lindoso"," Viana do Castelo"," Portugal","Avenida 15 De Agosto Lindoso, Viana do Castelo, 4980-453 Portugal","-8.22420299999999","41.863744","","",""
"Cemit�rio de Roriz","Chaves Municipality"," Vila Real"," Portugal","2 R Da Capela Chaves Municipality, Vila Real, 5400-730 Portugal","-7.26661799999999","41.820115","","",""
"Cemit�rio de P�voa de Lila","Rio Torto"," Vila Real"," Portugal","78 R Portela Rio Torto, Vila Real, 5430-201 Portugal","-7.27978499999995","41.521568","","",""
"Cemit�rio de P�voa de Agra��es","Chaves Municipality"," Vila Real"," Portugal","6 Lg Da Igreja Chaves Municipality, Vila Real, 5425-253 Portugal","-7.49604699999998","41.595549","","",""
"Cemit�rio de Labruj�","Labruj�"," Viana do Castelo"," Portugal","En 306 Labruj�, Viana do Castelo, 4990-660 Portugal","-8.54378900000006","41.85452","","",""
"Cemit�rio de Rebordelo","Morgade"," Vila Real"," Portugal","CM1007 Morgade, Vila Real, 5470-301 Portugal","-7.70979399999999","41.73803","","",""
"Cemit�rio de Ribapinh�o","S�o Louren�o de Ribapinh�o"," Vila Real"," Portugal","En 323 S�o Louren�o de Ribapinh�o, Vila Real, 5060-405 Portugal","-7.578305","41.319423","","",""
"Cemit�rio de Pit�es das Junias","Pit�es das Junias"," Vila Real"," Portugal","Largo Do Anjo Da Guarda Pit�es das Junias, Vila Real, 5470-370 Portugal","-7.94657899999993","41.838025","","",""
"Cemit�rio de P�voa","Cotas"," Vila Real"," Portugal","Avenida Nossa Sernhora De F�tima Cotas, Vila Real, 5070-252 Portugal","-7.49752699999999","41.221708","","",""
"Cemit�rio de P�pulo","P�pulo"," Vila Real"," Portugal","En 212 P�pulo, Vila Real, 5070-311 Portugal","-7.48911199999998","41.371238","","",""
"Cemit�rio de Pereira","Salto"," Vila Real"," Portugal","6 R Da Sisenda Salto, Vila Real, 5470-415 Portugal","-7.92187899999999","41.669864","","",""
"Cemit�rio de Possacos","Possacos"," Vila Real"," Portugal","4 R Do Cemit�rio Possacos, Vila Real, 5430-191 Portugal","-7.27093400000001","41.612825","","",""
"Cemit�rio de Pinho","Pinho"," Vila Real"," Portugal","39 R Da Alamela Pinho, Vila Real, 5460-471 Portugal","-7.63078300000007","41.659718","","",""
"Cemit�rio de Pinh�o Cel","Torre do Pinh�o"," Vila Real"," Portugal","Rua das Beiradas Torre do Pinh�o, Vila Real, 5060-561 Portugal","-7.62150399999996","41.379814","","",""
"Cemit�rio de Pinh�o","Pinh�o"," Vila Real"," Portugal","Estrada Municipal 585 Pinh�o, Vila Real, 5085-039 Portugal","-7.54494999999997","41.196151","","",""
"Cemit�rio de Pinc�es","Cabril"," Vila Real"," Portugal","8 Tv De Nsa Sra Da Abadia Cabril, Vila Real, 5470-020 Portugal","-8.04986400000007","41.706422","","",""
"Cemit�rio de Penedones","Ch�"," Vila Real"," Portugal","2 R Do Fundo Da Vila Ch�, Vila Real, 5470-073 Portugal","-7.80718300000001","41.76328","","",""
"Cemit�rio de Peneda","Covelo do Ger�s"," Vila Real"," Portugal","2 R Da Capela Covelo do Ger�s, Vila Real, 5470-101 Portugal","-7.99739499999998","41.727592","","",""
"Cemit�rio de Penabeice","Jou"," Vila Real"," Portugal","6 R Principal Jou, Vila Real, 5090-079 Portugal","-7.46691899999996","41.487173","","",""
"Cemit�rio de Pereira de Sel�o","Chaves Municipality"," Vila Real"," Portugal","Estrada De Valverde Chaves Municipality, Vila Real, 5425-502 Portugal","-7.538454","41.656276","","",""
"Cemit�rio de Perafita","Vila Verde"," Vila Real"," Portugal","4 R Grincha Vila Verde, Vila Real, 5070-555 Portugal","-7.541607","41.38614","","",""
"Cemit�rio de Labruja","Labruja"," Viana do Castelo"," Portugal","Rua De S�o Crist�v�o Da Labruja Labruja, Viana do Castelo, 4990-655 Portugal","-8.59734300000002","41.840329","","",""
"Cemit�rio de Grovelas","Grovelas"," Viana do Castelo"," Portugal","Cm 1334-1 Grovelas, Viana do Castelo, 4980-353 Portugal","-8.43791499999998","41.752473","","",""
"Cemit�rio de Infesta","Infesta"," Viana do Castelo"," Portugal","Estrada De Roriz Infesta, Viana do Castelo, 4940-324 Portugal","-8.59529399999997","41.905224","","",""
"Cemit�rio de Gemieira","Gemieira"," Viana do Castelo"," Portugal","En 203 Gemieira, Viana do Castelo, 4990-645 Portugal","-8.51668700000005","41.775605","","",""
"Cemit�rio de Gondufe","Gondufe"," Viana do Castelo"," Portugal","Rua da Casola Gondufe, Viana do Castelo, 4990-650 Portugal","-8.51061400000003","41.768314","","",""
"Cemit�rio de Gandra","Gandra"," Viana do Castelo"," Portugal","57 R Telheiro Gandra, Viana do Castelo, 4990-642 Portugal","-8.49822399999994","41.778778","","",""
"Cemit�rio de Formariz","Formariz"," Viana do Castelo"," Portugal","36 R Nostego Formariz, Viana do Castelo, 4940-285 Portugal","-8.58117800000002","41.924494","","",""
"Cemit�rio de Fi�es","Melga�o"," Viana do Castelo"," Portugal","102 Cam Ch�o Da Cancela Melga�o, Viana do Castelo, 4960-150 Portugal","-8.21096","42.104389","","",""
"Cemit�rio de Ferreira","Ferreira"," Viana do Castelo"," Portugal","4 Cam Resid�ncia Ferreira, Viana do Castelo, 4940-260 Portugal","-8.59295199999997","41.929936","","",""
"Cemit�rio de Gaifar","Gaifar"," Viana do Castelo"," Portugal","1617 Avenida De Santa Baia Gaifar, Viana do Castelo, 4990-635 Portugal","-8.56072800000004","41.652466","","",""
"Cemit�rio de Ermida","Ermida"," Viana do Castelo"," Portugal","Cm 1349 Ermida, Viana do Castelo, 4980-320 Portugal","-8.25988600000005","41.818099","","",""
"Cemit�rio de Feitosa","Feitosa"," Viana do Castelo"," Portugal","100 R S Luzia Feitosa, Viana do Castelo, 4990-348 Portugal","-8.58948699999996","41.755254","","",""
"Cemit�rio de Gondar","Gondar"," Viana do Castelo"," Portugal","Rua Da Santa Cristina Gondar, Viana do Castelo, 4920-050 Portugal","-8.67627900000002","41.914774","","",""
"Cemit�rio de Entre Ambos-os-Rios","Entre Ambos-Os-Rios"," Viana do Castelo"," Portugal","Cm 1348 Entre Ambos-Os-Rios, Viana do Castelo, 4980-312 Portugal","-8.31166699999994","41.819174","","",""
"Cemit�rio de Facha","Facha"," Viana do Castelo"," Portugal","9 Cam Igreja Facha, Viana do Castelo, 4990-602 Portugal","-8.616669","41.719888","","",""
"Cemit�rio de Font�o","Font�o"," Viana do Castelo"," Portugal","EM1237-1 Font�o, Viana do Castelo, 4990-610 Portugal","-8.66268000000002","41.745955","","",""
"Cemit�rio de Freixo","Freixo"," Viana do Castelo"," Portugal","En 306 Freixo, Viana do Castelo, 4990-445 Portugal","-8.58566900000005","41.657055","","",""
"Cemit�rio de Gave","Melga�o"," Viana do Castelo"," Portugal","9 Sem Designacao Melga�o, Viana do Castelo, 4960-160 Portugal","-8.29558599999996","42.047603","","",""
"Cemit�rio de Deocriste","Deocriste"," Viana do Castelo"," Portugal","129 Av Jo�o Paulo Ii Deocriste, Viana do Castelo, 4905-261 Portugal","-8.70463300000006","41.689129","","",""
"Cemit�rio de Eiras","Eiras"," Viana do Castelo"," Portugal","Em 518 Eiras, Viana do Castelo, 4970-135 Portugal","-8.470057","41.926044","","",""
"Junta de Freguesia de Sanfins do Douro","Sanfins do Douro"," Vila Real District"," Portugal","1 Rua Al�m da Igreja Sanfins do Douro, Alij� Municipality, Vila Real District, 5070-361 Portugal","-7.51770199999999","41.294091"," Alij� Municipality","",""
"Jardim de Salto","Salto"," Vila Real District"," Portugal","7 Rua Torr�o da Veiga Salto, Montalegre Municipality, Vila Real District, 5470-430 Portugal","-7.94921399999998","41.640097"," Montalegre Municipality","",""
"Cemit�rio Novo de Cerdedo","Cerdedo"," Vila Real District"," Portugal","1 Rua Cano Cemit�rio Cerdedo, Boticas Municipality, Vila Real District, 5460-350 Portugal","-7.88240700000006","41.658959"," Boticas Municipality","",""
"Cemit�rio de Zebras","Valpa�os Municipality"," Vila Real District"," Portugal","14 Rua Direita Valpa�os Municipality, Vila Real District, 5430-301 Portugal","-7.38208899999995","41.464584","","",""
"Cemit�rio de Vinh�s","Peso da R�gua Municipality"," Vila Real District"," Portugal","Caminho da Igreja Peso da R�gua Municipality, Vila Real District Portugal","-7.84074799999996","41.224326","","",""
"Cemit�rio de Vilela Seca","Vilela Seca"," Vila Real District"," Portugal","6 Rua Central Vilela Seca, Chaves Municipality, Vila Real District, 5400-820 Portugal","-7.47113200000001","41.828844"," Chaves Municipality","",""
"Cemit�rio de Vreia de Jales","Vreia de Jales"," Vila Real District"," Portugal","2 Estrada Principal Vreia de Jales, Vila Pouca de Aguiar Municipality, Vila Real District Portugal","-7.58694200000002","41.439216"," Vila Pouca de Aguiar Municipality","",""
"Cemit�rio de Pedr�rio","Sarraquinhos"," Vila Real"," Portugal","26 R Do Vidoeiro Sarraquinhos, Vila Real, 5470-464 Portugal","-7.64484200000004","41.809337","","",""
"Cemit�rio de Vilela do T�mega","Vilela do T�mega"," Vila Real District"," Portugal","4 Rua Seixeira Vilela do T�mega, Chaves Municipality, Vila Real District Portugal","-7.54465300000004","41.682686"," Chaves Municipality","",""
"Cemit�rio de Vilela de Cabugueira","Vila Pouca de Aguiar Municipality"," Vila Real District"," Portugal","3 Rua do Curro Vila Pouca de Aguiar Municipality, Vila Real District Portugal","-7.61840899999993","41.597655","","",""
"Cemit�rio de Peireses","Ch�"," Vila Real"," Portugal","4 R Do Cemit�rio Ch�, Vila Real, 5470-068 Portugal","-7.75835000000006","41.795649","","",""
"Cemit�rio de Paredes","Covel�es"," Vila Real"," Portugal","46 R Do Canto De Cima Covel�es, Vila Real, 5470-092 Portugal","-7.92243199999996","41.79427","","",""
"Cemit�rio de Pardelhas","Pardelhas"," Vila Real"," Portugal","17 R Igreja Pardelhas, Vila Real, 4880-290 Portugal","-7.89614700000004","41.333145","","",""
"Cemit�rio de Parafita","Viade de Baixo"," Vila Real"," Portugal","12 R Das Fragas Viade de Baixo, Vila Real, 5470-521 Portugal","-7.83930299999997","41.761551","","",""
"Cemit�rio de Paradelinha","Vilarinho de S�o Rom�o"," Vila Real"," Portugal","154 R Serro Vilarinho de S�o Rom�o, Vila Real, 5060-630 Portugal","-7.55546700000002","41.250094","","",""
"Cemit�rio de Palheiros","Palheiros"," Vila Real"," Portugal","Autoestrada De Tr�s-Os-Montes E Alto Douro Palheiros, Vila Real, 5090-210 Portugal","-7.40780399999994","41.419172","","",""
"Cemit�rio de Paio Afonso","Pondras"," Vila Real"," Portugal","1 Tv Da R Direita Pondras, Vila Real, 5470-383 Portugal","-7.916518","41.690202","","",""
"Cemit�rio de Paradela de Monforte","Chaves Municipality"," Vila Real"," Portugal","1 R Da Fontela Chaves Municipality, Vila Real, 5400-725 Portugal","-7.33853299999998","41.80552","","",""
"Cemit�rio de Pai Torto","Rio Torto"," Vila Real"," Portugal","78 R Portela Rio Torto, Vila Real, 5430-201 Portugal","-7.27702299999999","41.516909","","",""
"Cemit�rio de Paradan�a","Paradan�a"," Vila Real"," Portugal","EM559 Paradan�a, Vila Real, 4880-281 Portugal","-7.95715799999994","41.37821","","",""
"Cemit�rio de Parada de Pinh�o","Parada de Pinh�o"," Vila Real"," Portugal","1 R Senhor Do Calv�rio Parada de Pinh�o, Vila Real, 5060-105 Portugal","-7.59443799999997","41.336319","","",""
"Cemiterio de Parada de Cunhos","Vila Real"," Vila Real"," Portugal","Rua Do Corisco Vila Real, Vila Real, 5000-471 Portugal","-7.7649873019062","41.283752890343","","",""
"Cemit�rio de Padroso","Padroso"," Vila Real"," Portugal","1 Rua Do Roussio Padroso, Vila Real, 5470-171 Portugal","-7.78121699999997","41.85775","","",""
"Cemit�rio de Padornelos","Padornelos"," Vila Real"," Portugal","26 Rua Barreiro Padornelos, Vila Real, 5470-219 Portugal","-7.75546399999996","41.858842","","",""
"Cemit�rio de Oucidres","Chaves Municipality"," Vila Real"," Portugal","56 R Da Igreja Chaves Municipality, Vila Real, 5400-658 Portugal","-7.33834300000001","41.742144","","",""
"Cemit�rio de Ormeche","Pondras"," Vila Real"," Portugal","17 R De Infesta Pondras, Vila Real, 5470-382 Portugal","-7.91541200000006","41.703895","","",""
"Cemit�rio de Nozelos","Nozelos"," Vila Real"," Portugal","15 R De Nsa Sra Do Carmo Nozelos, Vila Real, 5430-180 Portugal","-7.28657299999998","41.757494","","",""
"Cemit�rio de Nogueira da Montanha","Chaves Municipality"," Vila Real"," Portugal","13 Rua Central Chaves Municipality, Vila Real, 5400-652 Portugal","-7.43071099999997","41.661399","","",""
"Cemit�rio de Cunha","Cunha"," Viana do Castelo"," Portugal","Estrada De Santa Maria De Cunha Cunha, Viana do Castelo, 4940-228 Portugal","-8.59339699999998","41.890196","","",""
"Cemit�rio de Cubalh�o","Melga�o"," Viana do Castelo"," Portugal","Em 202 Melga�o, Viana do Castelo, 4960-140 Portugal","-8.24462800000003","42.05605","","",""
"Cemit�rio de Outeiro","Outeiro"," Vila Real"," Portugal","Em 308-4 Outeiro, Vila Real, 5470-332 Portugal","-7.94443200000001","41.787533","","",""
"Cemit�rio de Moure","Chaves Municipality"," Vila Real"," Portugal","2 Caminho Municipal 1067 Chaves Municipality, Vila Real, 5400-827 Portugal","-7.532648","41.695203","","",""
"Cemit�rio de Cristoval","Melga�o"," Viana do Castelo"," Portugal","En 202 Melga�o, Viana do Castelo, 4960-130 Portugal","-8.20040500000005","42.129695","","",""
"Cemit�rio de Covas","Covas"," Viana do Castelo"," Portugal","Avenida Manuel Jos� Covas, Viana do Castelo, 4920-042 Portugal","-8.69470200000001","41.88336","","",""
"Cemit�rio de Couto","Couto"," Viana do Castelo"," Portugal","Cm 1292 Couto, Viana do Castelo, 4970-130 Portugal","-8.40632800000003","41.873808","","",""
"Cemit�rio de De�o","De�o"," Viana do Castelo"," Portugal","En 203 De�o, Viana do Castelo, 4905-254 Portugal","-8.69968900000004","41.707429","","",""
"Cemit�rio de Chavi�es","Melga�o"," Viana do Castelo"," Portugal","3 Poboado Veira R�o Melga�o, Viana do Castelo, 4960-110 Portugal","-8.24924299999998","42.13248","","",""
"Cemit�rio de Cep�es","Cep�es"," Viana do Castelo"," Portugal","En 306 Cep�es, Viana do Castelo, 4990-585 Portugal","-8.58887000000004","41.82521","","",""
"Cemit�rio de Castro Laboreiro","Melga�o"," Viana do Castelo"," Portugal","Em 202-3 Melga�o, Viana do Castelo, 4960-061 Portugal","-8.15653299999997","42.032436","","",""
"Cemit�rio de Correlh�","Correlh�"," Viana do Castelo"," Portugal","471 R Da Capela De Santo Abd�o Correlh�, Viana do Castelo, 4990-312 Portugal","-8.60374200000001","41.742525","","",""
"Cemit�rio de Chaf�","Chaf�"," Viana do Castelo"," Portugal","321 Estr Amorosa Chaf�, Viana do Castelo, 4935-584 Portugal","-8.782284","41.649027","","",""
"Cemit�rio de Cerdal","Cerdal"," Viana do Castelo"," Portugal","M 1057 Cerdal, Viana do Castelo, 4930-103 Portugal","-8.62566500000003","41.982378","","",""
"Cemit�rio de Carralcova","Carralcova"," Viana do Castelo"," Portugal","105 EM1325 Carralcova, Viana do Castelo, 4970-105 Portugal","-8.35965399999998","41.892983","","",""
"Cemit�rio de Castanheira","Castanheira"," Viana do Castelo"," Portugal","En 303 Castanheira, Viana do Castelo, 4940-110 Portugal","-8.54706199999998","41.899001","","",""
"Cemit�rio de Cardielos","Cardielos"," Viana do Castelo"," Portugal","226 Avenida Da Igreja Cardielos, Viana do Castelo, 4925-344 Portugal","-8.74269600000002","41.712958","","",""
"Cemit�rio de Calvelo","Calvelo"," Viana do Castelo"," Portugal","3059 R Couto De Calvelo Calvelo, Viana do Castelo, 4990-580 Portugal","-8.55364699999996","41.674842","","",""
"Cemit�rio de Cabra��o","Cabra��o"," Viana do Castelo"," Portugal","Em 524 Cabra��o, Viana do Castelo, 4990-570 Portugal","-8.64828999999997","41.832834","","",""
"Cemit�rio de Carvoeiro","Carvoeiro"," Viana do Castelo"," Portugal","En 308 Carvoeiro, Viana do Castelo, 4905-242 Portugal","-8.65722800000003","41.647563","","",""
"Junta de Freguesia de Darque","Darque"," Viana do Castelo District"," Portugal","583 Rua da Sobreira Darque, Viana do Castelo Municipality, Viana do Castelo District Portugal","-8.79537200000004","41.683817"," Viana do Castelo Municipality","",""
"Cemit�rio de Calheiros","Calheiros"," Viana do Castelo"," Portugal","Rua De Parada Calheiros, Viana do Castelo, 4990-575 Portugal","-8.56939799999998","41.806842","","",""
"Cemit�rio de Britelo","Britelo"," Viana do Castelo"," Portugal","Avenida 15 De Agosto Britelo, Viana do Castelo, 4980-201 Portugal","-8.295928","41.831886","","",""
"Cemit�rio de Brav�es","Brav�es"," Viana do Castelo"," Portugal","En 203 Brav�es, Viana do Castelo, 4980-140 Portugal","-8.46010899999999","41.79986","","",""
"Cemit�rio de Vilas Boas","Vilas Boas"," Vila Real District"," Portugal","12 Rua Costas Vilas Boas, Chaves Municipality, Vila Real District, 5425-502 Portugal","-7.52400499999999","41.653602"," Chaves Municipality","",""
"Junta de Freguesia de Areosa","Areosa"," Viana do Castelo District"," Portugal","125 Travessa da Romenda Areosa, Viana do Castelo Municipality, Viana do Castelo District, 4900-834 Portugal","-8.85422900000003","41.713726"," Viana do Castelo Municipality","",""
"Centro Social e Paroquial de Rio Frio AVV","Arcos de Valdevez"," Viana do Castelo District"," Portugal","Arcos de Valdevez, Viana do Castelo District, 4970-318 Portugal","-8.47551499999997","41.861735","","",""
"Cemit�rio de Vilarinho de Freires","Vilarinho dos Freires"," Vila Real District"," Portugal","2164 En 313 Vilarinho dos Freires, Peso da R�gua Municipality, Vila Real District, 5050-367 Portugal","-7.74510799999996","41.174673"," Peso da R�gua Municipality","",""
"Cemit�rio de Vilarinho de Cotas","Vilarinho de Cotas"," Vila Real District"," Portugal","15 Avenida da Fonte Vilarinho de Cotas, Alij� Municipality, Vila Real District Portugal","-7.52891299999999","41.210598"," Alij� Municipality","",""
"Cemit�rio de Vilarinho","Mondim de Basto Municipality"," Vila Real District"," Portugal","10 EM1191-1 Mondim de Basto Municipality, Vila Real District Portugal","-7.88560200000006","41.413856","","",""
"Cemit�rio de Vilarinho das Paranheiras","Vilarinho das Paranheiras"," Vila Real District"," Portugal","20 Rua Eira de Cima Vilarinho das Paranheiras, Chaves Municipality, Vila Real District, 5425-401 Portugal","-7.566281","41.663177"," Chaves Municipality","",""
"Cemit�rio de Vilar de Nantes","Vilar de Nantes"," Vila Real District"," Portugal","10 Rua Cemit�rio Vilar de Nantes, Chaves Municipality, Vila Real District Portugal","-7.44843800000001","41.709813"," Chaves Municipality","",""
"Cemit�rio de Vilarinho da M�","Boticas Municipality"," Vila Real District"," Portugal","17 Rua Direita Boticas Municipality, Vila Real District Portugal","-7.73356999999999","41.712663","","",""
"Cemit�rio de Vila�a","Montalegre Municipality"," Vila Real District"," Portugal","32 Rua Aldeia Montalegre Municipality, Vila Real District, 5470-083 Portugal","-7.90460699999994","41.786426","","",""
"Cemit�rio de Vila Verde de Raia","Vila Verde da Raia"," Vila Real District"," Portugal","1 Estrada Outeiro Seco Vila Verde da Raia, Chaves Municipality, Vila Real District Portugal","-7.42343800000003","41.791257"," Chaves Municipality","",""
"Cemit�rio de Vilar","Vilar"," Vila Real District"," Portugal","4 Rua Couto Vilar, Boticas Municipality, Vila Real District, 5460-512 Portugal","-7.73551699999996","41.667802"," Boticas Municipality","",""
"Cemit�rio de Vilarelho da Raia","Chaves Municipality"," Vila Real District"," Portugal","Bairro Cimo de Vila Chaves Municipality, Vila Real District Portugal","-7.45401300000003","41.840834","","",""
"Cemit�rio de Vilarandelo","Vilarandelo"," Vila Real District"," Portugal","108 Rua Dona Am�lia Castelo Vilarandelo, Valpa�os Municipality, Vila Real District, 5430-659 Portugal","-7.32608800000003","41.664203"," Valpa�os Municipality","",""
"Cemit�rio de Vilar de Iseu","Chaves Municipality"," Vila Real District"," Portugal","1 Rua Central Chaves Municipality, Vila Real District Portugal","-7.31932600000005","41.755321","","",""
"Cemit�rio de Vila Nova de Veiga","Chaves Municipality"," Vila Real District"," Portugal","1A Rua 25 de Abril Chaves Municipality, Vila Real District, 5400-764 Portugal","-7.49143700000002","41.706767","","",""
"Cemit�rio de Vila Verde","Chaves Municipality"," Vila Real District"," Portugal","10 Rua Sino Chaves Municipality, Vila Real District, 5425-230 Portugal","-7.55514900000003","41.63257","","",""
"Cemit�rio de Vila Me�","Chaves Municipality"," Vila Real District"," Portugal","17 Rua Central Chaves Municipality, Vila Real District, 5400-813 Portugal","-7.43378400000006","41.818547","","",""
"Cemit�rio de Vila do Conde","Vila Pouca de Aguiar Municipality"," Vila Real District"," Portugal","29 Rua do Cemit�rio Vila Pouca de Aguiar Municipality, Vila Real District Portugal","-7.53534400000001","41.601157","","",""
"Cemit�rio de Viduedo","Vila Pouca de Aguiar Municipality"," Vila Real District"," Portugal","CM1174 Vila Pouca de Aguiar Municipality, Vila Real District Portugal","-7.75923899999998","41.489882","","",""
"Cemit�rio de Ventozelos","Chaves Municipality"," Vila Real District"," Portugal","12 Rua Emigrantes Chaves Municipality, Vila Real District, 5400-756 Portugal","-7.50399700000003","41.672226","","",""
"Cemit�rio de Mosteiro de Baixo","Chaves Municipality"," Vila Real"," Portugal","1 R Do Cemit�rio Chaves Municipality, Vila Real, 5400-624 Portugal","-7.40959299999997","41.71723","","",""
"Cemit�rio Paroquial da Meadela","Meadela"," Viana do Castelo District"," Portugal","1 Rua Ant�nio Manuel Couto Viana Meadela, Viana do Castelo Municipality, Viana do Castelo District, 4900-665 Portugal","-8.80432399999995","41.706998"," Viana do Castelo Municipality","",""
"Cemit�rio de Mid�es","Algeriz"," Vila Real"," Portugal","6 Br Do Emigrante Algeriz, Vila Real, 5445-012 Portugal","-7.35220400000003","41.567573","","",""
"Cemit�rio de Vila Grande","Dornelas"," Vila Real District"," Portugal","16 Avenida Nova Dornelas, Boticas Municipality, Vila Real District, 5460-414 Portugal","-7.84452999999996","41.63937"," Boticas Municipality","",""
"Cemit�rio de Vidago","Vidago"," Vila Real District"," Portugal","74 En 2 Vidago, Chaves Municipality, Vila Real District Portugal","-7.56888300000003","41.635626"," Chaves Municipality","",""
"Cemit�rio de Montalegre","Montalegre"," Vila Real"," Portugal","1 Terreiro Do A�ougue Montalegre, Vila Real, 5470-171 Portugal","-7.79087400000003","41.827133","","",""
"Cemit�rio de Meixide","Meixide"," Vila Real"," Portugal","27 Cm 1352 Meixide, Vila Real, 5470-180 Portugal","-7.59697900000003","41.815418","","",""
"Cemit�rio de Meixedo","Meixedo"," Vila Real"," Portugal","2 Estr Da Portela Meixedo, Vila Real, 5470-219 Portugal","-7.74408900000003","41.835532","","",""
"Cemit�rio de Lixa do Alv�o","Lixa do Alv�o"," Vila Real"," Portugal","1 R Do Cemit�rio Lixa do Alv�o, Vila Real, 5450-261 Portugal","-7.68728599999997","41.50606","","",""
"Cemit�rio de Medeiros","Ch�"," Vila Real"," Portugal","12 R Da Portela Do Vale Ch�, Vila Real, 5470-067 Portugal","-7.78641900000002","41.796309","","",""
"Cemit�rio de Mateus","Mateus"," Vila Real"," Portugal","Rua Padre Fernando Miranda Mateus, Vila Real, 5000-266 Portugal","-7.71731499999999","41.299878","","",""
"Cemit�rio de Mascanho","Jou"," Vila Real"," Portugal","104 Sit Mascanho Jou, Vila Real, 5090-077 Portugal","-7.46902899999998","41.461994","","",""
"Cemit�rio de Mairos","Chaves Municipality"," Vila Real"," Portugal","Em 502 Chaves Municipality, Vila Real, 5400-640 Portugal","-7.340643","41.824548","","",""
"Cemit�rio de Loureiro","Loureiro"," Vila Real"," Portugal","EM600 Loureiro, Vila Real, 5050-315 Portugal","-7.81480799999997","41.181417","","",""
"Cemit�rio de Lamas","Fervidelas"," Vila Real"," Portugal","Caminho Fervidelas - Lamas Fervidelas, Vila Real, 5470-142 Portugal","-7.91396599999996","41.752709","","",""
"Cemit�rio de Lamadarcos","Chaves Municipality"," Vila Real"," Portugal","4 R Da Saudade Chaves Municipality, Vila Real, 5400-636 Portugal","-7.38656400000002","41.832799","","",""
"Cemit�rio de Lim�es","Lim�es"," Vila Real"," Portugal","1 R Padre Agostinho Augusto Alves Dinis Lim�es, Vila Real, 4870-078 Portugal","-7.82862699999998","41.451898","","",""
"Cemit�rio de Lim�os","Chaves Municipality"," Vila Real"," Portugal","6c R Central Chaves Municipality, Vila Real, 5400-752 Portugal","-7.37474299999997","41.680105","","",""
"Cemit�rio de Lapela","Cabril"," Vila Real"," Portugal","3 R Da Ponte Cabril, Vila Real, 5470-022 Portugal","-7.99696900000004","41.745092","","",""
"Cemit�rio de Lamas","Alvadia"," Vila Real"," Portugal","2 R Escola Alvadia, Vila Real, 4870-013 Portugal","-7.75699199999997","41.451837","","",""
"Cemit�rio de Brandara","Brandara"," Viana do Castelo"," Portugal","Avenida Da Igreja Brandara, Viana do Castelo, 4990-560 Portugal","-8.57347300000004","41.797751","","",""
"Cemit�rio de Gouvinhas","Gouvinhas"," Vila Real"," Portugal","Em 322-2 Gouvinhas, Vila Real, 5060-052 Portugal","-7.63146000000006","41.185869","","",""
"Cemit�rio de Boalhosa","Boalhosa"," Viana do Castelo"," Portugal","Cm 1158 Boalhosa, Viana do Castelo, 4990-555 Portugal","-8.479874","41.729793","","",""
"Cemit�rio de Jorjais de Perafita","Vila Verde"," Vila Real"," Portugal","1 R Ch�o Grande Vila Verde, Vila Real, 5070-554 Portugal","-7.57004900000004","41.36893","","",""
"Cemit�rio de Lamach�","Negr�es"," Vila Real"," Portugal","20 R Da Costa Negr�es, Vila Real, 5470-321 Portugal","-7.76998200000003","41.715315","","",""
"Cemit�rio de Bico","Bico"," Viana do Castelo"," Portugal","En 303 Bico, Viana do Castelo, 4940-064 Portugal","-8.527963","41.894237","","",""
"Cemit�rio de Gralh�s","Ch�"," Vila Real"," Portugal","8 Rua Do Santo Ch�, Vila Real, 5470-062 Portugal","-7.74005799999998","41.783404","","",""
"Cemit�rio de Boiv�es","Boiv�es"," Viana do Castelo"," Portugal","Cm 1330 Boiv�es, Viana do Castelo, 4980-058 Portugal","-8.44862699999999","41.763343","","",""
"Cemit�rio de Boalhosa","Boalhosa"," Viana do Castelo"," Portugal","Cm 1158 Boalhosa, Viana do Castelo, 4990-555 Portugal","-8.479874","41.729793","","",""
"Cemit�rio de Bertiandos","Bertiandos"," Viana do Castelo"," Portugal","63 R Da C�cua Bertiandos, Viana do Castelo, 4990-550 Portugal","-8.62538799999993","41.765986","","",""
"Cemit�rio de Barro�as e Taias","Barro�as e Taias"," Viana do Castelo"," Portugal","Rua De Barro�as Barro�as e Taias, Viana do Castelo, 4950-070 Portugal","-8.49475099999995","41.998981","","",""
"Cemit�rio de Azevedo","Azevedo"," Viana do Castelo"," Portugal","Rua Das Barracas Azevedo, Viana do Castelo, 4910-060 Portugal","-8.81543999999997","41.839797","","",""
"Cemit�rio de Argela","Argela"," Viana do Castelo"," Portugal","Em 526 Argela, Viana do Castelo, 4910-055 Portugal","-8.797909","41.86588","","",""
"Cemit�rio de B�rrio","B�rrio"," Viana do Castelo"," Portugal","En 306 B�rrio, Viana do Castelo, 4990-540 Portugal","-8.58668399999999","41.831949","","",""
"Cemit�rio de Arcozelo","Arcozelo"," Viana do Castelo"," Portugal","70 R S Goncalo Arcozelo, Viana do Castelo, 4990-167 Portugal","-8.59322299999997","41.768212","","",""
"Cemit�rio de Barbeita","Barbeita"," Viana do Castelo"," Portugal","En 202 Barbeita, Viana do Castelo, 4950-040 Portugal","-8.40411700000004","42.065794","","",""
"Cemit�rio de �ncora","�ncora"," Viana do Castelo"," Portugal","262 Avenida Paulino Velho Gomes �ncora, Viana do Castelo, 4910-017 Portugal","-8.85258199999998","41.806072","","",""
"Cemit�rio de Amonde","Amonde"," Viana do Castelo"," Portugal","En 305 Amonde, Viana do Castelo, 4925-301 Portugal","-8.76023799999996","41.786988","","",""
"Cemit�rio de Barroselas","Barroselas"," Viana do Castelo"," Portugal","En 308 Barroselas, Viana do Castelo, 4905-471 Portugal","-8.69772599999999","41.648095","","",""
"Cemit�rio Municipal de Caminha","Caminha"," Viana do Castelo District"," Portugal","63 Cal�ada Santo Ant�nio Caminha, Caminha Municipality, Viana do Castelo District, 4910-156 Portugal","-8.83808399999998","41.87237"," Caminha Municipality","",""
"Cemit�rio de Ardeg�o","Ardeg�o"," Viana do Castelo"," Portugal","Rua De Santiago De Cossourado Ardeg�o, Viana do Castelo, 4990-535 Portugal","-8.59927700000003","41.643311","","",""
"Cemit�rio de Arca","Arca"," Viana do Castelo"," Portugal","Rua S�o Mamede De Arca Arca, Viana do Castelo, 4990-206 Portugal","-8.57177999999999","41.760963","","",""
"Cemit�rio de Arcozelo","Arcozelo"," Viana do Castelo"," Portugal","Rua Do Albocovo Arcozelo, Viana do Castelo, 4990-234 Portugal","-8.59227799999997","41.792128","","",""
"Cemit�rio de Trute","Trute"," Viana do Castelo District"," Portugal","101 EM502-2 Trute, Mon��o Municipality, Viana do Castelo District Portugal","-8.47082799999998","42.011055"," Mon��o Municipality","",""
"Cemit�rio de Vilarinho de Souto","Arcos de Valdevez"," Viana do Castelo District"," Portugal","315 EM530 Arcos de Valdevez, Viana do Castelo District Portugal","-8.31595600000003","41.834574","","",""
"Cemit�rio de Arcos de Valdevez","Arcos de Valdevez Municipality"," Viana do Castelo"," Portugal","276 Rua De S�o Bento Arcos de Valdevez Municipality, Viana do Castelo, 4970-435 Portugal","-8.42442000000005","41.844634","","",""
"Cemit�rio de Vilarinho das Quartas","Arcos de Valdevez"," Viana do Castelo District"," Portugal","105 Rua de Vilarinho das Quartas Arcos de Valdevez, Viana do Castelo District Portugal","-8.28442500000006","41.864295","","",""
"Cemit�rio de Vilar das Almas","Vilar das Almas"," Viana do Castelo District"," Portugal","4 EM539-1 Vilar das Almas, Ponte de Lima, Viana do Castelo District, 4990-790 Portugal","-8.544893","41.641618"," Ponte de Lima","",""
"Cemit�rio de T�vora S�o Vicente","T�vora (S�o Vicente)"," Viana do Castelo District"," Portugal","301 EM1312 T�vora (S�o Vicente), Arcos de Valdevez, Viana do Castelo District, 4970-531 Portugal","-8.46802100000002","41.820731"," Arcos de Valdevez","",""
"Cemit�rio de Taba��","Arcos de Valdevez"," Viana do Castelo District"," Portugal","4 N202 Arcos de Valdevez, Viana do Castelo District, 4970-685 Portugal","-8.43483000000003","41.82216","","",""
"Cemit�rio de Vale","Arcos de Valdevez"," Viana do Castelo District"," Portugal","Arcos de Valdevez, Viana do Castelo District, 4970-728 Portugal","-8.36934900000006","41.836876","","",""
"Cemit�rio de Travassos","Arcos de Valdevez"," Viana do Castelo District"," Portugal","122 Rua de Travassos Arcos de Valdevez, Viana do Castelo District Portugal","-8.49887200000001","41.878548","","",""
"Cemit�rio de T�vora Santa Maria","T�vora (Santa Maria)"," Viana do Castelo District"," Portugal","103 N202 T�vora (Santa Maria), Arcos de Valdevez, Viana do Castelo District, 4970-531 Portugal","-8.46193300000004","41.813225"," Arcos de Valdevez","",""
"Cemit�rio de Tai�o","Valen�a"," Viana do Castelo District"," Portugal","8 EM1050 Valen�a, Viana do Castelo District Portugal","-8.59062500000005","41.99818","","",""
"Cemit�rio de Silva","Silva"," Viana do Castelo District"," Portugal","43 EM512-1 Silva, Valen�a, Viana do Castelo District Portugal","-8.665571","41.955798"," Valen�a","",""
"Cemit�rio de S�o Jo�o da Portela","Portela"," Viana do Castelo District"," Portugal","6 EM1107 Portela, Mon��o Municipality, Viana do Castelo District Portugal","-8.48831999999993","41.989388"," Mon��o Municipality","",""
"Cemit�rio de Soajo","Arcos de Valdevez"," Viana do Castelo District"," Portugal","Arcos de Valdevez, Viana do Castelo District, 4970-671 Portugal","-8.26349000000005","41.87072","","",""
"Cemit�rio de Serdedelo","Serdedelo"," Viana do Castelo District"," Portugal","205 EM534 Serdedelo, Ponte de Lima, Viana do Castelo District, 4990-760 Portugal","-8.539895","41.749835"," Ponte de Lima","",""
"Cemit�rio de Vila Fonche","Vila Fonche"," Viana do Castelo District"," Portugal","102 N303 Vila Fonche, Arcos de Valdevez, Viana do Castelo District Portugal","-8.43170199999997","41.849109"," Arcos de Valdevez","",""
"Cemit�rio de S�o Paio","S�o Paio"," Viana do Castelo District"," Portugal","101 EM1144 S�o Paio, Melga�o Municipality, Viana do Castelo District Portugal","-8.26463100000001","42.092234"," Melga�o Municipality","",""
"Cemit�rio de Veiga de Lila","Veiga de Lila"," Vila Real District"," Portugal","2 Rua Igreja Veiga de Lila, Valpa�os Municipality, Vila Real District, 5430-620 Portugal","-7.32292400000006","41.523554"," Valpa�os Municipality","",""
"Cemit�rio de S�o Juli�o","S�o Juli�o"," Viana do Castelo District"," Portugal","2 EM1062 S�o Juli�o, Valen�a, Viana do Castelo District Portugal","-8.65395699999999","41.946175"," Valen�a","",""
"Cemit�rio de S�o Cosme e S�o Dami�o","Arcos de Valdevez"," Viana do Castelo District"," Portugal","101 N202-2 Arcos de Valdevez, Viana do Castelo District Portugal","-8.43080299999997","41.899376","","",""
"Cemit�rio de Santar","Santar"," Viana do Castelo District"," Portugal","11 EM1317 Santar, Arcos de Valdevez, Viana do Castelo District Portugal","-8.42384100000004","41.818823"," Arcos de Valdevez","",""
"Cemit�rio de Varges","Mur�a Municipality"," Vila Real District"," Portugal","1 Rua Central Mur�a Municipality, Vila Real District, 5090-210 Portugal","-7.36678299999994","41.406787","","",""
"Cemit�rio de Vassal","Vassal"," Vila Real District"," Portugal","19 Rua Igreja Vassal, Valpa�os Municipality, Vila Real District Portugal","-7.35748000000001","41.616771"," Valpa�os Municipality","",""
"Cemit�rio de Valpa�os 2","Valpa�os"," Vila Real District"," Portugal","12 Avenida Pinheiro Manso Valpa�os, Valpa�os Municipality, Vila Real District Portugal","-7.31404900000007","41.604702"," Valpa�os Municipality","",""
"Cemit�rio de Tronco","Tronco"," Vila Real District"," Portugal","2 Rua Cordoura Tronco, Chaves Municipality, Vila Real District, 5400-800 Portugal","-7.29906400000004","41.774484"," Chaves Municipality","",""
"Cemit�rio de Tresminas","Mes�o Frio (S�o Nicolau)"," Vila Real District"," Portugal","1 Rua Central Mes�o Frio (S�o Nicolau), Vila Pouca de Aguiar Municipality, Vila Real District Portugal","-7.51545999999996","41.479331"," Vila Pouca de Aguiar Municipality","",""
"Cemit�rio de Valverde","Valpa�os"," Vila Real District"," Portugal","12 Rua Cabe�o Valpa�os, Valpa�os Municipality, Vila Real District Portugal","-7.27299900000003","41.593106"," Valpa�os Municipality","",""
"Cemit�rio de Valoura","Mes�o Frio (S�o Nicolau)"," Vila Real District"," Portugal","3 EM547 Mes�o Frio (S�o Nicolau), Vila Pouca de Aguiar Municipality, Vila Real District Portugal","-7.54541500000005","41.575131"," Vila Pouca de Aguiar Municipality","",""
"Cemit�rio de Tazem","Valpa�os Municipality"," Vila Real District"," Portugal","5 Avenida 1� de Maio Valpa�os Municipality, Vila Real District Portugal","-7.488967","41.553219","","",""
"Cemit�rio de Vale de Anta","Vale de Anta"," Vila Real District"," Portugal","4 Rua Tr�s da Santa Vale de Anta, Chaves Municipality, Vila Real District Portugal","-7.50095199999998","41.741159"," Chaves Municipality","",""
"Cemit�rio de Toubres","Mur�a Municipality"," Vila Real District"," Portugal","29 Rua Central Mur�a Municipality, Vila Real District, 5090-076 Portugal","-7.42216499999995","41.46617","","",""
"Cemit�rio de Sonim","Sonim"," Vila Real District"," Portugal","7 Rua S�o Frutuoso Sonim, Valpa�os Municipality, Vila Real District Portugal","-7.22340600000007","41.709751"," Valpa�os Municipality","",""
"Cemit�rio de Tinhela","Valpa�os Municipality"," Vila Real District"," Portugal","Rua Santo Amaro Valpa�os Municipality, Vila Real District Portugal","-7.29199100000005","41.709768","","",""
"Cemit�rio de Soutelinho","Mes�o Frio (S�o Nicolau)"," Vila Real District"," Portugal","1 Rua da Carreira Mes�o Frio (S�o Nicolau), Vila Pouca de Aguiar Municipality, Vila Real District Portugal","-7.56242900000007","41.580062"," Vila Pouca de Aguiar Municipality","",""
"Cemit�rio de Soutelinho da Raia","Soutelinho da Raia"," Vila Real District"," Portugal","14 Bairro Forno Telheiro Soutelinho da Raia, Chaves Municipality, Vila Real District, 5400-785 Portugal","-7.57284300000003","41.827364"," Chaves Municipality","",""
"Cemit�rio de Sobreira","Chaves Municipality"," Vila Real District"," Portugal","6 Rua Central Chaves Municipality, Vila Real District, 5400-604 Portugal","-7.38808399999994","41.747751","","",""
"Cemit�rio de Sobredo","Mur�a Municipality"," Vila Real District"," Portugal","3 Rua Central Mur�a Municipality, Vila Real District, 5090-200 Portugal","-7.42634799999996","41.388824","","",""
"Cemit�rio de Godim","Godim"," Vila Real"," Portugal","Em 600 Godim, Vila Real, 5050-066 Portugal","-7.80331699999999","41.170852","","",""
"Cemit�rio de Sobrados","Sabrosa"," Vila Real District"," Portugal","12 CM1265-2 Sabrosa, Vila Real District, 5060-241 Portugal","-7.61303099999998","41.237885","","",""
"Cemit�rio de Serri�os","Boticas Municipality"," Vila Real District"," Portugal","Rua Torre Boticas Municipality, Vila Real District Portugal","-7.68931399999997","41.67841","","",""
"Cemit�rio de Gouv�es do Douro","Gouv�es do Douro"," Vila Real"," Portugal","4 R Barroco Gouv�es do Douro, Vila Real, 5085-242 Portugal","-7.56861000000004","41.194087","","",""
"Cemit�rio de Firvidas","Ch�"," Vila Real"," Portugal","21 R Do Cemit�rio Ch�, Vila Real, 5470-064 Portugal","-7.72304199999996","41.789612","","",""
"Cemit�rio de Fontelas","Fontelas"," Vila Real"," Portugal","Em 600 Fontelas, Vila Real, 5050-026 Portugal","-7.81665599999997","41.162211","","",""
"Cemit�rio de Fontes","Santa Marta de Penagui�o"," Vila Real"," Portugal","4 R Trapa Santa Marta de Penagui�o, Vila Real, 5030-134 Portugal","-7.81971399999998","41.225565","","",""
"Cemit�rio de Fri�es","Fri�es"," Vila Real"," Portugal","7 Av Humberto Delgado Fri�es, Vila Real, 5430-127 Portugal","-7.38618399999996","41.689166","","",""
"Cemit�rio de Fi�es do Rio","Fi�es do Rio"," Vila Real"," Portugal","2 R Bento Gon�alves Fi�es do Rio, Vila Real, 5470-151 Portugal","-7.92657399999996","41.778117","","",""
"Cemit�rio de Fervidelas","Fervidelas"," Vila Real"," Portugal","Adro Da Igreja De Santa Maria Maior Fervidelas, Vila Real, 5470-141 Portugal","-7.90001400000006","41.753981","","",""
"Cemit�rio de Fi�es","Fi�es"," Vila Real"," Portugal","5 R Da Cruz Fi�es, Vila Real, 5430-090 Portugal","-7.26389500000005","41.741988","","",""
"Cemit�rio de Franzilhal","Carl�o"," Vila Real"," Portugal","Rua Cimo Do Lugar Carl�o, Vila Real, 5070-204 Portugal","-7.38563499999998","41.304489","","",""
"Cemit�rio de Fornos do Pinhal","Fornos do Pinhal"," Vila Real"," Portugal","Estrada Municipal 544 Fornos do Pinhal, Vila Real, 5430-100 Portugal","-7.26549599999998","41.647014","","",""
"Cemit�rio de Fernandinho","Chaves Municipality"," Vila Real"," Portugal","22 R 1 De Maio Chaves Municipality, Vila Real, 5425-253 Portugal","-7.49081699999999","41.609731","","",""
"Cemit�rio de Fai�es","Chaves Municipality"," Vila Real"," Portugal","97 En 103 Chaves Municipality, Vila Real, 5400-632 Portugal","-7.42098299999998","41.750539","","",""
"Cemit�rio de Fafi�o","Cabril"," Vila Real"," Portugal","10 R Do Trugano Cabril, Vila Real, 5470-017 Portugal","-8.09281799999997","41.698874","","",""
"Cemit�rio de Don�es","Don�es"," Vila Real"," Portugal","2 R De Tordeita Don�es, Vila Real, 5470-110 Portugal","-7.81431599999996","41.833022","","",""
"Cemit�rio de Curros","Curros"," Vila Real"," Portugal","3 R Principal Curros, Vila Real, 5460-400 Portugal","-7.68758300000002","41.641516","","",""
"Cemit�rio de Ermelo","Ermelo"," Vila Real"," Portugal","En 304 Ermelo, Vila Real, 4880-133 Portugal","-7.89435700000001","41.351724","","",""
"Cemit�rio de Erv�es","Erv�es"," Vila Real"," Portugal","1 R Do Pinhal Erv�es, Vila Real, 5430-073 Portugal","-7.35791700000004","41.657465","","",""
"Cemit�rio de Erv�es","Erv�es"," Vila Real"," Portugal","39 Estrada Nacional 213 Erv�es, Vila Real, 5430-075 Portugal","-7.349875","41.673769","","",""
"Cemit�rio de Eiras","Chaves Municipality"," Vila Real"," Portugal","Rua Do Repouso Chaves Municipality, Vila Real, 5400-623 Portugal","-7.43621299999995","41.730811","","",""
"Cemit�rio de Curalha","Chaves Municipality"," Vila Real"," Portugal","Rua Do Cemit�rio Chaves Municipality, Vila Real, 5400-620 Portugal","-7.52671299999997","41.715602","","",""
"Cemit�rio de Agui�","Agui�"," Viana do Castelo"," Portugal","EM518 Agui�, Viana do Castelo, 4970-049 Portugal","-8.43671500000005","41.8813","","",""
"Cemit�rio da Torre","Torre"," Viana do Castelo"," Portugal","43 R Pica Torre, Viana do Castelo, 4925-609 Portugal","-8.71327700000006","41.722462","","",""
"Cemit�rio da Miranda","Miranda"," Viana do Castelo"," Portugal","101 EM1311-3 Miranda, Viana do Castelo, 4970-215 Portugal","-8.50429499999996","41.835496","","",""
"Cemit�rio de Alvar�es","Alvar�es"," Viana do Castelo"," Portugal","39 Rua Dos Cruzeiros Alvar�es, Viana do Castelo, 4905-205 Portugal","-8.74235199999998","41.643576","","",""
"Cemit�rio de Santa Cruz do Lima","Ponte de Lima"," Viana do Castelo District"," Portugal","1 Rua de Argueda Ponte de Lima, Viana do Castelo District Portugal","-8.48056599999995","41.784802","","",""
"Cemit�rio de Alvora","�lvora"," Viana do Castelo"," Portugal","164 Sem Designacao �lvora, Viana do Castelo, 4970-065 Portugal","-8.44335799999999","41.938371","","",""
"Cemit�rio de Sanfins","Valen�a"," Viana do Castelo District"," Portugal","506 EM508 Valen�a, Viana do Castelo District Portugal","-8.57017599999995","42.01866","","",""
"Cemit�rio de Alvaredo","Melga�o"," Viana do Castelo"," Portugal","Antiga Estrada Nacional 202 Melga�o, Viana do Castelo, 4960-010 Portugal","-8.30020400000001","42.095952","","",""
"Cemit�rio de S�","S�"," Viana do Castelo District"," Portugal","112 EM1287 S�, Arcos de Valdevez, Viana do Castelo District Portugal","-8.42438900000002","41.924395"," Arcos de Valdevez","",""
"Cemit�rio de Agui�","Agui�"," Viana do Castelo"," Portugal","EM518 Agui�, Viana do Castelo, 4970-049 Portugal","-8.43671500000005","41.8813","","",""
"Cemiterio Casa Mortuaria Sanitarios","Vila Nova da Mu�a"," Viana do Castelo"," Portugal","Cm 1343 Vila Nova da Mu�a, Viana do Castelo, 4980-822 Portugal","-8.37992299999996","41.801043","","",""
"Cemit�rio de Ribeiro de Baixo","Melga�o Municipality"," Viana do Castelo District"," Portugal","124 Rua de Ribeiro de Baixo Melga�o Municipality, Viana do Castelo District Portugal","-8.18576800000005","41.951558","","",""
"Cemit�rio de Rio de Mo�nhos","Rio de Moinhos"," Viana do Castelo District"," Portugal","301 EM1301 Rio de Moinhos, Arcos de Valdevez, Viana do Castelo District Portugal","-8.45175599999993","41.890012"," Arcos de Valdevez","",""
"Cemit�rio de Riba de �ncora","Riba de �ncora"," Viana do Castelo District"," Portugal","164 EM1015 Riba de �ncora, Caminha Municipality, Viana do Castelo District, 4910-317 Portugal","-8.81948","41.810009"," Caminha Municipality","",""
"Cemit�rio de Ribeiro de Cima","Melga�o Municipality"," Viana do Castelo District"," Portugal","104 Rua de Ribeiro de Cima Melga�o Municipality, Viana do Castelo District Portugal","-8.17824399999995","41.967559","","",""
"Cemit�rio de Sandi�es","Ponte de Lima"," Viana do Castelo District"," Portugal","12 N306 Ponte de Lima, Viana do Castelo District Portugal","-8.57197300000007","41.640717","","",""
"Cemit�rio de Rubi�es","Paredes de Coura Municipality"," Viana do Castelo District"," Portugal","105 EM514 Paredes de Coura Municipality, Viana do Castelo District Portugal","-8.62018599999999","41.904197","","",""
"Cemit�rio de Rio Frio","Arcos de Valdevez"," Viana do Castelo District"," Portugal","801 EM523 Arcos de Valdevez, Viana do Castelo District Portugal","-8.46595200000002","41.846838","","",""
"Cemit�rio de Rio Cabr�o","Rio Cabr�o"," Viana do Castelo District"," Portugal","104 EM1311 Rio Cabr�o, Arcos de Valdevez, Viana do Castelo District Portugal","-8.50615800000003","41.811482"," Arcos de Valdevez","",""
"Cemit�rio de Reboreda","Reboreda"," Viana do Castelo District"," Portugal","8 Rua da Igreja Reboreda, Vila Nova de Cerveira Municipality, Viana do Castelo District, 4920-110 Portugal","-8.72503000000006","41.958063"," Vila Nova de Cerveira Municipality","",""
"Cemit�rio de Podame","Podame"," Viana do Castelo District"," Portugal","102 EM1123 Podame, Mon��o Municipality, Viana do Castelo District Portugal","-8.37071800000001","42.04393"," Mon��o Municipality","",""
"Cemit�rio de Pias","Mon��o Municipality"," Viana do Castelo District"," Portugal","510 Rua da Lapa Mon��o Municipality, Viana do Castelo District Portugal","-8.49792400000001","42.007354","","",""
"Cemit�rio de Portela","Portela"," Viana do Castelo District"," Portugal","108 EM505 Portela, Arcos de Valdevez, Viana do Castelo District Portugal","-8.45175599999993","41.944983"," Arcos de Valdevez","",""
"Cemit�rio de Ponte de Lima","Ponte de Lima"," Viana do Castelo District"," Portugal","Rua Conde de Aurora Ponte de Lima, Ponte de Lima, Viana do Castelo District, 4990-150 Portugal","-8.58600999999999","41.761961"," Ponte de Lima","",""
"Cemit�rio de Poiares","Poiares"," Viana do Castelo District"," Portugal","1 EM1270 Poiares, Ponte de Lima, Viana do Castelo District, 4990-680 Portugal","-8.62565599999994","41.651959"," Ponte de Lima","",""
"Cemit�rio de Paredes de Coura","Paredes de Coura"," Viana do Castelo District"," Portugal","1 Rua Combatentes da Travanca Paredes de Coura, Paredes de Coura Municipality, Viana do Castelo District, 4940-528 Portugal","-8.56515999999999","41.915412"," Paredes de Coura Municipality","",""
"Cemit�rio de Paradela","Arcos de Valdevez"," Viana do Castelo District"," Portugal","201 EM530 Arcos de Valdevez, Viana do Castelo District Portugal","-8.21805799999993","41.882283","","",""
"Cemit�rio de Serraquinhos","Sarraquinhos"," Vila Real District"," Portugal","29 Rua Central Sarraquinhos, Montalegre Municipality, Vila Real District, 5470-466 Portugal","-7.66238099999998","41.79743"," Montalegre Municipality","",""
"Cemit�rio de Sendim","Montalegre Municipality"," Vila Real District"," Portugal","1 Rua Tou�a Montalegre Municipality, Vila Real District, 5470-341 Portugal","-7.76151900000002","41.891833","","",""
"Cemit�rio de Selhariz","Selhariz"," Vila Real District"," Portugal","48 Rua Armindo Teixeira Selhariz, Chaves Municipality, Vila Real District, 5425-271 Portugal","-7.53107","41.634192"," Chaves Municipality","",""
"Cemit�rio de Serapicos","Mur�a Municipality"," Vila Real District"," Portugal","3 Rua do Fundo Mur�a Municipality, Vila Real District Portugal","-7.42464199999995","41.455653","","",""
"Cemit�rio de S�o Juli�o de Montenegro","S�o Juli�o de Montenegro"," Vila Real District"," Portugal","70 Rua Cemit�rio S�o Juli�o de Montenegro, Chaves Municipality, Vila Real District, 5400-754 Portugal","-7.39619100000004","41.718134"," Chaves Municipality","",""
"Cemit�rio de Seixo","Chaves Municipality"," Vila Real District"," Portugal","2 Rua Central Chaves Municipality, Vila Real District Portugal","-7.50234799999998","41.652231","","",""
"Cemit�rio de Prozelo","Arcos de Valdevez"," Viana do Castelo District"," Portugal","105 EM1304 Arcos de Valdevez, Viana do Castelo District Portugal","-8.43992900000001","41.866538","","",""
"Cemit�rio de S�o Martino de Anta","S�o Martinho de Anta"," Vila Real District"," Portugal","9 Rua de Santo Ant�nio S�o Martinho de Anta, Sabrosa, Vila Real District, 5060-440 Portugal","-7.61218400000007","41.266344"," Sabrosa","",""
"Cemit�rio de S�o Jo�o de Lobrigos","Santa Marta de Penagui�o"," Vila Real District"," Portugal","3178 Rua de S�o Jo�o Baptista Santa Marta de Penagui�o, Vila Real District Portugal","-7.77635599999996","41.200099","","",""
"Cemit�rio de S�o Francisco","Valpa�os Municipality"," Vila Real District"," Portugal","1 Rua Principal Valpa�os Municipality, Vila Real District Portugal","-7.22799699999996","41.745494","","",""
"Cemit�rio de S�o Dinis","Mes�o Frio (S�o Nicolau)"," Vila Real District"," Portugal","18 Rua Irm� Virtudes Mes�o Frio (S�o Nicolau), Vila Real, Vila Real District, 5000-651 Portugal","-7.74625400000002","41.291772"," Vila Real","",""
"Cemit�rio de S�o Vicente","Chaves Municipality"," Vila Real District"," Portugal","EM502 Chaves Municipality, Vila Real District Portugal","-7.26499100000001","41.851919","","",""
"Cemit�rio de Selhariz","Chaves Municipality"," Vila Real District"," Portugal","65 Rua Cimo do Povo Chaves Municipality, Vila Real District Portugal","-7.54494999999997","41.649745","","",""
"Cemit�rio de S�o Crisov�o do Douro","S�o Cristov�o do Douro"," Vila Real District"," Portugal","1 EM588 S�o Cristov�o do Douro, Sabrosa, Vila Real District Portugal","-7.54541500000005","41.203189"," Sabrosa","",""
"Cemit�rio de Santo Estev�o","Santo Est�v�o"," Vila Real District"," Portugal","6 Rua Castelo Santo Est�v�o, Chaves Municipality, Vila Real District Portugal","-7.41777300000001","41.759409"," Chaves Municipality","",""
"Cemit�rio de Santo Andr�","Santo Andr�"," Vila Real District"," Portugal","9 Rua Cemit�rio Santo Andr�, Montalegre Municipality, Vila Real District Portugal","-7.66502700000001","41.866393"," Montalegre Municipality","",""
"Cemit�rio de Santa Marta do Alv�o","Vila Pouca de Aguiar Municipality"," Vila Real District"," Portugal","E805 Vila Pouca de Aguiar Municipality, Vila Real District Portugal","-7.74476800000002","41.505573","","",""
"Cemit�rio de S�o Pedro de Veiga de Lila","S�o Pedro de Veiga de Lila"," Vila Real District"," Portugal","3 Bairro Po�o da Cruz S�o Pedro de Veiga de Lila, Valpa�os Municipality, Vila Real District, 5430-251 Portugal","-7.32933600000001","41.501234"," Valpa�os Municipality","",""
"Cemit�rio de Santa Marta do Alv�o","Vila Pouca de Aguiar Municipality"," Vila Real District"," Portugal","E805 Vila Pouca de Aguiar Municipality, Vila Real District Portugal","-7.74476800000002","41.505573","","",""
"Cemit�rio de Santa Valha","Santa Valha"," Vila Real District"," Portugal","2 Rua Maceira Santa Valha, Valpa�os Municipality, Vila Real District Portugal","-7.26722500000005","41.685455"," Valpa�os Municipality","",""
"Cemit�rio de Santa Maria de Emeres","Santa Maria de Emeres"," Vila Real District"," Portugal","18 Rua Cemit�rio Santa Maria de Emeres, Valpa�os Municipality, Vila Real District Portugal","-7.37706500000002","41.548628"," Valpa�os Municipality","",""
"Cemit�rio de Couto de Ervededo","Chaves Municipality"," Vila Real"," Portugal","Em 507-1 Chaves Municipality, Vila Real, 5400-628 Portugal","-7.51550199999997","41.81627","","",""
"Cemit�rio de Covelinhas","Covelinhas"," Vila Real"," Portugal","Em 313-1 Covelinhas, Vila Real, 5050-012 Portugal","-7.683492","41.16111","","",""
"Cemit�rio de Cumieira","Santa Marta de Penagui�o"," Vila Real"," Portugal","En 2 Santa Marta de Penagui�o, Vila Real, 5030-066 Portugal","-7.76994000000002","41.249853","","",""
"Cemit�rio de Cubo","Carrazedo de Montenegro"," Vila Real"," Portugal","Rua Eira Almas Carrazedo de Montenegro, Vila Real, 5445-104 Portugal","-7.42060100000003","41.538172","","",""
"Cemit�rio de Santa Marta de Penagui�o","S�o Miguel"," Vila Real District"," Portugal","102 Rua da Senhora da Guia S�o Miguel, Santa Marta de Penagui�o, Vila Real District Portugal","-7.78267700000004","41.204662"," Santa Marta de Penagui�o","",""
"Cemit�rio de Contim","Contim"," Vila Real"," Portugal","Estrada Municipal 1011 Contim, Vila Real, 5470-082 Portugal","-7.89401699999996","41.779856","","",""
"Cemit�rio de Cerva","Cerva"," Vila Real"," Portugal","Em 312 Cerva, Vila Real, 4870-050 Portugal","-7.84555","41.473754","","",""
"Cemit�rio de Contador","Santa Marta de Penagui�o"," Vila Real"," Portugal","2285 R Central Medroes Santa Marta de Penagui�o, Vila Real, 5030-321 Portugal","-7.81597599999998","41.208179","","",""
"Cemit�rio de Celeir�s do Douro","Celeir�s"," Vila Real"," Portugal","109 R Portela Celeir�s, Vila Real, 5060-022 Portugal","-7.553583","41.240872","","",""
"Cemit�rio de Code�oso","Meixedo"," Vila Real"," Portugal","65 R Principal Meixedo, Vila Real, 5470-219 Portugal","-7.74515399999996","41.822122","","",""
"Cemit�rio de Castelo","Jou"," Vila Real"," Portugal","104 Br Do Castelo Jou, Vila Real, 5090-073 Portugal","-7.40099199999997","41.48595","","",""
"Cemit�rio de Covelo do Ger�s","Covelo do Ger�s"," Vila Real"," Portugal","1 R Da Igreja Covelo do Ger�s, Vila Real, 5470-101 Portugal","-7.98047099999997","41.71898","","",""
"Cemit�rio de Casas de Monforte","Chaves Municipality"," Vila Real"," Portugal","27 Estrada Municipal Chaves Municipality, Vila Real, 5400-604 Portugal","-7.33406100000002","41.785709","","",""
"Cemit�rio de Casas da Serra","Carl�o"," Vila Real"," Portugal","Em 582 Carl�o, Vila Real, 5070-202 Portugal","-7.43902300000002","41.325915","","",""
"Cemit�rio de Castedo","Castedo"," Vila Real"," Portugal","3 Lg Cap Lopes Castedo, Vila Real, 5070-227 Portugal","-7.46606999999995","41.227425","","",""
"Cemit�rio de Covas do Douro","Covas do Douro"," Vila Real"," Portugal","Em 590 Covas do Douro, Vila Real, 5085-205 Portugal","-7.59016099999997","41.187237","","",""
"Cemit�rio de Cidadelhe","Cidadelhe"," Vila Real"," Portugal","Em 601 Cidadelhe, Vila Real, 5040-152 Portugal","-7.84247700000003","41.16968","","",""
"Cemit�rio de Carvas","Valongo de Milhais"," Vila Real"," Portugal","4 R Do Vale Das Vinhas Valongo de Milhais, Vila Real, 5090-220 Portugal","-7.48391100000003","41.43995","","",""
"Cemit�rio de Cepeda","Sarraquinhos"," Vila Real"," Portugal","7 R Da Calhelha Sarraquinhos, Vila Real, 5470-463 Portugal","-7.67740600000002","41.800713","","",""
"Cemit�rio de Campos","S�o Salvador de Viveiro"," Vila Real"," Portugal","2 Qlha Da Portela S�o Salvador de Viveiro, Vila Real, 5460-512 Portugal","-7.76016000000004","41.65631","","",""
"Cemit�rio de Carrezedo de Montenegro","Carrazedo de Montenegro"," Vila Real"," Portugal","11 Rua Monsenhor Silvino N�brega Carrazedo de Montenegro, Vila Real, 5445-167 Portugal","-7.42605200000003","41.559598","","",""
"Cemit�rio de Parada","Paredes de Coura Municipality"," Viana do Castelo District"," Portugal","204 EM519 Paredes de Coura Municipality, Viana do Castelo District, 4940-064 Portugal","-8.52571599999999","41.915212","","",""
"Cemit�rio de Parada","Sago"," Viana do Castelo District"," Portugal","102 EM505 Sago, Mon��o Municipality, Viana do Castelo District Portugal","-8.46356300000002","42.020334"," Mon��o Municipality","",""
"Cemit�rio de Cambeses do Rio","Cambeses do Rio"," Vila Real"," Portugal","Em 511 Cambeses do Rio, Vila Real, 5470-041 Portugal","-7.83932400000003","41.80652","","",""
"Cemit�rio de Padreiro Santa Cristina","Arcos de Valdevez"," Viana do Castelo District"," Portugal","201 EM1311-2 Arcos de Valdevez, Viana do Castelo District Portugal","-8.48620500000004","41.825263","","",""
"Cemit�rio de Parada do Monte","Parada do Monte"," Viana do Castelo District"," Portugal","104 EM1155 Parada do Monte, Melga�o Municipality, Viana do Castelo District, 4960-300 Portugal","-8.26611100000002","42.042729"," Melga�o Municipality","",""
"Cemit�rio de Padreiro S�o Salvador","Padreiro (Salvador)"," Viana do Castelo District"," Portugal","111 N202 Padreiro (Salvador), Arcos de Valdevez, Viana do Castelo District, 4970-500 Portugal","-8.47974199999999","41.81059"," Arcos de Valdevez","",""
"Cemit�rio de Pa�o Vedro de Magalh�es","Ponte da Barca Municipality"," Viana do Castelo District"," Portugal","9 N101 Ponte da Barca Municipality, Viana do Castelo District, 4980-554 Portugal","-8.41506000000004","41.799835","","",""
"Cemit�rio de Nossa Senhora do Amparo","Caminha"," Viana do Castelo District"," Portugal","9E1 Rua da Igreja Velha Caminha, Caminha Municipality, Viana do Castelo District Portugal","-8.83690000000001","41.871095"," Caminha Municipality","",""
"Cemit�rio de Nossa Senhora de ao P�-da-Cruz","Caminha Municipality"," Viana do Castelo District"," Portugal","57 Rua de Paracoba Caminha Municipality, Viana do Castelo District, 4910-243 Portugal","-8.85617200000002","41.848981","","",""
"Cemit�rio de Oliveira","Arcos de Valdevez"," Viana do Castelo District"," Portugal","49 EM530-1 Arcos de Valdevez, Viana do Castelo District Portugal","-8.39452400000005","41.822847","","",""
"Cemit�rio de Nogueira","Ponte da Barca Municipality"," Viana do Castelo District"," Portugal","5 EM532 Ponte da Barca Municipality, Viana do Castelo District Portugal","-8.42206399999998","41.785912","","",""
"Cemit�rio de Messeg�es","Mon��o Municipality"," Viana do Castelo District"," Portugal","271 EM1125 Mon��o Municipality, Viana do Castelo District Portugal","-8.36849299999994","42.079462","","",""
"Cemit�rio de Navi�","Vitorino dos Pi�es"," Viana do Castelo District"," Portugal","1 EM538 Vitorino dos Pi�es, Ponte de Lima, Viana do Castelo District, 4990-675 Portugal","-8.61379099999999","41.668903"," Ponte de Lima","",""
"Cemit�rio de Nogueira","Vila Nova de Cerveira Municipality"," Viana do Castelo District"," Portugal","11 Rua da Igreja Vila Nova de Cerveira Municipality, Viana do Castelo District Portugal","-8.70052799999996","41.960927","","",""
"Cemit�rio de Mentrestido","Mentrestido"," Viana do Castelo District"," Portugal","112 EM515 Mentrestido, Vila Nova de Cerveira Municipality, Viana do Castelo District Portugal","-8.66803900000002","41.903162"," Vila Nova de Cerveira Municipality","",""
"Cemit�rio de Moreira do Lima","Ponte de Lima"," Viana do Castelo District"," Portugal","106 EM524 Ponte de Lima, Viana do Castelo District, 4990-670 Portugal","-8.62972600000001","41.785762","","",""
"Cemit�rio de Moreira","Moreira"," Viana do Castelo District"," Portugal","201 EM1096 Moreira, Mon��o Municipality, Viana do Castelo District Portugal","-8.48381199999994","42.023074"," Mon��o Municipality","",""
"Cemit�rio de Monte Redondo","Arcos de Valdevez"," Viana do Castelo District"," Portugal","100 EM1306 Arcos de Valdevez, Viana do Castelo District Portugal","-8.45599800000002","41.830932","","",""
"Cemit�rio de Loureda","Arcos de Valdevez"," Viana do Castelo District"," Portugal","14 EM1282 Arcos de Valdevez, Viana do Castelo District Portugal","-8.43834400000003","41.936238","","",""
"Cemit�rio de Lordelo","Arcos de Valdevez"," Viana do Castelo District"," Portugal","101 Rua de Lordelo Arcos de Valdevez, Viana do Castelo District Portugal","-8.36734999999999","41.93837","","",""
"Cemit�rio de Samai�es","Samai�es"," Vila Real District"," Portugal","54 Rua Central Samai�es, Chaves Municipality, Vila Real District, 5400-574 Portugal","-7.46632399999999","41.698573"," Chaves Municipality","",""
"Cemit�rio de Salgueiro","Mur�a Municipality"," Vila Real District"," Portugal","CM1182 Mur�a Municipality, Vila Real District Portugal","-7.40662199999997","41.430453","","",""
"Cemit�rio de Mei","Mei"," Viana do Castelo District"," Portugal","101 EM1280 Mei, Arcos de Valdevez, Viana do Castelo District Portugal","-8.46602800000005","41.919799"," Arcos de Valdevez","",""
"Cemit�rio de Santa Iria","Mes�o Frio (S�o Nicolau)"," Vila Real District"," Portugal","2 Rua Heitor Cramez Mes�o Frio (S�o Nicolau), Vila Real, Vila Real District Portugal","-7.73940100000004","41.310421"," Vila Real","",""
"Cemit�rio de Lordelo","Lordelo"," Viana do Castelo District"," Portugal","105 EM1103 Lordelo, Mon��o Municipality, Viana do Castelo District Portugal","-8.44837000000007","42.020708"," Mon��o Municipality","",""
"Cemit�rio de Rio Bom","Valpa�os Municipality"," Vila Real District"," Portugal","18 Rua Igreja Valpa�os Municipality, Vila Real District Portugal","-7.48348499999997","41.575522","","",""
"Cemit�rio de Ribalonga","Ribalonga"," Vila Real District"," Portugal","1A EM580 Ribalonga, Alij� Municipality, Vila Real District Portugal","-7.50687300000004","41.357773"," Alij� Municipality","",""
"Cemit�rio de Santa Eug�nia","Alij� Municipality"," Vila Real District"," Portugal","2 EM594 Alij� Municipality, Vila Real District, 5070-411 Portugal","-7.41228200000001","41.350282","","",""
"Cemit�rio de Sabroso","Sabroso de Aguiar"," Vila Real District"," Portugal","475 Rua do Cruzeiro Sabroso de Aguiar, Vila Pouca de Aguiar Municipality, Vila Real District Portugal","-7.59812199999999","41.575804"," Vila Pouca de Aguiar Municipality","",""
"Cemit�rio de Rio Torto","Rio Torto"," Vila Real District"," Portugal","17 Rua Bairrais Rio Torto, Valpa�os Municipality, Vila Real District, 5430-201 Portugal","-7.277106","41.554992"," Valpa�os Municipality","",""
"Cemit�rio de Ribeirinha","Mur�a Municipality"," Vila Real District"," Portugal","28 Rua Central Mur�a Municipality, Vila Real District Portugal","-7.43691000000001","41.432969","","",""
"Cemit�rio de Revel","Mes�o Frio (S�o Nicolau)"," Vila Real District"," Portugal","10 Rua Central Mes�o Frio (S�o Nicolau), Vila Pouca de Aguiar Municipality, Vila Real District Portugal","-7.54558399999996","41.476966"," Vila Pouca de Aguiar Municipality","",""
"Cemit�rio de Rendufe","Valpa�os Municipality"," Vila Real District"," Portugal","36 Rua Taipa Valpa�os Municipality, Vila Real District Portugal","-7.39619100000004","41.533614","","",""
"Cemit�rio de Reigoso","Reigoso"," Vila Real District"," Portugal","7 Rua Principal Reigoso, Montalegre Municipality, Vila Real District, 5470-393 Portugal","-7.93481399999996","41.715239"," Montalegre Municipality","",""
"Cemit�rio de Redial","Chaves Municipality"," Vila Real District"," Portugal","1 Rua Campo da Bola Chaves Municipality, Vila Real District Portugal","-7.53229699999997","41.678232","","",""
"Cemit�rio de Porrais","Mur�a Municipality"," Vila Real District"," Portugal","3 Estrada Principal Mur�a Municipality, Vila Real District, 5090-013 Portugal","-7.37696000000005","41.348154","","",""
"Cemit�rio de Redondelo","Redondelo"," Vila Real District"," Portugal","1 Rua Vidoeiro Redondelo, Chaves Municipality, Vila Real District Portugal","-7.56920200000002","41.7029"," Chaves Municipality","",""
"Cemit�rio de Rebordondo","Chaves Municipality"," Vila Real District"," Portugal","2 Rua Central Chaves Municipality, Vila Real District, 5425-011 Portugal","-7.58436000000006","41.69795","","",""
"Cemit�rio de Polide","Valpa�os Municipality"," Vila Real District"," Portugal","Rua Amaro Nogueira Valpa�os Municipality, Vila Real District Portugal","-7.23842300000001","41.774406","","",""
"Cemit�rio de Rebordelo","Vinhais"," Vila Real District"," Portugal","N103 Vinhais, Vila Real District Portugal","-7.16745600000002","41.742624","","",""
"Cemit�rio de Cabanas","Curros"," Vila Real"," Portugal","15 R Do Bairro Novo Curros, Vila Real, 5445-031 Portugal","-7.47275000000002","41.534014","","",""
"Cemit�rio de Boticas","Boticas Municipality"," Vila Real"," Portugal","6 R Do Cemit�rio Boticas Municipality, Vila Real, 5460-301 Portugal","-7.657693","41.689555","","",""
"Cemit�rio de Bragadas","Santo Aleixo de Al�m-T�mega"," Vila Real"," Portugal","Rua Alto Da Macieira Santo Aleixo de Al�m-T�mega, Vila Real, 4870-251 Portugal","-7.827405","41.536996","","",""
"Cemit�rio de Bustelo","Chaves Municipality"," Vila Real"," Portugal","1 R Cemitrio Chaves Municipality, Vila Real, 5400-607 Portugal","-7.48826600000007","41.791318","","",""
"Cemit�rio de Provezende","Provesende"," Vila Real District"," Portugal","1 EM587 Provesende, Sabrosa, Vila Real District, 5060-253 Portugal","-7.562726","41.220286"," Sabrosa","",""
"Cemit�rio de Be�a","Be�a"," Vila Real"," Portugal","3 Av De S Bartolomeu Be�a, Vila Real, 5460-150 Portugal","-7.70068700000002","41.691243","","",""
"Cemit�rio de Poiares","Poiares"," Vila Real District"," Portugal","43 Rua das Flores Poiares, Peso da R�gua Municipality, Vila Real District, 5050-341 Portugal","-7.72240599999998","41.177021"," Peso da R�gua Municipality","",""
"Cemit�rio de Cabanes","Pensalvos"," Vila Real"," Portugal","3 R De Sto Ant�nio Pensalvos, Vila Real, 5450-231 Portugal","-7.66203700000006","41.541156","","",""
"Cemit�rio de Barqueiros","Barqueiros"," Vila Real"," Portugal","Estrada Nacional 108-3 Barqueiros, Vila Real, 5040-127 Portugal","-7.90028600000005","41.136025","","",""
"Cemit�rio de Atei","Atei"," Vila Real"," Portugal","A 7 Atei, Vila Real, 4880-038 Portugal","-7.93400500000007","41.466739","","",""
"Cemit�rio de Bobal","Bilh�"," Vila Real"," Portugal","Em 313 Bilh�, Vila Real, 4880-081 Portugal","-7.83553800000004","41.403546","","",""
"Cemit�rio de Atilh�","Alturas do Barroso"," Vila Real"," Portugal","Em 520 Alturas do Barroso, Vila Real, 5460-020 Portugal","-7.79168000000004","41.706454","","",""
"Cemit�rio de Cabriz","Cerva"," Vila Real"," Portugal","Em 312 Cerva, Vila Real, 4870-039 Portugal","-7.81390099999999","41.467136","","",""
"Cemit�rio de Argemil","Carrazedo de Montenegro"," Vila Real"," Portugal","Estrada Regional 206 Carrazedo de Montenegro, Vila Real, 5445-101 Portugal","-7.41777300000001","41.584656","","",""
"Cemit�rio de Alvadia","Alvadia"," Vila Real"," Portugal","Em 313 Alvadia, Vila Real, 4870-011 Portugal","-7.77813400000002","41.440222","","",""
"Cemit�rio de Avelada","Chaves Municipality"," Vila Real"," Portugal","M 502 Chaves Municipality, Vila Real, 5400-773 Portugal","-7.23134600000003","41.850938","","",""
"Cemit�rio de Assureiras","Chaves Municipality"," Vila Real"," Portugal","1 En 103 Chaves Municipality, Vila Real, 5400-602 Portugal","-7.38352399999997","41.762586","","",""
"Cemit�rio de Loivo","Loivo"," Viana do Castelo District"," Portugal","101 EM1023 Loivo, Vila Nova de Cerveira Municipality, Viana do Castelo District Portugal","-8.749594","41.927621"," Vila Nova de Cerveira Municipality","",""
"Cemit�rio de Asnela","Cerva"," Vila Real"," Portugal","Em 312 Cerva, Vila Real, 4870-035 Portugal","-7.89482499999997","41.469325","","",""
"Cemit�rio de Alvites","Santiago da Ribeira de Alhariz"," Vila Real"," Portugal","1 R Da Liberdade Santiago da Ribeira de Alhariz, Vila Real, 5445-063 Portugal","-7.39935800000001","41.625709","","",""
"Cemit�rio de Alturas de Barroso","Alturas do Barroso"," Vila Real"," Portugal","Cm 1035 Alturas do Barroso, Vila Real, 5460-010 Portugal","-7.821414","41.701334","","",""
"Cemit�rio de Jolda S�o Paio","Jolda (S�o Paio)"," Viana do Castelo District"," Portugal","110 N202 Jolda (S�o Paio), Arcos de Valdevez, Viana do Castelo District Portugal","-8.49822399999994","41.79236"," Arcos de Valdevez","",""
"Cemit�rio de Jolda Madalena","Jolda (Madalena)"," Viana do Castelo District"," Portugal","223 EM1311-1 Jolda (Madalena), Arcos de Valdevez, Viana do Castelo District Portugal","-8.49835299999995","41.801879"," Arcos de Valdevez","",""
"Cemit�rio de Lanhelas","Lanhelas"," Viana do Castelo District"," Portugal","1405 Avenida da Liberdade Lanhelas, Caminha Municipality, Viana do Castelo District, 4910-205 Portugal","-8.79059800000005","41.907426"," Caminha Municipality","",""
"Cemit�rio de Lamas de Mouro","Lamas de Mouro"," Viana do Castelo District"," Portugal","101 N202-3 Lamas de Mouro, Melga�o Municipality, Viana do Castelo District, 4960-170 Portugal","-8.19537700000001","42.052077"," Melga�o Municipality","",""
"Cemit�rio de Lara","Lara"," Viana do Castelo District"," Portugal","101 EM508-1 Lara, Mon��o Municipality, Viana do Castelo District Portugal","-8.52690400000006","42.041874"," Mon��o Municipality","",""
"Cemit�rio de Guilhadeses","Arcos de Valdevez"," Viana do Castelo District"," Portugal","4 Rua Padre Arieiro Arcos de Valdevez, Viana do Castelo District, 4970-774 Portugal","-8.42793200000006","41.830005","","",""
"Cemit�rio de Grovas","Freixieiro de Soutelo"," Viana do Castelo District"," Portugal","28 N305 Freixieiro de Soutelo, Viana do Castelo Municipality, Viana do Castelo District Portugal","-8.82098700000006","41.801373"," Viana do Castelo Municipality","",""
"Cemit�rio de Gra��o","Arcos de Valdevez"," Viana do Castelo District"," Portugal","311 EM530 Arcos de Valdevez, Viana do Castelo District Portugal","-8.34080199999994","41.821028","","",""
"Cemit�rio de Gondar","Gondar"," Viana do Castelo District"," Portugal","6 EM526-1 Gondar, Caminha Municipality, Viana do Castelo District Portugal","-8.77767800000004","41.818428"," Caminha Municipality","",""
"Cemit�rio de Gandra","Gandra"," Viana do Castelo District"," Portugal","23 Rua da Igreja Gandra, Valen�a, Viana do Castelo District, 4930-308 Portugal","-8.61529399999995","42.004912"," Valen�a","",""
"Cemit�rio de Gielas","Giela"," Viana do Castelo District"," Portugal","62 N202 Giela, Arcos de Valdevez, Viana do Castelo District Portugal","-8.40982899999995","41.85303"," Arcos de Valdevez","",""
"Cemit�rio de Friastelas","Mato"," Viana do Castelo District"," Portugal","4 N306 Mato, Ponte de Lima, Viana do Castelo District, 4990-630 Portugal","-8.579297","41.673581"," Ponte de Lima","",""
"Cemit�rio de Gondoriz","Arcos de Valdevez"," Viana do Castelo District"," Portugal","109 N202-2 Arcos de Valdevez, Viana do Castelo District Portugal","-8.41978199999994","41.889858","","",""
"Cemit�rio de Gondomil","Gondomil"," Viana do Castelo District"," Portugal","170 EM508 Gondomil, Valen�a, Viana do Castelo District Portugal","-8.55397900000003","42.026677"," Valen�a","",""
"Cemit�rio de Fornelos","Fornelos"," Viana do Castelo District"," Portugal","99 EM1261 Fornelos, Ponte de Lima, Viana do Castelo District, 4990-621 Portugal","-8.54789700000003","41.735781"," Ponte de Lima","",""
"Cemit�rio de Gondar�m","Gondar�m"," Viana do Castelo District"," Portugal","8 Rua da Coriscada Gondar�m, Vila Nova de Cerveira Municipality, Viana do Castelo District, 4920-061 Portugal","-8.75071100000002","41.918184"," Vila Nova de Cerveira Municipality","",""
"Cemit�rio de Peso da R�gua","Peso da R�gua"," Vila Real District"," Portugal","BD Rua do Calv�rio Peso da R�gua, Peso da R�gua Municipality, Vila Real District, 5050-268 Portugal","-7.783951","41.163103"," Peso da R�gua Municipality","",""
"Cemit�rio de Fornelos","Fornelos"," Viana do Castelo District"," Portugal","99 EM1261 Fornelos, Ponte de Lima, Viana do Castelo District, 4990-621 Portugal","-8.54789700000003","41.735781"," Ponte de Lima","",""
"Cemit�rio de Gavieira","Arcos de Valdevez"," Viana do Castelo District"," Portugal","228 En 202 Arcos de Valdevez, Viana do Castelo District, 4970-150 Portugal","-8.25157200000001","41.957882","","",""
"Cemit�rio de Paradela","Paradela"," Vila Real District"," Portugal","2 Rua Cemit�rio Paradela, Montalegre Municipality, Vila Real District Portugal","-7.94353799999999","41.765772"," Montalegre Municipality","",""
"Cemit�rio de Ganfei","Gandra"," Viana do Castelo District"," Portugal","4 EM1049 Gandra, Valen�a, Viana do Castelo District Portugal","-8.62233800000001","42.040026"," Valen�a","",""
"Cemit�rio de Pegarinhos","Alij� Municipality"," Vila Real District"," Portugal","Rua do Cemit�rio Alij� Municipality, Vila Real District Portugal","-7.44751599999995","41.352444","","",""
"Cemit�rio de Parada","Chaves Municipality"," Vila Real District"," Portugal","Rua Lombeiro Chaves Municipality, Vila Real District Portugal","-7.21679300000005","41.781782","","",""
"Cemit�rio de Paradela de Gu�es","Sabrosa"," Vila Real District"," Portugal","Rua do Tanque Sabrosa, Vila Real District Portugal","-7.63824","41.22587","","",""
"Cemit�rio de Parada de Monteiros","Parada de Monteiros"," Vila Real District"," Portugal","93 Rua Central Parada de Monteiros, Vila Pouca de Aguiar Municipality, Vila Real District Portugal","-7.72030599999994","41.564447"," Vila Pouca de Aguiar Municipality","",""
"Cemit�rio de Outeiro Seco","Outeiro Seco"," Vila Real District"," Portugal","3 Rua Senhora da Azinheira Outeiro Seco, Chaves Municipality, Vila Real District Portugal","-7.44984099999999","41.768659"," Chaves Municipality","",""
"Cemit�rio de Oura","Oura"," Vila Real District"," Portugal","6 Bairro Monte Me�o Oura, Chaves Municipality, Vila Real District, 5425-218 Portugal","-7.56746699999997","41.621411"," Chaves Municipality","",""
"Cemit�rio de Orjais","Chaves Municipality"," Vila Real District"," Portugal","Rua Navalho Chaves Municipality, Vila Real District Portugal","-7.23263099999997","41.828243","","",""
"Cemit�rio de Negr�es","Montalegre Municipality"," Vila Real District"," Portugal","9 Rua Principal Montalegre Municipality, Vila Real District, 5470-323 Portugal","-7.798857","41.735242","","",""
"Cemit�rio de Nozedo","Valpa�os Municipality"," Vila Real District"," Portugal","20 Bairro Igreja Valpa�os Municipality, Vila Real District Portugal","-7.437502","41.586841","","",""
"Cemit�rio de Pa�os","Pa�os"," Vila Real District"," Portugal","18 CM1265-1 Pa�os, Sabrosa, Vila Real District Portugal","-7.59311400000001","41.256381"," Sabrosa","",""
"Cemit�rio de Mosteiro de Cima","Valpa�os Municipality"," Vila Real District"," Portugal","CM1096 Valpa�os Municipality, Vila Real District Portugal","-7.39365699999996","41.69848","","",""
"Cemit�rio de Oliveira","Mes�o Frio"," Vila Real District"," Portugal","EM601 Mes�o Frio, Vila Real District Portugal","-7.831951","41.176168","","",""
"Cemit�rio de Negr�es","Montalegre Municipality"," Vila Real District"," Portugal","9 Rua Principal Montalegre Municipality, Vila Real District, 5470-323 Portugal","-7.798857","41.735242","","",""
"Cemit�rio de Mourilhe","Mourilhe"," Vila Real District"," Portugal","8 Rua Escola Mourilhe, Montalegre Municipality, Vila Real District, 5470-311 Portugal","-7.84096","41.839094"," Montalegre Municipality","",""
"Cemit�rio de Moura Morta","Moura Morta"," Vila Real District"," Portugal","Moura Morta, Peso da R�gua Municipality, Vila Real District, 5050-322 Portugal","-7.83365100000003","41.195576"," Peso da R�gua Municipality","",""
"Cemit�rio de Agunchos","Cerva"," Vila Real"," Portugal","Rua Praina Do Casul Cerva, Vila Real, 4870-032 Portugal","-7.88861599999996","41.48925","","",""
"Cemit�rio de Monfebres","Mur�a Municipality"," Vila Real District"," Portugal","48 Rua do Ferreiro Mur�a Municipality, Vila Real District, 5090-013 Portugal","-7.36886700000002","41.384064","","",""
"Cemit�rio de Martim","Mur�a Municipality"," Vila Real District"," Portugal","5 Rua S�o Jos� Mur�a Municipality, Vila Real District Portugal","-7.39906199999996","41.366209","","",""
"Cemit�rio de �gua Rev�s e Castro","�gua Rev�s e Crasto"," Vila Real"," Portugal","17 Br De Campilho �gua Rev�s e Crasto, Vila Real, 5430-008 Portugal","-7.32773299999997","41.540722","","",""
"Cemit�rio de Formariz","Formariz"," Viana do Castelo District"," Portugal","Formariz, Paredes de Coura Municipality, Viana do Castelo District, 4940-301 Portugal","-8.56227899999999","41.952416"," Paredes de Coura Municipality","",""
"Cemit�rio de Mes�o Frio","S�o Nicolau"," Vila Real District"," Portugal","238 N101 S�o Nicolau, Mes�o Frio, Vila Real District Portugal","-7.88687200000004","41.156319"," Mes�o Frio","",""
"Cemit�rio Antigo de Coimbr�","Cerdedo"," Vila Real"," Portugal","11 Tv Da Capela Cerdedo, Vila Real, 5460-350 Portugal","-7.87942699999996","41.70218","","",""
"Cemit�rio de Moreiras","Moreiras"," Vila Real District"," Portugal","13 Rua Igreja Moreiras, Chaves Municipality, Vila Real District, 5400-643 Portugal","-7.47710400000005","41.642837"," Chaves Municipality","",""
"Cemit�rio de Afonsim","Afonsim"," Vila Real"," Portugal","44 R Do Calv�rio Afonsim, Vila Real, 5450-100 Portugal","-7.68325700000003","41.524462","","",""
"Cemit�rio de Adagoi","Capeludos"," Vila Real"," Portugal","1 Sit Da Recta Capeludos, Vila Real, 5450-201 Portugal","-7.64574100000004","41.609399","","",""
"Cemit�rio de Fojo Lobal","Ponte de Lima"," Viana do Castelo District"," Portugal","1 N306 Ponte de Lima, Viana do Castelo District, 4990-605 Portugal","-8.58192199999996","41.70258","","",""
"Cemit�rio de Extremo","Extremo"," Viana do Castelo District"," Portugal","209 N101 Extremo, Arcos de Valdevez, Viana do Castelo District Portugal","-8.46924200000001","41.96154"," Arcos de Valdevez","",""
"Cemit�rio de Cristelo","Cristelo"," Viana do Castelo District"," Portugal","104 EM1081 Cristelo, Paredes de Coura Municipality, Viana do Castelo District, 4940-210 Portugal","-8.53627200000005","41.90681"," Paredes de Coura Municipality","",""
"Cemit�rio de Dem","Dem"," Viana do Castelo District"," Portugal","101 EM526 Dem, Caminha Municipality, Viana do Castelo District Portugal","-8.77075000000002","41.840579"," Caminha Municipality","",""
"Cemit�rio de Cunhas","Arcos de Valdevez"," Viana do Castelo District"," Portugal","208 EM530 Arcos de Valdevez, Viana do Castelo District Portugal","-8.24789599999997","41.870897","","",""
"Cemit�rio de Cristelo Covo","Crist�lo C�vo"," Viana do Castelo District"," Portugal","27 Rua de Baixo Crist�lo C�vo, Valen�a, Viana do Castelo District Portugal","-8.65464399999996","42.014388"," Valen�a","",""
"Cemit�rio de Estor�os","Estor�os"," Viana do Castelo District"," Portugal","103 EM525 Estor�os, Ponte de Lima, Viana do Castelo District Portugal","-8.64686699999993","41.785124"," Ponte de Lima","",""
"Cemit�rio de Cousso","Cousso"," Viana do Castelo District"," Portugal","102 Rua do Cousso Cousso, Melga�o Municipality, Viana do Castelo District, 4960-120 Portugal","-8.29997000000003","42.061249"," Melga�o Municipality","",""
"Cemit�rio de Ermelo","Ermelo"," Viana do Castelo District"," Portugal","220 EM530 Ermelo, Arcos de Valdevez, Viana do Castelo District, 4970-140 Portugal","-8.29195100000004","41.8454"," Arcos de Valdevez","",""
"Cemit�rio de Cornes","Cornes"," Viana do Castelo District"," Portugal","43 Avenida 27 de Julho Cornes, Vila Nova de Cerveira Municipality, Viana do Castelo District Portugal","-8.67774800000007","41.954918"," Vila Nova de Cerveira Municipality","",""
"Cemit�rio de Campos","Campos"," Viana do Castelo District"," Portugal","5 Rua da Igreja Campos, Vila Nova de Cerveira Municipality, Viana do Castelo District, 4920-008 Portugal","-8.69796999999994","41.969906"," Vila Nova de Cerveira Municipality","",""
"Cemit�rio de Candemil","Candemil"," Viana do Castelo District"," Portugal","27 N302 Candemil, Vila Nova de Cerveira Municipality, Viana do Castelo District Portugal","-8.69020999999998","41.932599"," Vila Nova de Cerveira Municipality","",""
"Cemit�rio de Cambeses","Cambeses"," Viana do Castelo District"," Portugal","1 EM1096 Cambeses, Mon��o Municipality, Viana do Castelo District Portugal","-8.47691599999996","42.037266"," Mon��o Municipality","",""
"Cemit�rio de Cabreiro","Cabreiro"," Viana do Castelo District"," Portugal","301 EM529 Cabreiro, Arcos de Valdevez, Viana do Castelo District Portugal","-8.41628600000001","41.932229"," Arcos de Valdevez","",""
"Cemit�rio de Ceiv�es","Mon��o Municipality"," Viana do Castelo District"," Portugal","Mon��o Municipality, Viana do Castelo District, 4950-125 Portugal","-8.38459","42.063387","","",""
"Cemit�rio de Crasto","Ponte da Barca Municipality"," Viana do Castelo District"," Portugal","Ponte da Barca Municipality, Viana do Castelo District, 4980-246 Portugal","-8.43020300000001","41.774738","","",""
"Cemit�rio de Boiv�o","Valen�a"," Viana do Castelo District"," Portugal","2 Rua do Castelo Frai�o Valen�a, Viana do Castelo District Portugal","-8.53772800000002","42.009308","","",""
"Cemit�rio de Caba�os","Ponte de Lima"," Viana do Castelo District"," Portugal","3 N306 Ponte de Lima, Viana do Castelo District, 4990-565 Portugal","-8.57817899999998","41.689194","","",""
"Cemit�rio de Bela","Mon��o Municipality"," Viana do Castelo District"," Portugal","7 Rua de Marco Mon��o Municipality, Viana do Castelo District Portugal","-8.43006500000001","42.064903","","",""
"Cemit�rio de Loivos","Loivos"," Vila Real District"," Portugal","133A Rua Toural Loivos, Chaves Municipality, Vila Real District Portugal","-7.50738100000001","41.629389"," Chaves Municipality","",""
"Cemit�rio de Lavradas","Boticas Municipality"," Vila Real District"," Portugal","17 Rua Liberdade Boticas Municipality, Vila Real District, 5460-120 Portugal","-7.75363900000002","41.704545","","",""
"Cemit�rio de Lama de Ouri�o","Valpa�os Municipality"," Vila Real District"," Portugal","6 Rua Igreja Valpa�os Municipality, Vila Real District, 5430-022 Portugal","-7.34038899999996","41.701281","","",""
"Cemit�rio de Gouv�es da Serra","Gouv�es da Serra"," Vila Real District"," Portugal","14 CM1152 Gouv�es da Serra, Vila Pouca de Aguiar Municipality, Vila Real District Portugal","-7.73208","41.477882"," Vila Pouca de Aguiar Municipality","",""
"Cemit�rio de Freixo","Alij� Municipality"," Vila Real District"," Portugal","19 CM1274 Alij� Municipality, Vila Real District Portugal","-7.519949","41.371383","","",""
"Cemit�rio de Francelos","Alij� Municipality"," Vila Real District"," Portugal","10 Rua Sedo Monte Alij� Municipality, Vila Real District Portugal","-7.51757499999997","41.33257","","",""
"Cemit�rio de Ladrug�es","Montalegre Municipality"," Vila Real District"," Portugal","9 Rua Casal Montalegre Municipality, Vila Real District, 5470-393 Portugal","-7.92162400000007","41.720405","","",""
"Cemit�rio de Fornelos","Fornelos"," Vila Real District"," Portugal","13 Rua da Carreira Nova Fornelos, Santa Marta de Penagui�o, Vila Real District, 5030-219 Portugal","-7.80285000000004","41.246725"," Santa Marta de Penagui�o","",""
"Cemit�rio de Gralhas","Gralhas"," Vila Real District"," Portugal","1 Largo Igreja Gralhas, Montalegre Municipality, Vila Real District, 5470-160 Portugal","-7.70369800000003","41.850604"," Montalegre Municipality","",""
"Cemit�rio de Fi�es do T�mega","Fi�es do T�mega"," Vila Real District"," Portugal","4 Avenida Principal Fi�es do T�mega, Boticas Municipality, Vila Real District, 5460-432 Portugal","-7.68471999999997","41.613063"," Boticas Municipality","",""
"Cemit�rio de Badim","Mon��o Municipality"," Viana do Castelo District"," Portugal","103 EM1124 Mon��o Municipality, Viana do Castelo District Portugal","-8.36509999999998","42.063538","","",""
"Cemit�rio de Freixeda","Mes�o Frio (S�o Nicolau)"," Vila Real District"," Portugal","15A Rua Principal Mes�o Frio (S�o Nicolau), Vila Pouca de Aguiar Municipality, Vila Real District Portugal","-7.62167299999999","41.613016"," Vila Pouca de Aguiar Municipality","",""
"Cemit�rio de Arga de Baixo","Arga de Baixo"," Viana do Castelo District"," Portugal","19 EM552 Arga de Baixo, Caminha Municipality, Viana do Castelo District Portugal","-8.71430899999996","41.845046"," Caminha Municipality","",""
"Cemit�rio de Ganja","Granja"," Vila Real District"," Portugal","3 N312 Granja, Boticas Municipality, Vila Real District, 5460-451 Portugal","-7.65688799999998","41.692744"," Boticas Municipality","",""
"Cemit�rio de Arcos","Arcos"," Viana do Castelo District"," Portugal","101 EM525 Arcos, Ponte de Lima, Viana do Castelo District, 4990-530 Portugal","-8.65619100000004","41.762155"," Ponte de Lima","",""
"Cemit�rio de Frades","Montalegre Municipality"," Vila Real District"," Portugal","2 Rua Cruzeiro Montalegre Municipality, Vila Real District, 5470-041 Portugal","-7.86074099999996","41.818912","","",""
"Cemit�rio de Armada","Ponte de Lima"," Viana do Castelo District"," Portugal","474 Rua da Armada Ponte de Lima, Viana do Castelo District, 4990-545 Portugal","-8.47935899999993","41.746824","","",""
"Cemit�rio de Arga de S�o Jo�o","Caminha Municipality"," Viana do Castelo District"," Portugal","9 EM552 Caminha Municipality, Viana do Castelo District Portugal","-8.75078400000007","41.848272","","",""
"Cemit�rio de Ar�o","Valen�a"," Viana do Castelo District"," Portugal","31 Rua da Igreja Valen�a, Viana do Castelo District Portugal","-8.64518699999996","42.012163","","",""
"Cemit�rio de �gualonga","Paredes de Coura Municipality"," Viana do Castelo District"," Portugal","101 EM1077 Paredes de Coura Municipality, Viana do Castelo District, 4940-028 Portugal","-8.62102000000004","41.8803","","",""
"Cemit�rio de Ferven�a","Mondim de Basto Municipality"," Vila Real District"," Portugal","EM1204-1 Mondim de Basto Municipality, Vila Real District Portugal","-7.84805700000004","41.366537","","",""
"Cemit�rio de Adedela (Fi�es)","Fi�es"," Viana do Castelo District"," Portugal","1 EM1138 Fi�es, Melga�o Municipality, Viana do Castelo District Portugal","-8.19135600000004","42.101074"," Melga�o Municipality","",""
"Casa de Parada","Parada"," Viana do Castelo District"," Portugal","Parada, Arcos de Valdevez, Viana do Castelo District, 4970-275 Portugal","-8.42987600000004","41.855979"," Arcos de Valdevez","",""
"Cemit�rio de Abedim","Mon��o Municipality"," Viana do Castelo District"," Portugal","8 EM1106 Mon��o Municipality, Viana do Castelo District Portugal","-8.50583299999994","41.987798","","",""
"Cemit�rio de Eiriz","Mes�o Frio (S�o Nicolau)"," Vila Real District"," Portugal","65 Rua da Vreia Mes�o Frio (S�o Nicolau), Vila Pouca de Aguiar Municipality, Vila Real District Portugal","-7.57745799999998","41.558083"," Vila Pouca de Aguiar Municipality","",""
"Cemit�rio de de Sobrado","Valpa�os Municipality"," Vila Real District"," Portugal","17 Rua Estrada Principal Valpa�os Municipality, Vila Real District Portugal","-7.46818600000006","41.570914","","",""
"Cemit�rio de De Irm�os","Valpa�os Municipality"," Vila Real District"," Portugal","100 Rua Cemit�rio Valpa�os Municipality, Vila Real District, 5430-251 Portugal","-7.358788","41.497019","","",""
"Cemit�rio de Dadim","Chaves Municipality"," Vila Real District"," Portugal","20 Avenida Fern�o de Magalh�es Chaves Municipality, Vila Real District, 5400-616 Portugal","-7.29909499999997","41.800424","","",""
"Cemit�rio de Currais","Montalegre Municipality"," Vila Real District"," Portugal","18 Rua Lage Montalegre Municipality, Vila Real District, 5470-393 Portugal","-7.93787799999996","41.702032","","",""
"Cemit�rio de Cortinhas","Mur�a Municipality"," Vila Real District"," Portugal","20 Bairro Capela Mur�a Municipality, Vila Real District, 5090-032 Portugal","-7.55066299999999","41.434724","","",""
"Cemit�rio de Dorna","Chaves Municipality"," Vila Real District"," Portugal","2 Rua Ribeiro Chaves Municipality, Vila Real District Portugal","-7.488066","41.599438","","",""
"Cemit�rio de Eiras","Chaves Municipality"," Vila Real District"," Portugal","13 Rua Soutos Chaves Municipality, Vila Real District, 5400-623 Portugal","-7.41794100000004","41.721954","","",""
"Cemit�rio de Codessoso","Boticas Municipality"," Vila Real District"," Portugal","47 Rua Central Boticas Municipality, Vila Real District, 5460-370 Portugal","-7.70751599999994","41.661944","","",""
"Cemit�rio de Cotas","Cotas"," Vila Real District"," Portugal","1 EM597 Cotas, Alij� Municipality, Vila Real District Portugal","-7.485771","41.217945"," Alij� Municipality","",""
"Cemit�rio de Cela","Cela"," Vila Real District"," Portugal","16 Rua Escola Cela, Chaves Municipality, Vila Real District, 5400-611 Portugal","-7.41766699999994","41.716496"," Chaves Municipality","",""
"Cemit�rio de Ch�","Vila Ch�"," Vila Real District"," Portugal","5 N212 Vila Ch�, Alij� Municipality, Vila Real District Portugal","-7.47198800000001","41.325724"," Alij� Municipality","",""
"Cemit�rio de Cavernelhe","Mondim de Basto Municipality"," Vila Real District"," Portugal","EM1203 Mondim de Basto Municipality, Vila Real District Portugal","-7.84938999999997","41.391316","","",""
"Cemit�rio de Carvalhelhos","Boticas Municipality"," Vila Real District"," Portugal","Rua Cemit�rio Boticas Municipality, Vila Real District Portugal","-7.72496799999999","41.690754","","",""
"Cemit�rio de Castel�os","Chaves Municipality"," Vila Real District"," Portugal","2 Bairro Fonte Falgueira Chaves Municipality, Vila Real District Portugal","-7.55544599999996","41.806074","","",""
"Cemit�rio de Carvalhais","Montalegre Municipality"," Vila Real District"," Portugal","Montalegre Municipality, Vila Real District, 5470-301 Portugal","-7.74230699999998","41.730801","","",""
"Cemit�rio de Casal de Loivos","Casal de Loivos"," Vila Real District"," Portugal","1 Rua Pra�a de Oliveira Casal de Loivos, Alij� Municipality, Vila Real District, 5085-010 Portugal","-7.53195900000003","41.198838"," Alij� Municipality","",""
"Cemit�rio de Carvela","Chaves Municipality"," Vila Real District"," Portugal","1A Rua Estrada Chaves Municipality, Vila Real District Portugal","-7.43602299999998","41.689973","","",""
"Cemit�rio de Carvalho","Boticas Municipality"," Vila Real District"," Portugal","14 Rua Principal Boticas Municipality, Vila Real District Portugal","-7.74992499999996","41.683571","","",""
"Cemit�rio de Capeludos","Capeludos"," Vila Real District"," Portugal","73 Rua Cima de Vila Capeludos, Vila Pouca de Aguiar Municipality, Vila Real District Portugal","-7.63777400000004","41.622487"," Vila Pouca de Aguiar Municipality","",""
"Cemit�rio de Canelas","Peso da R�gua Municipality"," Vila Real District"," Portugal","149 Rua do Santo Passo Peso da R�gua Municipality, Vila Real District, 5050-433 Portugal","-7.72206700000004","41.163918","","",""
"Cemit�rio de Carrazedo da Cabugueira","Vila Pouca de Aguiar Municipality"," Vila Real District"," Portugal","70 CM1147 Vila Pouca de Aguiar Municipality, Vila Real District Portugal","-7.63063299999999","41.604598","","",""
"Cemit�rio de Carl�o","Carl�o"," Vila Real District"," Portugal","47 Rua Cimo do Lugar Carl�o, Alij� Municipality, Vila Real District Portugal","-7.40446799999995","41.316766"," Alij� Municipality","",""
"Cemit�rio de Carvalho","Alij� Municipality"," Vila Real District"," Portugal","N212 Alij� Municipality, Vila Real District Portugal","-7.48636299999998","41.350971","","",""
"Cemit�rio de Canedo","Mes�o Frio (S�o Nicolau)"," Vila Real District"," Portugal","23 Rua Principal Mes�o Frio (S�o Nicolau), Ribeira de Pena Municipality, Vila Real District Portugal","-7.73282800000004","41.617274"," Ribeira de Pena Municipality","",""
"Cemit�rio de Cambedo","Chaves Municipality"," Vila Real District"," Portugal","4 Rua Central Chaves Municipality, Vila Real District, 5400-813 Portugal","-7.49515900000006","41.857254","","",""
"Cemit�rio de Bou�o�es","Bou�o�es"," Vila Real District"," Portugal","Rua Senhor dos Milagres Bou�o�es, Valpa�os Municipality, Vila Real District Portugal","-7.232799","41.746429"," Valpa�os Municipality","",""
"Cemit�rio de Bostofrio","Boticas Municipality"," Vila Real District"," Portugal","30 Rua Central Boticas Municipality, Vila Real District, 5460-492 Portugal","-7.800386","41.658762","","",""
"Cemit�rio de Argemil","Chaves Municipality"," Vila Real District"," Portugal","31 Rua Nossa Senhora de F�tima Chaves Municipality, Vila Real District Portugal","-7.28766900000005","41.838432","","",""
"Cemit�rio de Bosto Ch�o","Montalegre Municipality"," Vila Real District"," Portugal","Rua da Portela Montalegre Municipality, Vila Real District Portugal","-8.023999","41.718253","","",""
"Cemit�rio de Bragado","Mes�o Frio (S�o Nicolau)"," Vila Real District"," Portugal","35 Rua do Bocal Mes�o Frio (S�o Nicolau), Vila Pouca de Aguiar Municipality, Vila Real District Portugal","-7.64269000000002","41.587116"," Vila Pouca de Aguiar Municipality","",""
"Cemit�rio de Candedo","Candedo"," Vila Real District"," Portugal","6 Travessa Laranjeira Candedo, Mur�a Municipality, Vila Real District, 5090-013 Portugal","-7.38531799999998","41.363841"," Mur�a Municipality","",""
"Cemit�rio de Bou�o�es","Bou�o�es"," Vila Real District"," Portugal","51 Rua Cemit�rio Bou�o�es, Valpa�os Municipality, Vila Real District Portugal","-7.20649700000001","41.739259"," Valpa�os Municipality","",""
"Cemit�rio de Barreiros","Barreiros"," Vila Real District"," Portugal","14 Rua Principal Barreiros, Valpa�os Municipality, Vila Real District, 5430-031 Portugal","-7.22525900000005","41.689809"," Valpa�os Municipality","",""
"Cemit�rio de Bobadela","Oliveira do Hospital"," Vila Real District"," Portugal","Rua Fonda da Vila Oliveira do Hospital, Portugal, Vila Real District Portugal","-7.31960900000001","41.761054"," Portugal","",""
"Cemit�rio de Ard�os","Ard�os"," Vila Real District"," Portugal","142 Rua Igreja Ard�os, Boticas Municipality, Vila Real District Portugal","-7.61032","41.766741"," Boticas Municipality","",""
"Cemit�rio de Arcoss�","Arcoss�"," Vila Real District"," Portugal","4 Rua Romanzeira Arcoss�, Chaves Municipality, Vila Real District Portugal","-7.59558100000004","41.649931"," Chaves Municipality","",""
"Cemit�rio de Anelhe","Anelhe"," Vila Real District"," Portugal","6 Estrada Municipal Anelhe, Chaves Municipality, Vila Real District, 5425-011 Portugal","-7.58012499999995","41.673687"," Chaves Municipality","",""
"Cemit�rio de Amoinha Nova","Valpa�os Municipality"," Vila Real District"," Portugal","10 Rua 25 de Abril Valpa�os Municipality, Vila Real District Portugal","-7.44505100000004","41.642902","","",""
"Down Town Cemetery","Brazzaville"," Brazzaville"," Republic of the Congo","Avenue de la 2�me Division Blind�e Brazzaville, Brazzaville Republic of the Congo","15.265153084656","-4.2755581071576","","",""
"Cemit�rio de Agrela de Ervededo","Chaves Municipality"," Vila Real District"," Portugal","45 Rua Cemit�rio Chaves Municipality, Vila Real District, 5400-628 Portugal","-7.50006400000007","41.825276","","",""
"Cimeti�re du Centre Ville","Brazzaville"," Brazzaville"," Republic of the Congo","Avenue de la 2�me Division Blind�e Brazzaville, Brazzaville Republic of the Congo","15.264983017197","-4.2753531735531","","",""
"Cemit�rio da Aldeia Nova do Barroso","Montalegre Municipality"," Vila Real District"," Portugal","Estrada Cemit�rio Montalegre Municipality, Vila Real District Portugal","-7.75419099999999","41.782024","","",""
"Cemit�rio de Alvarelhos","Alvarelhos"," Vila Real District"," Portugal","3A Rua Ramal Alvarelhos, Valpa�os Municipality, Vila Real District, 5430-022 Portugal","-7.33406100000002","41.712138"," Valpa�os Municipality","",""
"Cimeti�re de la Tsi�m�","Brazzaville"," Brazzaville"," Republic of the Congo","Unnamed Road Brazzaville, Brazzaville Republic of the Congo","15.281784746033","-4.2271732014025","","",""
"Cemit�rio de �guas Frias","�guas Frias"," Vila Real District"," Portugal","5 Rua Casal �guas Frias, Chaves Municipality, Vila Real District, 5400-604 Portugal","-7.34950400000002","41.771886"," Chaves Municipality","",""
"Cimet�re de Madibou","Goma Ts�-Ts�"," Brazzaville"," Republic of the Congo","Unnamed Road Goma Ts�-Ts�, Brazzaville Republic of the Congo","15.193272626984","-4.3041756701536","","",""
"Cath�drale Sacr�-Coeur ","Brazzaville"," Brazzaville"," Republic of the Congo","Avenue Monseigneur Augouard Brazzaville, Brazzaville Republic of the Congo","15.273719720238","-4.270609","","",""
"De Brazza Mausoleum","Brazzaville"," Brazzaville"," Republic of the Congo","Avenue du Serg Malamine Brazzaville, Brazzaville Republic of the Congo","15.280696169312","-4.2749775918937","","",""
"Cimeti�re","Brazzaville"," Brazzaville"," Republic of the Congo","P20 Brazzaville, Mayama, Brazzaville Republic of the Congo","15.175993457672","-4.183289889289"," Mayama","",""
"Cemit�rio Antigo de Cerdedo","Cerdedo"," Vila Real District"," Portugal","1 Rua Cano Cemit�rio Cerdedo, Boticas Municipality, Vila Real District, 5460-350 Portugal","-7.87985600000002","41.658438"," Boticas Municipality","",""
"Cementerio Buxeda","Carolina"," Carolina"," Puerto Rico","Avenida Isla Verde Carolina, Carolina, 00979 Puerto Rico","-66.03209","18.44582","","",""
"Cementerio Viejo","Cata�o"," Cata�o"," Puerto Rico","Avenida Las Nereidas Cata�o, Cata�o, 00962 Puerto Rico","-66.13216","18.44368","","",""
"Cementerio de Guaynabo","Guaynabo"," Guaynabo"," Puerto Rico","Calle Piedras Blancas Guaynabo, Guaynabo, 00969 Puerto Rico","-66.10889","18.35111","","",""
"Valles del Sur Memorial Park","Guayama"," Guayama"," Puerto Rico","Camino Pozo Hondo Guayama, Guayama, 00784 Puerto Rico","-66.133223","17.983332","","",""
"Cimeti�re","Brazzaville"," Brazzaville"," Republic of the Congo","Route de l'Auberge de Gascogne Brazzaville, Brazzaville Republic of the Congo","15.229095288361","-4.281408624318","","",""
"Guayama Memorial Park","Guayama"," Guayama"," Puerto Rico","Riego Guayama, Guayama, 00784 Puerto Rico","-66.115686","18.000596","","",""
"Cementerio Municipal Viejo de Guayama","Guayama"," Guayama"," Puerto Rico","Avenida Pedro Albizu Campos Guayama, Guayama, 00784 Puerto Rico","-66.121821","17.977663","","",""
"Cementerio Municipal de Florida","Florida"," Florida"," Puerto Rico","28-36 Calle Antonio Alcazar Florida, Florida Adentro, Florida, 00650 Puerto Rico","-66.573388","18.364696"," Florida Adentro","",""
"Cementerio Puente Blanco","Cata�o"," Cata�o"," Puerto Rico","Carretera Rafael Torrea Ortega Cata�o, Cata�o, 00962 Puerto Rico","-66.13841","18.42836","","",""
"Cementerio Puerto Rico Memorial","Carolina"," Carolina"," Puerto Rico","Avenida Isla Verde Carolina, Carolina, 00979 Puerto Rico","-66.0321","18.44591","","",""
"Saint-Denis Cathedral","Saint-Denis"," Saint-Denis District"," Reunion","24 Place de la Delivrance Saint-Denis, Saint-Denis, Saint-Denis District Reunion","55.443390830688","-20.879797878631"," Saint-Denis","",""
"Cimeti�re Paysager","La Possession"," Saint-Paul District"," Reunion","Rue Jesse Owens La Possession, Saint-Paul, Saint-Paul District Reunion","55.311969067459","-20.935529630185"," Saint-Paul","",""
"Cimeti�re Marin Saint-Paul","Saint-Paul"," R�union"," Reunion","N 1a Saint-Paul, R�union, 97460 Reunion","55.260107338623","-21.014738893323","","",""
"Cemit�rio Municipal de Portalegre","Portalegre"," Portalegre"," Portugal","Em 246-2 Portalegre, Portalegre, 7300-090 Portugal","-7.43036099999995","39.287284","","",""
"Centre Fun�raire de Prima","Sainte-Clotilde"," Saint-Denis District"," R�union","Rue du Souvenir Sainte-Clotilde, Saint-Denis, Saint-Denis District R�union","55.499128186508","-20.887750976256"," Saint-Denis","",""
"Cimetiere Des Piemontais","Le Port"," R�union"," Reunion","N 4 Le Port, R�union, 97420 Reunion","55.32789882209","-20.928806452749","","",""
"Cimeti�re Marin le Port","Le Port"," R�union"," Reunion","786 Rue Amiral Bosse Le Port, R�union, 97420 Reunion","55.285669169312","-20.940938757776","","",""
"Cemit�rio Municipal da Golpilheira","Golpilheira"," Leiria District"," Portugal","36 Rua da Paz Golpilheira, Batalha, Leiria District Portugal","-8.81672400000002","39.685878"," Batalha","",""
"Cemit�rio de Cela","Cela"," Leiria District"," Portugal","12 Rua General Humberto Delgado Cela, Alcoba�a, Leiria District Portugal","-9.04070300000001","39.53749"," Alcoba�a","",""
"Cemit�rio Municipal de Ferrel","Ferrel"," Leiria District"," Portugal","1 Rua da Saudade Ferrel, Peniche, Leiria District Portugal","-9.31052799999998","39.364258"," Peniche","",""
"Cemit�rio de Riba Fria","Peniche"," Leiria District"," Portugal","2 Rua Nossa Senhora da Nazar� Peniche, Leiria District Portugal","-9.28938700000003","39.301981","","",""
"Cemit�rio de S�o Rom�o","Vila Vi�osa"," �vora District"," Portugal","2 Bairro S�o Jo�o Vila Vi�osa, �vora District Portugal","-7.31596400000001","38.780877","","",""
"Cemit�rio dos Casais dos Rostos","Caldas da Rainha"," Leiria District"," Portugal","8 Rua dos Vales Caldas da Rainha, Leiria District Portugal","-8.99743999999998","39.306514","","",""
"Cemit�rio do Pilado","Marinha Grande"," Leiria District"," Portugal","2 Rua do Cemit�rio Marinha Grande, Marinha Grande Municipality, Leiria District, 2430-324 Portugal","-8.91358300000002","39.812194"," Marinha Grande Municipality","",""
"Cemit�rio do Juncal","Juncal"," Leiria District"," Portugal","56 Rua Carreira da Vila Juncal, Porto de M�s, Leiria District Portugal","-8.89308800000003","39.601619"," Porto de M�s","",""
"Cemit�rio de Oriola","Portel Municipality"," �vora District"," Portugal","61 Rua das Vinhas Portel Municipality, �vora District Portugal","-7.86748299999999","38.315421","","",""
"Cemit�rio de P�voa da Rainha","Gouveia"," Guarda District"," Portugal","14 Avenida C�nego �lvaro Fernandes de Oliveira Gouveia, Guarda District, 6290-061 Portugal","-7.70592199999999","40.542094","","",""
"Cemit�rio de Ribeira do Freixo","Vila Nova de Foz C�a"," Guarda District"," Portugal","E802 Vila Nova de Foz C�a, Vila Nova de Foz C�a, Guarda District Portugal","-7.29382499999997","40.790623"," Vila Nova de Foz C�a","",""
"Tapada de Vila Vi�osa","Vila Vi�osa"," �vora District"," Portugal","Avenida Bento de Jesus Caraca Vila Vi�osa, Vila Vi�osa, �vora District, 7160-280 Portugal","-7.41660400000001","38.77982"," Vila Vi�osa","",""
"Cemit�rio Antigo de Gouveia","S�o Pedro"," Guarda District"," Portugal","1 Rua 5 de Outubro S�o Pedro, Gouveia, Guarda District, 6290-525 Portugal","-7.59117700000002","40.496948"," Gouveia","",""
"Cemit�rio Velho de Tou�a","Vila Nova de Foz C�a"," Guarda District"," Portugal","N-222 Vila Nova de Foz C�a, Guarda District Portugal","-7.23220900000001","41.048156","","",""
"Cemit�rio Novo de Tou�a","Vila Nova de Foz C�a"," Guarda District"," Portugal","N-222 Vila Nova de Foz C�a, Guarda District Portugal","-7.22407999999996","41.047295","","",""
"Cemit�rio Velho de Alrote","Gouveia"," Guarda District"," Portugal","5 Rua Cilindras Gouveia, Guarda District, 6290-012 Portugal","-7.59841900000004","40.467329","","",""
"Cemit�rio Novo de Castelo Bom","Almeida"," Guarda District"," Portugal","Avenida Santa Maria Almeida, Guarda District Portugal","-6.89644999999996","40.618973","","",""
"Cemit�rio de Rio de Mel","Trancoso"," Guarda District"," Portugal","N226 Trancoso, Guarda District Portugal","-7.39259100000004","40.808738","","",""
"Cemit�rio de Vinh�","Gouveia"," Guarda District"," Portugal","8 Em 523 Gouveia, Guarda District, 6290-651 Portugal","-7.63065499999993","40.49292","","",""
"Cemit�rio Novo de �guas Belas","Sabugal"," Guarda District"," Portugal","7 Rua Dona Em�lia Saldanha Sabugal, Guarda District, 6320-014 Portugal","-7.16823099999999","40.376871","","",""
"Cimetiere de l'Est","Saint-Denis"," Saint-Denis District"," Reunion","Rue du Cimetiere de l'Est Saint-Denis, Saint-Denis, Saint-Denis District, 97430 Reunion","55.462537555542","-20.880737364775"," Saint-Denis","",""
"Jardim de Figueira de Castelo Rodrigo","Figueira de Castelo Rodrigo"," Guarda District"," Portugal","6 Largo Mateus de Castro Figueira de Castelo Rodrigo, Figueira de Castelo Rodrigo Municipality, Guarda District, 6440-126 Portugal","-6.96361200000001","40.895819"," Figueira de Castelo Rodrigo Municipality","",""
"Cemit�rio Municipal de S�o Marcos","Santa Maria"," Guarda District"," Portugal","338 Rua de Santa Maria Santa Maria, Manteigas Municipality, Guarda District Portugal","-7.53557000000001","40.404519"," Manteigas Municipality","",""
"Cemit�rio de Vilares","Trancoso"," Guarda District"," Portugal","N226 Trancoso, Guarda District Portugal","-7.29340300000001","40.718908","","",""
"Cemit�rio de Vilar Torpim","Figueira de Castelo Rodrigo Municipality"," Guarda District"," Portugal","27 Rua Padre Jo�o Mendes Garcia Figueira de Castelo Rodrigo Municipality, Guarda District, 6440-281 Portugal","-6.95324800000003","40.827495","","",""
"Cemit�rio de Vilar Formoso","Almeida"," Guarda District"," Portugal","113 Avenida das T�lias Almeida, Guarda District, 6355-339 Portugal","-6.83812799999998","40.616563","","",""
"Cemit�rio de Vila Verde","Seia"," Guarda District"," Portugal","90 Rua de Santo Ant�nio Seia, Guarda District Portugal","-7.79503899999997","40.457785","","",""
"Cemit�rio de Vila Soeiro do Ch�o","Fornos de Algodres Municipality"," Guarda District"," Portugal","3 Rua Principal Fornos de Algodres Municipality, Guarda District, 6370-411 Portugal","-7.48555999999996","40.612549","","",""
"Cemit�rio de Vila Novinha","Trancoso"," Guarda District"," Portugal","N226 Trancoso, Guarda District Portugal","-7.42389800000001","40.806549","","",""
"Cemit�rio de Vila Franca das Naves","Trancoso"," Guarda District"," Portugal","Trancoso, Guarda District, 6420-706 Portugal","-7.26279899999997","40.725805","","",""
"Cemit�rio de Vilar Formoso","Almeida"," Guarda District"," Portugal","113 Avenida das T�lias Almeida, Guarda District, 6355-339 Portugal","-6.83812799999998","40.616563","","",""
"Cemit�rio de Vila Nova de Tazem","Gouveia"," Guarda District"," Portugal","20 Rua Curada Gouveia, Guarda District, 6290-632 Portugal","-7.70237999999995","40.508526","","",""
"Cemit�rio de Vila Cova � Coelheira","Vila Cova � Coelheira"," Guarda District"," Portugal","2 Avenida Primeiro de Maio Vila Cova � Coelheira, Seia, Guarda District, 6270-644 Portugal","-7.73404700000003","40.381597"," Seia","",""
"Cemit�rio de Vila Nova de Foz Coa","Vila Nova de Foz C�a"," Guarda District"," Portugal","11 Avenida Doutor Artur M�ximo Saraiva de Aguilar Vila Nova de Foz C�a, Vila Nova de Foz C�a, Guarda District, 5150-540 Portugal","-7.14203099999997","41.08423"," Vila Nova de Foz C�a","",""
"Cemit�rio de Vila Garcia","Guarda Municipality"," Guarda District"," Portugal","1 Avenida Cidade da Guarda Guarda Municipality, Guarda District, 6300-265 Portugal","-7.17741799999999","40.516726","","",""
"Cemit�rio de Vila Boa","Sabugal"," Guarda District"," Portugal","N233-3 Sabugal, Guarda District, 6320-581 Portugal","-7.00138200000004","40.383003","","",""
"Cemit�rio de Vila de Touro","Sabugal"," Guarda District"," Portugal","16 Rua da Comenda Sabugal, Guarda District, 6320-592 Portugal","-7.10002399999996","40.415184","","",""
"Cemit�rio de Vieiro","Pinhel Municipality"," Guarda District"," Portugal","117 Rua do Canto Ribeiro Pinhel Municipality, Guarda District Portugal","-7.17938900000002","40.829795","","",""
"Cemit�rio de Vila Cort�s do Mondego","Vila Cort�s do Mondego"," Guarda District"," Portugal","16 Avenida Principal N�mero 1 Vila Cort�s do Mondego, Guarda Municipality, Guarda District Portugal","-7.30553899999995","40.60615"," Guarda Municipality","",""
"Cemit�rio de Vila Cortes da Serra","Gouveia"," Guarda District"," Portugal","N17 Gouveia, Guarda District Portugal","-7.53242399999999","40.5468","","",""
"Cemit�rio de Vila Ch�","Fornos de Algodres Municipality"," Guarda District"," Portugal","N330 Fornos de Algodres Municipality, Guarda District Portugal","-7.48492599999997","40.654206","","",""
"Cemit�rio de Vide Entre Vinhas","Celorico da Beira Municipality"," Guarda District"," Portugal","20 Em 553 Celorico da Beira Municipality, Guarda District, 6360-200 Portugal","-7.408818","40.594297","","",""
"Cemit�rio de Vasco Esteves de Baixo","Seia"," Guarda District"," Portugal","3 Rua do Casal Seia, Guarda District, 6270-011 Portugal","-7.70141899999999","40.285325","","",""
"Cemit�rio de Venda do Cepo","Trancoso"," Guarda District"," Portugal","N226 Trancoso, Trancoso, Guarda District Portugal","-7.39585299999999","40.769951"," Trancoso","",""
"Cemit�rio de V�rzea de Meruge","V�rzea de Meruge"," Guarda District"," Portugal","4 Rua do Passal V�rzea de Meruge, Seia, Guarda District Portugal","-7.78080899999998","40.393162"," Seia","",""
"Cemit�rio de Vermiosa","Figueira de Castelo Rodrigo Municipality"," Guarda District"," Portugal","Terreiro de S�o Braz Figueira de Castelo Rodrigo Municipality, Guarda District, 6440-261 Portugal","-6.87416099999996","40.829902","","",""
"Cemit�rio de Valezim","Valezim"," Guarda District"," Portugal","2 Rua do Valado Valezim, Seia, Guarda District, 6270-621 Portugal","-7.72466899999995","40.36729"," Seia","",""
"Cemit�rio de Vendada","Pinhel Municipality"," Guarda District"," Portugal","N340 Pinhel Municipality, Guarda District Portugal","-7.10691900000006","40.688105","","",""
"Cemit�rio de Vale Longo do C�a","Sabugal"," Guarda District"," Portugal","M536 Sabugal, Guarda District, 6320-571 Portugal","-7.01028199999996","40.462646","","",""
"Cemit�rio de Vale Mourisco","Sabugal"," Guarda District"," Portugal","15 Rua da Carreira Sabugal, Guarda District, 6320-014 Portugal","-7.13934500000005","40.395366","","",""
"Cemit�rio de Valhelhas","Valhelhas"," Guarda District"," Portugal","16 Rua Dom Sancho I Valhelhas, Guarda Municipality, Guarda District, 6300-235 Portugal","-7.40038900000002","40.40583"," Guarda Municipality","",""
"Cemit�rio de Vale de Estrela","Vale de Estrela"," Guarda District"," Portugal","47 Rua Major Orlindo de Carvalho Vale de Estrela, Guarda Municipality, Guarda District, 6300-230 Portugal","-7.30432399999995","40.503131"," Guarda Municipality","",""
"Cemit�rio de Vale Verde","Pinhel Municipality"," Guarda District"," Portugal","N324 Pinhel Municipality, Guarda District Portugal","-6.97435199999995","40.70172","","",""
"Cemit�rio de Vale de Madeira","Pinhel Municipality"," Guarda District"," Portugal","N324 Pinhel Municipality, Guarda District Portugal","-7.02118700000005","40.774152","","",""
"Cemit�rio de Vale de Espinho","Sabugal"," Guarda District"," Portugal","53 Rua das Pissarinhas Sabugal, Guarda District Portugal","-6.95698200000004","40.29499","","",""
"Cemit�rio de Vale de Azares","Celorico da Beira Municipality"," Guarda District"," Portugal","Avenida do Est�dio Celorico da Beira Municipality, Guarda District Portugal","-7.36288200000001","40.601661","","",""
"Cemit�rio de Vale de Afonsinho","Figueira de Castelo Rodrigo Municipality"," Guarda District"," Portugal","5 Rua da Estrada Figueira de Castelo Rodrigo Municipality, Guarda District, 6440-251 Portugal","-7.05997000000002","40.900739","","",""
"Cemit�rio de Vale das �guas","Sabugal"," Guarda District"," Portugal","12 Rua do Cemit�rio Sabugal, Guarda District, 6320-551 Portugal","-7.01124800000002","40.432056","","",""
"Cemit�rio de Valbom","Pinhel Municipality"," Guarda District"," Portugal","Rua do Silvado Pinhel Municipality, Guarda District Portugal","-7.12542200000007","40.77963","","",""
"Cemit�rio de Vale da Mula","Almeida"," Guarda District"," Portugal","Rua da Estrada Almeida, Guarda District Portugal","-6.82423500000004","40.70409","","",""
"Cemit�rio de Trancoso","S�o Pedro"," Guarda District"," Portugal","S�o Pedro, Trancoso, Guarda District, 6420-189 Portugal","-7.34538799999996","40.77839"," Trancoso","",""
"Cemit�rio de Tourais","Seia"," Guarda District"," Portugal","11 Rua Elias Bacelos Seia, Guarda District, 6270-583 Portugal","-7.75428399999998","40.467738","","",""
"Cemit�rio de Soito","Sabugal"," Guarda District"," Portugal","27 Rua do Cemit�rio Sabugal, Guarda District, 6320-657 Portugal","-6.95597499999997","40.35664","","",""
"Cemit�rio de Sintr�o","Trancoso"," Guarda District"," Portugal","N226 Trancoso, Guarda District Portugal","-7.37668499999995","40.793453","","",""
"Cemit�rio de Sequeiros","M�da Municipality"," Guarda District"," Portugal","N324 M�da Municipality, Guarda District Portugal","-7.25487699999997","41.006754","","",""
"Cemit�rio de Torre","Sabugal"," Guarda District"," Portugal","46 Rua Nuno de Montemor Sabugal, Guarda District, 6320-484 Portugal","-7.01158399999997","40.349749","","",""
"Cemit�rio de Tomadias","Vila Nova de Foz C�a"," Guarda District"," Portugal","14 Avenida da Capela Vila Nova de Foz C�a, Guarda District, 5150-450 Portugal","-7.13488600000005","40.972132","","",""
"Cemit�rio de Sapateira","M�da Municipality"," Guarda District"," Portugal","N331 M�da Municipality, Guarda District Portugal","-7.32106799999997","40.952517","","",""
"Cemit�rio de Souto de Aguiar da Beira","Souto de Aguiar da Beira"," Guarda District"," Portugal","4 Avenida Liberdade Souto de Aguiar da Beira, Aguiar da Beira Municipality, Guarda District, 3570-200 Portugal","-7.50776199999996","40.805046"," Aguiar da Beira Municipality","",""
"Cemit�rio de Sequeiros","Sequeiros"," Guarda District"," Portugal","5 Bairro Santa Luzia Sequeiros, Aguiar da Beira Municipality, Guarda District, 3570-192 Portugal","-7.50399700000003","40.840401"," Aguiar da Beira Municipality","",""
"Cemit�rio de Sequeira","Guarda"," Guarda District"," Portugal","7 Rua do Calv�rio Guarda, Guarda Municipality, Guarda District, 6300-314 Portugal","-7.22722399999998","40.551873"," Guarda Municipality","",""
"Cemit�rio de S�o Pedro de Rio Seco","Almeida"," Guarda District"," Portugal","Rua Direita Almeida, Guarda District Portugal","-6.83903599999996","40.658856","","",""
"Cemit�rio de Santo Amaro","Vila Nova de Foz C�a"," Guarda District"," Portugal","N324 Vila Nova de Foz C�a, Guarda District Portugal","-7.16113500000006","41.108769","","",""
"Cemit�rio de Seixo do C�a","Sabugal"," Guarda District"," Portugal","4 Rua do Chafariz Sabugal, Guarda District, 6320-523 Portugal","-7.02892599999996","40.462779","","",""
"Cemit�rio de Santa Comba","Vila Nova de Foz C�a"," Guarda District"," Portugal","28 Rua das Cortes Vila Nova de Foz C�a, Guarda District Portugal","-7.14645500000006","40.954423","","",""
"Cemit�rio de S�o Rom�o","S�o Rom�o"," Guarda District"," Portugal","2 Avenida Ant�nio Martins Nogueira S�o Rom�o, Seia, Guarda District Portugal","-7.71837900000003","40.402693"," Seia","",""
"Cemit�rio de Sandomil","Seia"," Guarda District"," Portugal","5 Rua do Cudesal Seia, Guarda District Portugal","-7.78633300000001","40.358567","","",""
"Cemit�rio de S�o Martinho","Trancoso"," Guarda District"," Portugal","N102 Trancoso, Guarda District Portugal","-7.31744000000003","40.785978","","",""
"Cemit�rio de Sameice","Seia"," Guarda District"," Portugal","31 Rua da Fonte Seia, Guarda District, 6270-161 Portugal","-7.77271500000006","40.42768","","",""
"Cemit�rio de Sameiro","Manteigas Municipality"," Guarda District"," Portugal","Estrada do Vale Manteigas Municipality, Guarda District Portugal","-7.49046499999997","40.407147","","",""
"Cemit�rio de Santiago","Seia"," Guarda District"," Portugal","40 Avenida General Lopes Silva Seia, Guarda District, 6270-211 Portugal","-7.73326799999995","40.422009","","",""
"Cemit�rio de Ruvina","Sabugal"," Guarda District"," Portugal","M537 Sabugal, Guarda District, 6320-301 Portugal","-7.01162599999998","40.412027","","",""
"Cemit�rio de Ruiv�s","Sabugal"," Guarda District"," Portugal","4 Rua do Ribeiro Sabugal, Guarda District, 6320-291 Portugal","-6.98946100000001","40.4186","","",""
"Cemit�rio de Roque","Pinhel Municipality"," Guarda District"," Portugal","N340 Pinhel Municipality, Guarda District Portugal","-7.13042700000005","40.676993","","",""
"Cemit�rio de Santo Est�v�o","Sabugal"," Guarda District"," Portugal","N233 Sabugal, Guarda District, 6320-511 Portugal","-7.17203900000004","40.295738","","",""
"Cemit�rio de Reigada","Figueira de Castelo Rodrigo Municipality"," Guarda District"," Portugal","N-332 Figueira de Castelo Rodrigo Municipality, Guarda District Portugal","-6.94750199999999","40.80797","","",""
"Cemit�rio de Rio Torto","Gouveia"," Guarda District"," Portugal","13 Rua do Pedrol Gouveia, Guarda District, 6290-261 Portugal","-7.64930100000004","40.513345","","",""
"Cemit�rio de Rebolosa","Sabugal"," Guarda District"," Portugal","2 Rua Professora Isabel M. Concei��o Tom�s Sabugal, Guarda District, 6320-271 Portugal","-6.91496000000006","40.421658","","",""
"Cemit�rio de Relva","Vila Nova de Foz C�a"," Guarda District"," Portugal","E802 Vila Nova de Foz C�a, Vila Nova de Foz C�a, Guarda District Portugal","-7.18263000000002","40.968228"," Vila Nova de Foz C�a","",""
"Cemit�rio de Rio de Moinhos","Trancoso"," Guarda District"," Portugal","N226 Trancoso, Guarda District Portugal","-7.39750000000004","40.781376","","",""
"Cemit�rio de Ribamondego","Gouveia"," Guarda District"," Portugal","2 Avenida da Liberdade Gouveia, Guarda District, 6290-251 Portugal","-7.58322499999997","40.570307","","",""
"Cemit�rio de Reigadinha","Pinhel Municipality"," Guarda District"," Portugal","N226 Pinhel Municipality, Guarda District Portugal","-7.17250200000001","40.763205","","",""
"Cemit�rio de Rapa","Celorico da Beira Municipality"," Guarda District"," Portugal","Estrada Intermunicipal Celorico da Beira Municipality, Guarda District Portugal","-7.33942000000002","40.582504","","",""
"Cemit�rio de Rebelhos","Sabugal"," Guarda District"," Portugal","1 Rua Principal Sabugal, Guarda District, 6250-191 Portugal","-7.284402","40.323266","","",""
"Cemit�rio de Quint� dos Bernardos","Pinhel Municipality"," Guarda District"," Portugal","N324 Pinhel Municipality, Guarda District Portugal","-7.04173700000001","40.763944","","",""
"Cemit�rio de Quinta de Santo Ant�nio","Sabugal"," Guarda District"," Portugal","CM1187-2 Sabugal, Guarda District Portugal","-7.24916499999995","40.407662","","",""
"Cemit�rio de Rapoula do C�a","Sabugal"," Guarda District"," Portugal","13 Rua do Cruzeiro Sabugal, Guarda District, 6320-261 Portugal","-7.05228099999999","40.420962","","",""
"Cemit�rio de Ramela","Guarda Municipality"," Guarda District"," Portugal","Rua Direita Guarda Municipality, Guarda District Portugal","-7.25698399999999","40.478627","","",""
"Cemit�rio de Quinta Nova","Pinhel Municipality"," Guarda District"," Portugal","N221 Pinhel Municipality, Guarda District Portugal","-7.05719599999998","40.797566","","",""
"Cemit�rio de Quinta do Cl�rigo","�guas Belas"," Guarda District"," Portugal","19 Rua do Cemit�rio �guas Belas, Sabugal, Guarda District Portugal","-7.19721900000002","40.36758"," Sabugal","",""
"Cemit�rio de Quinta Nova","Pinhel Municipality"," Guarda District"," Portugal","N221 Pinhel Municipality, Guarda District Portugal","-7.05719599999998","40.797566","","",""
"Cemit�rio de Queiriz","Fornos de Algodres Municipality"," Guarda District"," Portugal","19 Rua da Igreja Fornos de Algodres Municipality, Guarda District Portugal","-7.45442600000001","40.734228","","",""
"Cemit�rio de Quarta-Feira","Sabugal"," Guarda District"," Portugal","2 Rua Direita Sabugal, Guarda District, 6320-530 Portugal","-7.18917099999999","40.361596","","",""
"Cemit�rio de Quadrazais","Sabugal"," Guarda District"," Portugal","2 Rua do Cemit�rio Sabugal, Guarda District, 6320-242 Portugal","-6.99785599999996","40.328166","","",""
"Cemit�rio de Prados","Trancoso"," Guarda District"," Portugal","N226 Trancoso, Guarda District Portugal","-7.19089699999995","40.719005","","",""
"Cemit�rio de Pousafoles do Bispo","Guarda Municipality"," Guarda District"," Portugal","Rua de Santa Apol�nia Guarda Municipality, Guarda District Portugal","-7.17279699999995","40.414094","","",""
"Cemit�rio de Pouca Farinha","Rendo"," Guarda District"," Portugal","2 Travessa do Forno Rendo, Sabugal, Guarda District, 6320-281 Portugal","-7.02305100000001","40.374475"," Sabugal","",""
"Cemit�rio de Po�o Velho","Almeida"," Guarda District"," Portugal","N-332 Almeida, Guarda District Portugal","-6.82747900000004","40.559212","","",""
"Cemit�rio de Porto da Carne","Porto da Carne"," Guarda District"," Portugal","19 Rua da Igreja Porto da Carne, Guarda Municipality, Guarda District, 6300-170 Portugal","-7.29330700000003","40.609034"," Guarda Municipality","",""
"Cemit�rio de Porcas","Trancoso"," Guarda District"," Portugal","Aldeia de Santo In�cio Trancoso, Guarda District Portugal","-7.33423300000004","40.793545","","",""
"Cemit�rio de Ponte do Abade","Aguiar da Beira Municipality"," Guarda District"," Portugal","49 N226 Aguiar da Beira Municipality, Guarda District, 3570-192 Portugal","-7.49256600000001","40.849959","","",""
"Cemit�rio de P�nzio","Pinhel Municipality"," Guarda District"," Portugal","N16 Pinhel Municipality, Guarda District, 6400-069 Portugal","-7.07030399999996","40.60112","","",""
"Cemit�rio de Perofic�s","Sabugal"," Guarda District"," Portugal","35 Rua da Vinha Sabugal, Guarda District Portugal","-7.04203099999995","40.484462","","",""
"Cemit�rio de Po�o do Canto","M�da Municipality"," Guarda District"," Portugal","N324 M�da Municipality, Guarda District Portugal","-7.26975300000004","41.002562","","",""
"Cemit�rio de Pocinho","Vila Nova de Foz C�a"," Guarda District"," Portugal","N324 Vila Nova de Foz C�a, Vila Nova de Foz C�a, Guarda District Portugal","-7.13135299999999","41.128371"," Vila Nova de Foz C�a","",""
"Cemit�rio de Pereiro","Pinhel Municipality"," Guarda District"," Portugal","N324 Pinhel Municipality, Guarda District Portugal","-7.01303600000006","40.736139","","",""
"Cemit�rio de Peroferreiro","Aguiar da Beira Municipality"," Guarda District"," Portugal","6 Rua Direita Aguiar da Beira Municipality, Guarda District, 3570-200 Portugal","-7.46885999999995","40.815597","","",""
"Cemit�rio de Pero Martins","Figueira de Castelo Rodrigo Municipality"," Guarda District"," Portugal","1 Rua da Estrada Figueira de Castelo Rodrigo Municipality, Guarda District, 6440-231 Portugal","-7.08018300000003","40.883899","","",""
"Cemit�rio de P�ra do Mo�o","Pera do Mo�o"," Guarda District"," Portugal","2 Avenida Principal Pera do Mo�o, Guarda Municipality, Guarda District Portugal","-7.21199200000001","40.614551"," Guarda Municipality","",""
"Cemit�rio de Pena Lobo","Sabugal"," Guarda District"," Portugal","10 Rua da Capela Sabugal, Guarda District, 6320-220 Portugal","-7.20757100000003","40.391405","","",""
"Cemit�rio de Peva","Almeida"," Guarda District"," Portugal","Largo da Fonte Almeida, Guarda District Portugal","-6.99147500000004","40.665817","","",""
"Cemit�rio de Penha de �guia","Figueira de Castelo Rodrigo Municipality"," Guarda District"," Portugal","Rua Infante Dom Henrique Figueira de Castelo Rodrigo Municipality, Guarda District Portugal","-7.05110500000001","40.872948","","",""
"Cemit�rio de Palhais","Trancoso"," Guarda District"," Portugal","N226 Trancoso, Guarda District Portugal","-7.433446","40.812619","","",""
"Cemit�rio de Penedono","Penedono"," Guarda District"," Portugal","N331 Penedono, Penedono Municipality, Guarda District Portugal","-7.38669000000004","40.987901"," Penedono Municipality","",""
"Cemit�rio de Pailobo","Almeida"," Guarda District"," Portugal","N324 Almeida, Guarda District Portugal","-6.99752599999999","40.532232","","",""
"Cemit�rio de Pala","Pinhel Municipality"," Guarda District"," Portugal","Rua do Rossaio Pinhel Municipality, Guarda District Portugal","-7.148642","40.771106","","",""
"Cemit�rio de P�ga","Pega"," Guarda District"," Portugal","6 N233 Pega, Guarda Municipality, Guarda District, 6300-155 Portugal","-7.14729599999998","40.426369"," Guarda Municipality","",""
"Cemit�rio de Ozendo","Sabugal"," Guarda District"," Portugal","7 Rua do Cemit�rio Sabugal, Guarda District, 6320-241 Portugal","-7.003691","40.352925","","",""
"Cimeti�re de Saint-Leu","Piton Saint-Leu"," Saint-Paul District"," Reunion","N1A Piton Saint-Leu, Saint-Leu, Saint-Paul District Reunion","55.286867271164","-21.189443958482"," Saint-Leu","",""
"Cemit�rio de Nespereira","Gouveia"," Guarda District"," Portugal","Avenida Casas do Rio Gouveia, Guarda District Portugal","-7.60744","40.51643","","",""
"Cemit�rio de Parada","Almeida"," Guarda District"," Portugal","N324 Almeida, Guarda District Portugal","-7.03833399999996","40.538324","","",""
"Cemit�rio de Nave Redonda","Figueira de Castelo Rodrigo Municipality"," Guarda District"," Portugal","M607 Figueira de Castelo Rodrigo Municipality, Guarda District Portugal","-6.91954899999996","40.869129","","",""
"Cemit�rio de Nave de Haver","Almeida"," Guarda District"," Portugal","71 Rua de Santa B�rbara Almeida, Guarda District, 6355-131 Portugal","-6.833844","40.527675","","",""
"Cemit�rio de Pa�os da Serra","Gouveia"," Guarda District"," Portugal","11 Avenida das Escolas Gouveia, Guarda District, 6290-241 Portugal","-7.646928","40.460524","","",""
"Cemit�rio de Num�o","Vila Nova de Foz C�a"," Guarda District"," Portugal","39 Rua da Margarida Vila Nova de Foz C�a, Guarda District Portugal","-7.29483700000003","41.091352","","",""
"Cemit�rio de Nabais","Gouveia"," Guarda District"," Portugal","7 Rua Dona Flora Belo Gouveia, Guarda District, 6290-151 Portugal","-7.55231700000002","40.518188","","",""
"Cemit�rio de Muxagata","Fornos de Algodres Municipality"," Guarda District"," Portugal","Rua Luciano Augusto Pimp�o Fornos de Algodres Municipality, Guarda District Portugal","-7.46966399999997","40.655867","","",""
"Cemit�rio de Nave","Sabugal"," Guarda District"," Portugal","N233-3 Sabugal, Guarda District Portugal","-6.97888399999999","40.392768","","",""
"Cemit�rio de Mur�a","Vila Nova de Foz C�a"," Guarda District"," Portugal","20 Rua das Xoisas Vila Nova de Foz C�a, Guarda District, 5155-525 Portugal","-7.23132399999997","41.10323","","",""
"Cemit�rio de Naves","Almeida"," Guarda District"," Portugal","N-332 Almeida, Guarda District Portugal","-6.87806499999999","40.658969","","",""
"Cemit�rio de Muxagata","Vila Nova de Foz C�a"," Guarda District"," Portugal","9 Rua do Ramal Vila Nova de Foz C�a, Guarda District Portugal","-7.17271200000005","41.037029","","",""
"Cemit�rio de Monte da Velha","Almeida"," Guarda District"," Portugal","N324 Almeida, Guarda District Portugal","-6.991265","40.575137","","",""
"Cemit�rio de M�s","Vila Nova de Foz C�a"," Guarda District"," Portugal","N324 Vila Nova de Foz C�a, Guarda District Portugal","-7.19833300000005","41.111463","","",""
"Cemit�rio de Montes","Trancoso"," Guarda District"," Portugal","N226 Trancoso, Guarda District Portugal","-7.41682800000001","40.790389","","",""
"Cemit�rio Velho de Ranhados","Ranhados"," Guarda"," Portugal","55 R Do Castelo Ranhados, Guarda, 6430-362 Portugal","-7.33120400000007","40.993609","","",""
"Cemit�rio de Monte Novo","Sabugal"," Guarda District"," Portugal","1 Rua da Capela Sabugal, Guarda District, 6320-231 Portugal","-7.17856299999994","40.422885","","",""
"Cemit�rio Velho Municipal da Guarda","Guarda"," Guarda"," Portugal","2 Rua Dona Maria Lu�sa Godinho Guarda, Guarda, 6300-659 Portugal","-7.27221099999997","40.536356","","",""
"Cemit�rio Novo da Guarda","Guarda"," Guarda"," Portugal","Via De Cintura Externa Da Guarda Guarda, Guarda, 6300-307 Portugal","-7.28045999999995","40.52686","","",""
"Cemit�rio Velho de Castelo Bom","Castelo Bom"," Guarda"," Portugal","Rua Principal Castelo Bom, Guarda, 6355-042 Portugal","-6.90126799999996","40.620858","","",""
"Cemit�rio Novo de Sortelha","Sortelha"," Guarda"," Portugal","Rua Direita Sortelha, Guarda, 6320-536 Portugal","-7.21755099999996","40.328814","","",""
"Cemit�rio de Moita","Sabugal"," Guarda District"," Portugal","41 Rua da Estrada Sabugal, Guarda District Portugal","-7.19578200000001","40.299705","","",""
"Cemit�rio do Raba�al","Raba�al"," Guarda"," Portugal","Rua Principal Raba�al, Guarda, 6430-351 Portugal","-7.25795300000004","40.855698","","",""
"Cemit�rio de Vila Soeiro","Vila Soeiro"," Guarda"," Portugal","Em 556-2 Vila Soeiro, Guarda, 6300-270 Portugal","-7.33980199999996","40.540232","","",""
"Cemit�rio Municipal de Seia","Seia Municipality"," Guarda"," Portugal","Em 522 Seia Municipality, Guarda, 6270-372 Portugal","-7.69390399999998","40.428568","","",""
"Cemit�rio de Vila Ruiva","Vila Ruiva"," Guarda"," Portugal","26 Lg Do Calv�rio Vila Ruiva, Guarda, 6370-401 Portugal","-7.51791300000002","40.567613","","",""
"Cemit�rio de Vila Fernando","Vila Fernando"," Guarda"," Portugal","Em 546 Vila Fernando, Guarda, 6300-255 Portugal","-7.14883499999996","40.492804","","",""
"Cemit�rio de Vila Boa do Mondego","Vila Boa do Mondego"," Guarda"," Portugal","Cm 1096 Vila Boa do Mondego, Guarda, 6360-210 Portugal","-7.43872699999997","40.623788","","",""
"Cemit�rio do Seixo Amarelo","Seixo Amarelo"," Guarda"," Portugal","Em 527 Seixo Amarelo, Guarda, 6300-215 Portugal","-7.34458300000006","40.443681","","",""
"Cemit�rio do Carvalhal","Carvalhal"," Guarda"," Portugal","Em 603 Carvalhal, Guarda, 6430-031 Portugal","-7.28323599999999","40.882617","","",""
"Cemit�rio de Vide","Vide"," Guarda"," Portugal","Rua Do Senhor Do Calv�rio Vide, Guarda, 6285-109 Portugal","-7.78301699999997","40.294903","","",""
"Cemit�rio de Moimenta da Serra","Gouveia"," Guarda District"," Portugal","3 Largo Professor Pires das Neves Gouveia, Guarda District, 6290-141 Portugal","-7.63692700000001","40.469413","","",""
"Cemit�rio de Verdugal","P�ra do Mo�o"," Guarda"," Portugal","Cm 1178 P�ra do Mo�o, Guarda, 6300-160 Portugal","-7.21540800000003","40.606236","","",""
"Cemit�rio de Miuzela","Almeida"," Guarda District"," Portugal","M532-2 Almeida, Guarda District, 6355-110 Portugal","-7.011122","40.513089","","",""
"Cemit�rio de Meios","Meios"," Guarda District"," Portugal","29 Rua do Bairro das Lajes Meios, Guarda Municipality, Guarda District, 6300-135 Portugal","-7.35826299999997","40.490833"," Guarda Municipality","",""
"Cemit�rio de Vilar Maior","Vilar Maior"," Guarda"," Portugal","1 Tv Talainha Vilar Maior, Guarda, 6320-601 Portugal","-6.939618","40.475654","","",""
"Cemit�rio de Martim P�ga","Sabugal"," Guarda District"," Portugal","11 Largo do Santo Velho Sabugal, Guarda District, 6320-592 Portugal","-7.07753500000001","40.442587","","",""
"Cemit�rio de Miguel Ch�co","Trancoso"," Guarda District"," Portugal","N226 Trancoso, Trancoso, Guarda District Portugal","-7.39042700000005","40.761738"," Trancoso","",""
"Cemit�rio de Mata de Lobos","Figueira de Castelo Rodrigo Municipality"," Guarda District"," Portugal","2 Rua do Vale Figueira de Castelo Rodrigo Municipality, Guarda District, 6440-211 Portugal","-6.90229999999997","40.90719","","",""
"Cemit�rio de Mido","Almeida"," Guarda District"," Portugal","N16 Almeida, Guarda District Portugal","-6.93101899999999","40.623485","","",""
"Cemit�rio de Meda","M�da Municipality"," Guarda District"," Portugal","N324 M�da Municipality, Guarda District, 6430-183 Portugal","-7.25862699999993","40.9744","","",""
"Cemit�rio de Mangualde da Serra","Gouveia"," Guarda District"," Portugal","Avenida Lu�s de Cam�es Gouveia, Guarda District Portugal","-7.61997900000006","40.469743","","",""
"Cemit�rio de Luzelos","Figueira de Castelo Rodrigo Municipality"," Guarda District"," Portugal","N221 Figueira de Castelo Rodrigo Municipality, Guarda District Portugal","-7.05601100000001","40.842002","","",""
"Cemit�rio de Malta","Pinhel Municipality"," Guarda District"," Portugal","N226 Pinhel Municipality, Guarda District Portugal","-7.09426400000007","40.741501","","",""
"Cemit�rio de Lameiras de Baixo","Guarda Municipality"," Guarda District"," Portugal","CM1187-2 Guarda Municipality, Guarda District Portugal","-7.18986599999994","40.43139","","",""
"Cemit�rio de Lameiras","Pinhel Municipality"," Guarda District"," Portugal","N340 Pinhel Municipality, Guarda District Portugal","-7.10355600000003","40.708971","","",""
"Cemit�rio de Lapa dos Dinheiros","Lapa dos Dinheiros"," Guarda District"," Portugal","3 Rua do Cemit�rio Lapa dos Dinheiros, Seia, Guarda District, 6270-651 Portugal","-7.70399399999997","40.381335"," Seia","",""
"Cemit�rio de Malcata","Sabugal"," Guarda District"," Portugal","1 Rua da Capela Sabugal, Guarda District, 6320-181 Portugal","-7.06623000000002","40.298128","","",""
"Cemit�rio de Lomba","Sabugal"," Guarda District"," Portugal","1 Travessa do Calv�rio Sabugal, Guarda District Portugal","-7.16547400000002","40.406546","","",""
"Cemit�rio de Malpartida","Almeida"," Guarda District"," Portugal","1 Rua Santo Ant�nio Almeida, Guarda District, 6350-091 Portugal","-6.86969699999997","40.755928","","",""
"Cemit�rio de Ma�ainhas","Ma�ainhas de Baixo"," Guarda District"," Portugal","55 N338 Ma�ainhas de Baixo, Guarda Municipality, Guarda District Portugal","-7.30769799999996","40.531699"," Guarda Municipality","",""
"Cemit�rio de Lamegal","Pinhel Municipality"," Guarda District"," Portugal","7 Largo Jos� Marta Pinhel Municipality, Guarda District, 6400-232 Portugal","-7.079342","40.662982","","",""
"Cemit�rio de Lageosa da Raia","Sabugal"," Guarda District"," Portugal","11 Rua da Cancela Sabugal, Guarda District, 6320-161 Portugal","-6.81307800000002","40.334604","","",""
"Cemit�rio de Lagarinhos","Gouveia"," Guarda District"," Portugal","16 Rua S� Carneiro Gouveia, Guarda District, 6290-091 Portugal","-7.67605200000003","40.483465","","",""
"Cemit�rio de Velosa","Velosa"," Guarda"," Portugal","Em 1102 Velosa, Guarda, 6360-190 Portugal","-7.28986099999997","40.654875","","",""
"Cemit�rio de Torrozelo","Torrozelo"," Guarda"," Portugal","En 17 Torrozelo, Guarda, 6270-555 Portugal","-7.77010900000005","40.384222","","",""
"Cemit�rio de Vascoveiro","Vascoveiro"," Guarda"," Portugal","Em 574 Vascoveiro, Guarda, 6400-681 Portugal","-7.07158000000004","40.735039","","",""
"Cemit�rio de Valverde","Coruche"," Guarda"," Portugal","6 R Do Soitinho Coruche, Guarda, 3570-120 Portugal","-7.52683999999999","40.78606","","",""
"Cemit�rio de Vela","Vela"," Guarda"," Portugal","Em 528 Vela, Guarda, 6300-242 Portugal","-7.31017900000006","40.444786","","",""
"Cemit�rio de Terrenho","Terrenho"," Guarda"," Portugal","Rua do Cabe�o Terrenho, Guarda, 6420-631 Portugal","-7.35545400000001","40.865076","","",""
"Cemit�rio de Sobral da Serra","Sobral da Serra"," Guarda"," Portugal","Em 581-4 Sobral da Serra, Guarda, 6300-220 Portugal","-7.28126099999997","40.619514","","",""
"Cemit�rio de Senouras","Senouras"," Guarda"," Portugal","Em 566 Senouras, Guarda, 6355-170 Portugal","-6.93001300000003","40.642652","","",""
"Cemit�rio de Valdujo","Valdujo"," Guarda"," Portugal","Em 596 Valdujo, Guarda, 6420-662 Portugal","-7.29024700000002","40.831431","","",""
"Cemit�rio de Sebadelhe da Serra","Sebadelhe da Serra"," Guarda"," Portugal","Em 583 Sebadelhe da Serra, Guarda, 6420-612 Portugal","-7.396613","40.873481","","",""
"Cemit�rio de Sebadelhe da Serra","Sebadelhe da Serra"," Guarda"," Portugal","Em 583 Sebadelhe da Serra, Guarda, 6420-612 Portugal","-7.396613","40.873481","","",""
"Cemit�rio de Sarapito S�o Salvador","S�o Miguel da Guarda"," Guarda"," Portugal","51 Estrada Do Carapito S�o Miguel da Guarda, Guarda, 6300-747 Portugal","-7.26183000000003","40.560165","","",""
"Cemit�rio de S�o Juli�o","Gouveia Municipality"," Guarda"," Portugal","28 Avenida Cidade Da Covilh� Gouveia Municipality, Guarda, 6290-336 Portugal","-7.59668199999999","40.488284","","",""
"Cemit�rio de S�o Miguel da Guarda","S�o Miguel da Guarda"," Guarda"," Portugal","14 Rua Do Repouso S�o Miguel da Guarda, Guarda, 6300-819 Portugal","-7.242615","40.559198","","",""
"Cemit�rio de S�o Martinho","S�o Martinho"," Guarda"," Portugal","Em 522-3 S�o Martinho, Guarda, 6270-222 Portugal","-7.67185199999994","40.437031","","",""
"Cemit�rio de Santana da Azinha","Santana da Azinha"," Guarda"," Portugal","Cm 1183 Santana da Azinha, Guarda, 6300-200 Portugal","-7.21852000000001","40.47087","","",""
"Cemit�rio de Santa Euf�mia","Santa Euf�mia"," Guarda"," Portugal","5 R Do Cemit�rio Santa Euf�mia, Guarda, 6400-631 Portugal","-7.18174499999998","40.796206","","",""
"Jardim P�blico de Reguengos de Monsaraz","Reguengos de Monsaraz"," �vora District"," Portugal","17A Campo 25 de Abril Reguengos de Monsaraz, Reguengos de Monsaraz, �vora District Portugal","-7.53715399999999","38.422913"," Reguengos de Monsaraz","",""
"Cemit�rio de Sebadelhe da Serra","Sebadelhe da Serra"," Guarda"," Portugal","Em 583 Sebadelhe da Serra, Guarda, 6420-612 Portugal","-7.396613","40.873481","","",""
"Igreja de S�o Francisco ","Evora"," �vora District"," Portugal","39 Pra�a 1� de Maio Evora, �vora, �vora District, 7000-656 Portugal 
                         
                    ","-7.90841","38.56911"," �vora","http://en.wikipedia.org/wiki/Igreja_de_S%C3%A3o_Francisco_(%C3%89vora)",""
"Cemit�rio de Santa Marinha","Santa Marinha"," Guarda"," Portugal","12 R Do Cemit�rio Santa Marinha, Guarda, 6270-196 Portugal","-7.66030000000001","40.451614","","",""
"Cemit�rio de Santa Comba","Santa Comba"," Guarda"," Portugal","Em 521 Santa Comba, Guarda, 6270-184 Portugal","-7.72206700000004","40.447449","","",""
"Jardim P�blico de Arraiolos","Arraiolos"," �vora District"," Portugal","10 Pra�a da Rep�blica Arraiolos, Arraiolos, �vora District, 7040-026 Portugal","-7.98409300000003","38.723128"," Arraiolos","",""
"Cemit�rio S�o Mateus","Couvela de S�o Mateus"," �vora District"," Portugal","R2 Couvela de S�o Mateus, Montemor-o-Novo Municipality, �vora District Portugal","-8.21439041104509","38.6183717563656"," Montemor-o-Novo Municipality","",""
"Cemit�rio Velho de Vera Cruz","Portel Municipality"," �vora District"," Portugal","RUA DA VIDIGUEIRA Portel Municipality, �vora District Portugal","-7.68342699999994","38.228416","","",""
"Cemit�rio do Ros�rio","Alandroal Municipality"," �vora District"," Portugal","N255 Alandroal Municipality, �vora District Portugal","-7.34701399999994","38.629434","","",""
"Cemit�rio Novo de Vera Cruz","Portel Municipality"," �vora District"," Portugal","Rua da Vidigueira Portel Municipality, �vora District Portugal","-7.68563199999994","38.225894","","",""
"Cemit�rio do Ciborro","Mora Municipality"," �vora District"," Portugal","N2 Mora Municipality, �vora District Portugal","-8.23035600000003","38.79591","","",""
"Cemit�rio Novo de Vera Cruz","Portel Municipality"," �vora District"," Portugal","Rua da Vidigueira Portel Municipality, �vora District Portugal","-7.68563199999994","38.225894","","",""
"Cemit�rio Municipal da Courela da Pedreira","Nossa Senhora da Vila"," �vora District"," Portugal","2 Rua Fernando Namora Nossa Senhora da Vila, Montemor-o-Novo Municipality, �vora District, 7050-235 Portugal","-8.20156099999997","38.649443"," Montemor-o-Novo Municipality","",""
"Cemit�rio de Vimieiro","Arraiolos"," �vora District"," Portugal","12 Largo da Corredoura Arraiolos, �vora District, 7040-610 Portugal","-7.84061999999994","38.828383","","",""
"Cemit�rio de Gradiz","Gradiz"," Guarda District"," Portugal","3 Largo Terreiro Gradiz, Aguiar da Beira Municipality, Guarda District, 3570-160 Portugal","-7.54042200000004","40.861717"," Aguiar da Beira Municipality","",""
"Cemit�rio de Horta","Vila Nova de Foz C�a"," Guarda District"," Portugal","Alameda da Lameira Vila Nova de Foz C�a, Guarda District Portugal","-7.31444599999998","41.069631","","",""
"Cemit�rio de Veiros","Estremoz"," �vora District"," Portugal","Largo de Na Sra dos Rem�dios Estremoz, �vora District Portugal","-7.50019099999997","38.950686","","",""
"Cemit�rio de Jun�a","Almeida"," Guarda District"," Portugal","Rua Direita Almeida, Guarda District, 6350-072 Portugal","-6.88645700000006","40.683181","","",""
"Cemit�rio de Gouveia S�o Pedro","Gouveia"," Guarda District"," Portugal","Travessa da Fonte do Lameiro Gouveia, Guarda District Portugal","-7.58948299999997","40.508602","","",""
"Cemit�rio de Girabolhos","Girabolhos"," Guarda District"," Portugal","28 Rua da Senhora da Cabe�a Girabolhos, Seia, Guarda District, 6270-051 Portugal","-7.73872800000004","40.509932"," Seia","",""
"Cemit�rio de Gon�alo","Gon�alo"," Guarda District"," Portugal","42 Rua do Bairro Novo Gon�alo, Guarda Municipality, Guarda District, 6300-115 Portugal","-7.34559100000001","40.41816"," Guarda Municipality","",""
"Cemit�rio de Freixinho","Pinhel Municipality"," Guarda District"," Portugal","N340 Pinhel Municipality, Guarda District Portugal","-7.09547299999997","40.676656","","",""
"Cemit�rio de Gamelas","Pinhel Municipality"," Guarda District"," Portugal","N324 Pinhel Municipality, Guarda District Portugal","-7.01634899999999","40.741916","","",""
"Cemit�rio de Freixial","Trancoso"," Guarda District"," Portugal","Rua do Quebra Costas Trancoso, Guarda District Portugal","-7.24206700000002","40.801207","","",""
"Cemit�rio de Freixeda do Torr�o","Figueira de Castelo Rodrigo Municipality"," Guarda District"," Portugal","6 Rua da Entrada Figueira de Castelo Rodrigo Municipality, Guarda District, 6440-201 Portugal","-7.02869999999996","40.88861","","",""
"Cemit�rio de Girabolhos","Seia"," Guarda District"," Portugal","24 Avenida Principal Seia, Guarda District, 6270-052 Portugal","-7.73421200000007","40.505795","","",""
"Cemit�rio de Garcia Joanes","Trancoso"," Guarda District"," Portugal","N226 Trancoso, Guarda District Portugal","-7.29137900000001","40.749445","","",""
"Cemit�rio de Freixedas","Pinhel Municipality"," Guarda District"," Portugal","N340 Pinhel Municipality, Guarda District Portugal","-7.16556800000001","40.692301","","",""
"Jardim Municipal de Borba","Borba"," �vora District"," Portugal","Praca da R�publica Borba, Borba Municipality, �vora District Portugal","-7.45284100000004","38.805957"," Borba Municipality","",""
"Cemit�rio de Fornos de Algodres","Fornos de Algodres"," Guarda District"," Portugal","Avenida 25 de Abril Fornos de Algodres, Fornos de Algodres Municipality, Guarda District Portugal","-7.53576699999996","40.620444"," Fornos de Algodres Municipality","",""
"Cemit�rio de Forcalhos","Sabugal"," Guarda District"," Portugal","1 Travessa do Forno Telheiro Sabugal, Guarda District, 6320-151 Portugal","-6.82697699999994","40.373297","","",""
"Cemit�rio de Freineda","Almeida"," Guarda District"," Portugal","2 Rua do Enchido Almeida, Guarda District, 6355-060 Portugal","-6.88880399999994","40.585606","","",""
"Cemit�rio de Freches","Trancoso"," Guarda District"," Portugal","Trancoso, Guarda District, 6420-428 Portugal","-7.34406000000001","40.721247","","",""
"Cemit�rio de Fonte Longa","M�da Municipality"," Guarda District"," Portugal","N324 M�da Municipality, Guarda District, 6430-062 Portugal","-7.23292300000003","41.015665","","",""
"Cemit�rio de Salgueirais","Salgueirais"," Guarda"," Portugal","Em 553 Salgueirais, Guarda, 6360-150 Portugal","-7.421786","40.570365","","",""
"Cemit�rio de Foz Coa","Vila Nova de Foz C�a"," Guarda District"," Portugal","N102 Vila Nova de Foz C�a, Vila Nova de Foz C�a, Guarda District, 5150-566 Portugal","-7.15066200000001","41.074913"," Vila Nova de Foz C�a","",""
"Cemit�rio de Folgosinho","Gouveia"," Guarda District"," Portugal","20 Estrada da Barragem Gouveia, Guarda District, 6290-081 Portugal","-7.51668700000005","40.506096","","",""
"Cemit�rio de Rapoula","P�ra do Mo�o"," Guarda"," Portugal","En 221 P�ra do Mo�o, Guarda, 6300-160 Portugal","-7.20862399999999","40.591728","","",""
"Cemit�rio de Quinta dos Cepos","Pinheiro"," Guarda"," Portugal","2 R Principal Pinheiro, Guarda, 3570-180 Portugal","-7.60866799999997","40.780959","","",""
"Cemit�rio de Rochoso","Rochoso"," Guarda"," Portugal","3 Largo C�nego Domingos Jo�o Pires Rochoso, Guarda, 6300-195 Portugal","-7.09335099999998","40.515794","","",""
"Cemit�rio de Rocamondo","Rocamondo"," Guarda"," Portugal","Em 577 Rocamondo, Guarda, 6300-190 Portugal","-7.247344","40.626821","","",""
"Cemit�rio de P�voa Nova","S�o Martinho"," Guarda"," Portugal","Em 522-3 S�o Martinho, Guarda, 6270-221 Portugal","-7.66416400000003","40.428442","","",""
"Cemit�rio de Viana do Alentejo","Viana do Alentejo"," �vora District"," Portugal","N257 Viana do Alentejo, Viana do Alentejo, �vora District, 7090-297 Portugal","-7.98892000000001","38.331331"," Viana do Alentejo","",""
"Cemit�rio de Quinta de Gon�alo Martins","Marmeleiro"," Guarda"," Portugal","18 Av Gon�alo Martins Marmeleiro, Guarda, 6300-130 Portugal","-7.09524299999998","40.462522","","",""
"Cemit�rio de Prados","Prados"," Guarda"," Portugal","Em 555 Prados, Guarda, 6360-120 Portugal","-7.37453200000005","40.565536","","",""
"Cemit�rio de P�voa do Concelho","P�voa do Concelho"," Guarda"," Portugal","Rua Da Cruz De Pedra P�voa do Concelho, Guarda, 6420-531 Portugal","-7.26571899999999","40.761599","","",""
"Cemit�rio de P�voa de El-Rei","P�voa de El-Rei"," Guarda"," Portugal","Em 595-2 P�voa de El-Rei, Guarda, 6400-611 Portugal","-7.20083299999999","40.773998","","",""
"Cemit�rio de Pousade","Pousada"," Guarda"," Portugal","10 R Da Igreja Pousada, Guarda, 6300-175 Portugal","-7.12857800000006","40.544598","","",""
"Cemit�rio de Pinheiro","Pinheiro"," Guarda"," Portugal","Cm 1021 Pinheiro, Guarda, 3570-180 Portugal","-7.599647","40.799058","","",""
"Cemit�rio de Pinhan�os","Pinhan�os"," Guarda"," Portugal","Em 508 Pinhan�os, Guarda, 6270-141 Portugal","-7.68412000000001","40.47448","","",""
"Cemit�rio de Pena Verde","Pena Verde"," Guarda"," Portugal","Em 583 Pena Verde, Guarda, 3570-170 Portugal","-7.49249399999997","40.734298","","",""
"Cemit�rio de Porto de Ovelha","Porto de Ovelha"," Guarda"," Portugal","Antiga Estrada Municipal 532-2 Porto de Ovelha, Guarda, 6355-152 Portugal","-6.95857599999999","40.52497","","",""
"Cemit�rio de S�o Marcos do Campo","Reguengos de Monsaraz"," �vora District"," Portugal","44 Rua de Santo Ant�nio Reguengos de Monsaraz, �vora District Portugal","-7.50752199999999","38.338567","","",""
"Cemit�rio de Pomares","Pomares"," Guarda"," Portugal","Cm 1171 Pomares, Guarda, 6400-602 Portugal","-7.13612499999999","40.642918","","",""
"Cemit�rio de P�ro Soares","P�ro Soares"," Guarda"," Portugal","Em 556 P�ro Soares, Guarda, 6300-165 Portugal","-7.32560899999999","40.549172","","",""
"Cemit�rio de Penedo da S�","Marmeleiro"," Guarda"," Portugal","7 R Do Caminho Novo Marmeleiro, Guarda, 6300-130 Portugal","-7.07057099999997","40.481556","","",""
"Cemit�rio de S�o Domingos de Ana Loura","Estremoz"," �vora District"," Portugal","28 Traseiras do Largo do Janeco Estremoz, �vora District Portugal","-7.50179800000001","38.871953","","",""
"Cemit�rio de S�o Geraldo","Montemor-o-Novo Municipality"," �vora District"," Portugal","N2 Montemor-o-Novo Municipality, �vora District Portugal","-8.19460200000003","38.761676","","",""
"Cemit�rio de S�o Pedro do Corval","Reguengos de Monsaraz"," �vora District"," Portugal","25 Rua do Conde Reguengos de Monsaraz, �vora District Portugal","-7.48414800000001","38.444844","","",""
"Cemit�rio de S�o Crist�v�o","S�o Crist�v�o"," �vora District"," Portugal","23 Largo 25 de Abril S�o Crist�v�o, Montemor-o-Novo Municipality, �vora District Portugal","-8.30995600000006","38.490535"," Montemor-o-Novo Municipality","",""
"Cemit�rio de Santo Ant�nio do Baldio","Reguengos de Monsaraz"," �vora District"," Portugal","17 Rua Santo Ildefonso Reguengos de Monsaraz, �vora District Portugal","-7.47101599999996","38.479425","","",""
"Cemit�rio de S�o Bento do Ameixial","Estremoz"," �vora District"," Portugal","N4 Estremoz, Estremoz, �vora District Portugal","-7.64370699999995","38.846333"," Estremoz","",""
"Cemiterio de S�o Brissos","Montemor-o-Novo Municipality"," �vora District"," Portugal","CM1079-1 Montemor-o-Novo Municipality, �vora District Portugal","-8.10117700000001","38.525104","","",""
"Cemit�rio de S�o Francisco","Montemor-o-Novo"," �vora District"," Portugal","27 Largo de S�o Francisco Montemor-o-Novo, Montemor-o-Novo Municipality, �vora District, 7050-200 Portugal","-8.21087399999999","38.649334"," Montemor-o-Novo Municipality","",""
"Cemit�rio de S�o Bartolomeu do Outeiro","S�o Bartolomeu do Outeiro"," �vora District"," Portugal","79 EM522 S�o Bartolomeu do Outeiro, �vora, �vora District Portugal","-7.90316800000005","38.355303"," �vora","",""
"Cemit�rio de Santiago do Escoural","Montemor-o-Novo Municipality"," �vora District"," Portugal","32 Rua Dr.Ant�nio Jos� de Almeida Montemor-o-Novo Municipality, �vora District Portugal","-8.17192799999998","38.538032","","",""
"Cemit�rio de Portel","Portel"," �vora District"," Portugal","5 Rua 1� de Maio Portel, Portel Municipality, �vora District, 7220-426 Portugal","-7.69568200000003","38.30695"," Portel Municipality","",""
"Cemit�rio de F�ios","Sabugal"," Guarda District"," Portugal","2 Rua 25 de Abril Sabugal, Guarda District, 6320-141 Portugal","-6.89986899999997","40.283244","","",""
"Cemit�rio de Santana","Portel Municipality"," �vora District"," Portugal","7-9 Rua da Varjeca Portel Municipality, �vora District Portugal","-7.80510100000004","38.265069","","",""
"Cemit�rio de Santa Vit�ria do Ameixial","Estremoz"," �vora District"," Portugal","N245 Estremoz, �vora District Portugal","-7.67837199999997","38.896742","","",""
"Cemit�rio de Santa Susana","Redondo Municipality"," �vora District"," Portugal","EM534 Redondo Municipality, �vora District Portugal","-7.664221","38.571226","","",""
"Cemit�rio de Pardais","Vila Vi�osa"," �vora District"," Portugal","2 Rua das Escolas Vila Vi�osa, �vora District Portugal","-7.40324299999998","38.722","","",""
"Cemit�rio de Figueir� da Serra","Gouveia"," Guarda District"," Portugal","201 Rua do Hospital Gouveia, Guarda District, 6290-071 Portugal","-7.49215600000002","40.537728","","",""
"Cemit�rio de Pavia","Mora Municipality"," �vora District"," Portugal","19 Rua do Muro Mora Municipality, �vora District Portugal","-8.01537600000006","38.896806","","",""
"Cemit�rio de Outeiro","Reguengos de Monsaraz"," �vora District"," Portugal","Rua de Joaquim Ant�nio Tendeiro Reguengos de Monsaraz, �vora District Portugal","-7.39158799999996","38.467478","","",""
"Cemit�rio de Espinhal","Sabugal"," Guarda District"," Portugal","2 Estrada Principal Sabugal, Guarda District, 6320-014 Portugal","-7.13968199999999","40.377193","","",""
"Cemit�rio de Famalic�o","Famalic�o"," Guarda District"," Portugal","7 Rua das Escolas Famalic�o, Guarda Municipality, Guarda District, 6300-100 Portugal","-7.37807799999996","40.442575"," Guarda Municipality","",""
"Cemit�rio de Escarigo","Figueira de Castelo Rodrigo Municipality"," Guarda District"," Portugal","13 Rua do Calv�rio Figueira de Castelo Rodrigo Municipality, Guarda District, 6440-091 Portugal","-6.82826499999999","40.843481","","",""
"Cemit�rio de Escalh�o","Escalh�o"," Guarda District"," Portugal","1 Largo da Igreja Escalh�o, Figueira de Castelo Rodrigo Municipality, Guarda District Portugal","-6.92633100000001","40.948573"," Figueira de Castelo Rodrigo Municipality","",""
"Cemit�rio de Ervas Tenras","Pinhel Municipality"," Guarda District"," Portugal","N226 Pinhel Municipality, Guarda District Portugal","-7.18369800000005","40.740611","","",""
"Cemit�rio de Figueir� da Granja","Fornos de Algodres Municipality"," Guarda District"," Portugal","9 En 330 Fornos de Algodres Municipality, Guarda District, 6370-041 Portugal","-7.49685","40.630319","","",""
"Cemit�rio de Dir�o da Rua","Sabugal"," Guarda District"," Portugal","24 Rua do Ribeiro Sabugal, Guarda District, 6320-014 Portugal","-7.17100800000003","40.353387","","",""
"Cemit�rio de Escabralhado","Sabugal"," Guarda District"," Portugal","10 Rua da Carreira Sabugal, Guarda District Portugal","-6.91265399999998","40.45099","","",""
"Cemit�rio de Cust�ias","Vila Nova de Foz C�a"," Guarda District"," Portugal","2 EM541 Vila Nova de Foz C�a, Guarda District Portugal","-7.32018199999993","41.099957","","",""
"Cemit�rio de Corgas","Seia"," Guarda District"," Portugal","2 Rua de S�o Cosme Seia, Guarda District Portugal","-7.76793699999996","40.349998","","",""
"Cemit�rio de Corti��","Fornos de Algodres Municipality"," Guarda District"," Portugal","1 Rua do Cemit�rio Fornos de Algodres Municipality, Guarda District, 6370-031 Portugal","-7.49790699999994","40.662234","","",""
"Cemit�rio de Cinco Vilas","Figueira de Castelo Rodrigo Municipality"," Guarda District"," Portugal","Largo Padre Jo�o Mendes Garcia Figueira de Castelo Rodrigo Municipality, Guarda District Portugal","-6.96381999999994","40.788602","","",""
"Cemit�rio de Dornelas","Dornelas"," Guarda District"," Portugal","50 Bairro Soito Dornelas, Aguiar da Beira Municipality, Guarda District, 3570-130 Portugal","-7.55590800000005","40.737118"," Aguiar da Beira Municipality","",""
"Cemit�rio de Ervedosa","Pinhel Municipality"," Guarda District"," Portugal","Rua Central Pinhel Municipality, Guarda District Portugal","-7.17621899999995","40.845595","","",""
"Sapal de Castro Marim e Vila Real de Santo Ant�nio","Castro Marim Municipality"," Faro"," Portugal","En 122 Castro Marim Municipality, Faro, 8950-256 Portugal","-7.44354399999997","37.20767","","",""
"Cemit�rio de Celorico Gare","Celorico da Beira Municipality"," Guarda District"," Portugal","11 Rua da Capela de Santo Ant�nio Celorico da Beira Municipality, Guarda District Portugal","-7.37561299999993","40.669864","","",""
"Cemit�rio de Eir�","Santa Marinha"," Guarda District"," Portugal","38 EM522 Santa Marinha, Seia, Guarda District, 6270-196 Portugal","-7.65303100000006","40.454581"," Seia","",""
"Cemit�rio de Ch�s","Vila Nova de Foz C�a"," Guarda District"," Portugal","26 Largo da Capela Vila Nova de Foz C�a, Guarda District Portugal","-7.16597899999999","40.991345","","",""
"Cemit�rio de Cerdeira do C�a","Sabugal"," Guarda District"," Portugal","11 Rua de Nossa Senhora do Monte Sabugal, Guarda District, 6320-132 Portugal","-7.05131499999993","40.514161","","",""
"Cemit�rio Municipal de Vila do Bispo","Raposeira"," Faro"," Portugal","N125 Raposeira, Faro, 8650-281 Portugal","-8.89539100000002","37.081558","","",""
"Cemit�rio de Cidadelhe","Vila Nova de Foz C�a"," Guarda District"," Portugal","1 Rua de S�o Sebasti�o Vila Nova de Foz C�a, Guarda District, 5150-450 Portugal","-7.11478199999999","40.919756","","",""
"Novo Cemit�rio de Faro","Faro"," Faro"," Portugal","205 Estrada Da Penha Faro, Faro, 8005-505 Portugal","-7.92336799999998","37.036781","","",""
"Cemit�rio Municipal do Ameixial","Ameixial"," Faro"," Portugal","En 2 Ameixial, Faro, 8100-054 Portugal","-7.96179800000004","37.361536","","",""
